{
"type": "FeatureCollection",
"name": "storm_track",
"crs": { "type": "name", "properties": { "name": "urn:ogc:def:crs:OGC:1.3:CRS84" } },
"features": [
{ "type": "Feature", "properties": { "ID": 26075, "LAT": 14.2, "LON": 149.2, "VMAX": 20.0, "MSLP": 1012.95825, "RMAX": 45.0, "FSPD": 3.49107, "FDIR": 269.99997, "RENV": 500.0, "PENV": 1012.0, "VALIDT": 0, "DTG": "2026-06-22 00:00", "LATNOW": 19.7, "LONNOW": 135.5, "WINDNOW": 45.0, "DIRNOW": 9.0, "SPDNOW": 2.0, "TECH": "TRAK", "ADVNR": 12, "ATCFID": "WP082026", "NAME": "HIGOS", "FTECH": "JTWC", "FCST_DTG": "2026-06-25 06:00:00", "RUN_DTG": "2026-06-25 08:34:18", "BASIN": "WP", "STMNR": 8, "CAT_ID": null, "CAT_DESC": null, "MSGID": "WTPN52 PGTW 250900", "VALIDTIME": "2026-06-22 00:00:00" }, "geometry": { "type": "LineString", "coordinates": [ [ 149.199996950000013, 14.19999981 ], [ 148.5, 14.19999981 ] ] } },
{ "type": "Feature", "properties": { "ID": 26076, "LAT": 14.2, "LON": 148.5, "VMAX": 20.0, "MSLP": 1012.95825, "RMAX": 45.0, "FSPD": 3.49107, "FDIR": 269.99997, "RENV": 500.0, "PENV": 1012.0, "VALIDT": 0, "DTG": "2026-06-22 06:00", "LATNOW": 19.7, "LONNOW": 135.5, "WINDNOW": 45.0, "DIRNOW": 9.0, "SPDNOW": 2.0, "TECH": "TRAK", "ADVNR": 12, "ATCFID": "WP082026", "NAME": "HIGOS", "FTECH": "JTWC", "FCST_DTG": "2026-06-25 06:00:00", "RUN_DTG": "2026-06-25 08:34:18", "BASIN": "WP", "STMNR": 8, "CAT_ID": null, "CAT_DESC": null, "MSGID": "WTPN52 PGTW 250900", "VALIDTIME": "2026-06-22 06:00:00" }, "geometry": { "type": "LineString", "coordinates": [ [ 148.5, 14.19999981 ], [ 147.800003049999987, 14.19999981 ] ] } },
{ "type": "Feature", "properties": { "ID": 26077, "LAT": 14.2, "LON": 147.8, "VMAX": 25.0, "MSLP": 1006.0, "RMAX": 30.0, "FSPD": 6.66041, "FDIR": 283.3982, "RENV": 150.0, "PENV": 1008.0, "VALIDT": 0, "DTG": "2026-06-22 12:00", "LATNOW": 19.7, "LONNOW": 135.5, "WINDNOW": 45.0, "DIRNOW": 9.0, "SPDNOW": 2.0, "TECH": "TRAK", "ADVNR": 12, "ATCFID": "WP082026", "NAME": "HIGOS", "FTECH": "JTWC", "FCST_DTG": "2026-06-25 06:00:00", "RUN_DTG": "2026-06-25 08:34:18", "BASIN": "WP", "STMNR": 8, "CAT_ID": null, "CAT_DESC": null, "MSGID": "WTPN52 PGTW 250900", "VALIDTIME": "2026-06-22 12:00:00" }, "geometry": { "type": "LineString", "coordinates": [ [ 147.800003049999987, 14.19999981 ], [ 146.5, 14.5 ] ] } },
{ "type": "Feature", "properties": { "ID": 26078, "LAT": 14.5, "LON": 146.5, "VMAX": 30.0, "MSLP": 1006.0, "RMAX": 30.0, "FSPD": 4.59708, "FDIR": 282.9331, "RENV": 150.0, "PENV": 1008.0, "VALIDT": 0, "DTG": "2026-06-22 18:00", "LATNOW": 19.7, "LONNOW": 135.5, "WINDNOW": 45.0, "DIRNOW": 9.0, "SPDNOW": 2.0, "TECH": "TRAK", "ADVNR": 12, "ATCFID": "WP082026", "NAME": "HIGOS", "FTECH": "JTWC", "FCST_DTG": "2026-06-25 06:00:00", "RUN_DTG": "2026-06-25 08:34:18", "BASIN": "WP", "STMNR": 8, "CAT_ID": null, "CAT_DESC": null, "MSGID": "WTPN52 PGTW 250900", "VALIDTIME": "2026-06-22 18:00:00" }, "geometry": { "type": "LineString", "coordinates": [ [ 146.5, 14.5 ], [ 145.6000061, 14.69999981 ] ] } },
{ "type": "Feature", "properties": { "ID": 26079, "LAT": 14.7, "LON": 145.6, "VMAX": 35.0, "MSLP": 1005.0, "RMAX": 30.0, "FSPD": 3.52029, "FDIR": 278.40314, "RENV": 210.0, "PENV": 1008.0, "VALIDT": 0, "DTG": "2026-06-23 00:00", "LATNOW": 19.7, "LONNOW": 135.5, "WINDNOW": 45.0, "DIRNOW": 9.0, "SPDNOW": 2.0, "TECH": "TRAK", "ADVNR": 12, "ATCFID": "WP082026", "NAME": "HIGOS", "FTECH": "JTWC", "FCST_DTG": "2026-06-25 06:00:00", "RUN_DTG": "2026-06-25 08:34:18", "BASIN": "WP", "STMNR": 8, "CAT_ID": null, "CAT_DESC": null, "MSGID": "WTPN52 PGTW 250900", "VALIDTIME": "2026-06-23 00:00:00" }, "geometry": { "type": "LineString", "coordinates": [ [ 145.6000061, 14.69999981 ], [ 144.8999939, 14.80000019 ] ] } },
{ "type": "Feature", "properties": { "ID": 26080, "LAT": 14.8, "LON": 144.9, "VMAX": 35.0, "MSLP": 1005.0, "RMAX": 50.0, "FSPD": 4.97377, "FDIR": 269.99997, "RENV": 130.0, "PENV": 1009.0, "VALIDT": 0, "DTG": "2026-06-23 06:00", "LATNOW": 19.7, "LONNOW": 135.5, "WINDNOW": 45.0, "DIRNOW": 9.0, "SPDNOW": 2.0, "TECH": "TRAK", "ADVNR": 12, "ATCFID": "WP082026", "NAME": "HIGOS", "FTECH": "JTWC", "FCST_DTG": "2026-06-25 06:00:00", "RUN_DTG": "2026-06-25 08:34:18", "BASIN": "WP", "STMNR": 8, "CAT_ID": null, "CAT_DESC": null, "MSGID": "WTPN52 PGTW 250900", "VALIDTIME": "2026-06-23 06:00:00" }, "geometry": { "type": "LineString", "coordinates": [ [ 144.8999939, 14.80000019 ], [ 143.8999939, 14.80000019 ] ] } },
{ "type": "Feature", "properties": { "ID": 26081, "LAT": 14.8, "LON": 143.9, "VMAX": 30.0, "MSLP": 1003.0, "RMAX": 40.0, "FSPD": 5.49398, "FDIR": 275.37286, "RENV": 140.0, "PENV": 1008.0, "VALIDT": 0, "DTG": "2026-06-23 12:00", "LATNOW": 19.7, "LONNOW": 135.5, "WINDNOW": 45.0, "DIRNOW": 9.0, "SPDNOW": 2.0, "TECH": "TRAK", "ADVNR": 12, "ATCFID": "WP082026", "NAME": "HIGOS", "FTECH": "JTWC", "FCST_DTG": "2026-06-25 06:00:00", "RUN_DTG": "2026-06-25 08:34:18", "BASIN": "WP", "STMNR": 8, "CAT_ID": null, "CAT_DESC": null, "MSGID": "WTPN52 PGTW 250900", "VALIDTIME": "2026-06-23 12:00:00" }, "geometry": { "type": "LineString", "coordinates": [ [ 143.8999939, 14.80000019 ], [ 142.800003049999987, 14.89999962 ] ] } },
{ "type": "Feature", "properties": { "ID": 26082, "LAT": 14.9, "LON": 142.8, "VMAX": 30.0, "MSLP": 1003.0, "RMAX": 30.0, "FSPD": 4.58911, "FDIR": 282.956, "RENV": 140.0, "PENV": 1010.0, "VALIDT": 0, "DTG": "2026-06-23 18:00", "LATNOW": 19.7, "LONNOW": 135.5, "WINDNOW": 45.0, "DIRNOW": 9.0, "SPDNOW": 2.0, "TECH": "TRAK", "ADVNR": 12, "ATCFID": "WP082026", "NAME": "HIGOS", "FTECH": "JTWC", "FCST_DTG": "2026-06-25 06:00:00", "RUN_DTG": "2026-06-25 08:34:18", "BASIN": "WP", "STMNR": 8, "CAT_ID": null, "CAT_DESC": null, "MSGID": "WTPN52 PGTW 250900", "VALIDTIME": "2026-06-23 18:00:00" }, "geometry": { "type": "LineString", "coordinates": [ [ 142.800003049999987, 14.89999962 ], [ 141.8999939, 15.10000038 ] ] } },
{ "type": "Feature", "properties": { "ID": 26083, "LAT": 15.1, "LON": 141.9, "VMAX": 30.0, "MSLP": 1010.40607, "RMAX": 44.21983, "FSPD": 6.26831, "FDIR": 299.49994, "RENV": 500.0, "PENV": 1012.0, "VALIDT": 0, "DTG": "2026-06-24 00:00", "LATNOW": 19.7, "LONNOW": 135.5, "WINDNOW": 45.0, "DIRNOW": 9.0, "SPDNOW": 2.0, "TECH": "TRAK", "ADVNR": 12, "ATCFID": "WP082026", "NAME": "HIGOS", "FTECH": "JTWC", "FCST_DTG": "2026-06-25 06:00:00", "RUN_DTG": "2026-06-25 08:34:18", "BASIN": "WP", "STMNR": 8, "CAT_ID": null, "CAT_DESC": null, "MSGID": "WTPN52 PGTW 250900", "VALIDTIME": "2026-06-24 00:00:00" }, "geometry": { "type": "LineString", "coordinates": [ [ 141.8999939, 15.10000038 ], [ 140.800003049999987, 15.69999981 ] ] } },
{ "type": "Feature", "properties": { "ID": 26084, "LAT": 15.7, "LON": 140.8, "VMAX": 30.0, "MSLP": 1003.0, "RMAX": 40.0, "FSPD": 6.25443, "FDIR": 299.57196, "RENV": 140.0, "PENV": 1008.0, "VALIDT": 0, "DTG": "2026-06-24 06:00", "LATNOW": 19.7, "LONNOW": 135.5, "WINDNOW": 45.0, "DIRNOW": 9.0, "SPDNOW": 2.0, "TECH": "TRAK", "ADVNR": 12, "ATCFID": "WP082026", "NAME": "HIGOS", "FTECH": "JTWC", "FCST_DTG": "2026-06-25 06:00:00", "RUN_DTG": "2026-06-25 08:34:18", "BASIN": "WP", "STMNR": 8, "CAT_ID": null, "CAT_DESC": null, "MSGID": "WTPN52 PGTW 250900", "VALIDTIME": "2026-06-24 06:00:00" }, "geometry": { "type": "LineString", "coordinates": [ [ 140.800003049999987, 15.69999981 ], [ 139.699996950000013, 16.29999924 ] ] } },
{ "type": "Feature", "properties": { "ID": 26085, "LAT": 16.3, "LON": 139.7, "VMAX": 30.0, "MSLP": 1002.0, "RMAX": 30.0, "FSPD": 6.92454, "FDIR": 301.3357, "RENV": 145.0, "PENV": 1008.0, "VALIDT": 0, "DTG": "2026-06-24 12:00", "LATNOW": 19.7, "LONNOW": 135.5, "WINDNOW": 45.0, "DIRNOW": 9.0, "SPDNOW": 2.0, "TECH": "TRAK", "ADVNR": 12, "ATCFID": "WP082026", "NAME": "HIGOS", "FTECH": "JTWC", "FCST_DTG": "2026-06-25 06:00:00", "RUN_DTG": "2026-06-25 08:34:18", "BASIN": "WP", "STMNR": 8, "CAT_ID": null, "CAT_DESC": null, "MSGID": "WTPN52 PGTW 250900", "VALIDTIME": "2026-06-24 12:00:00" }, "geometry": { "type": "LineString", "coordinates": [ [ 139.699996950000013, 16.29999924 ], [ 138.5, 17.0 ] ] } },
{ "type": "Feature", "properties": { "ID": 26086, "LAT": 17.0, "LON": 138.5, "VMAX": 35.0, "MSLP": 1002.0, "RMAX": 30.0, "FSPD": 6.038, "FDIR": 312.96948, "RENV": 150.0, "PENV": 1010.0, "VALIDT": 0, "DTG": "2026-06-24 18:00", "LATNOW": 19.7, "LONNOW": 135.5, "WINDNOW": 45.0, "DIRNOW": 9.0, "SPDNOW": 2.0, "TECH": "TRAK", "ADVNR": 12, "ATCFID": "WP082026", "NAME": "HIGOS", "FTECH": "JTWC", "FCST_DTG": "2026-06-25 06:00:00", "RUN_DTG": "2026-06-25 08:34:18", "BASIN": "WP", "STMNR": 8, "CAT_ID": null, "CAT_DESC": null, "MSGID": "WTPN52 PGTW 250900", "VALIDTIME": "2026-06-24 18:00:00" }, "geometry": { "type": "LineString", "coordinates": [ [ 138.5, 17.0 ], [ 137.6000061, 17.79999924 ] ] } },
{ "type": "Feature", "properties": { "ID": 26087, "LAT": 17.8, "LON": 137.6, "VMAX": 40.0, "MSLP": 1003.0, "RMAX": 35.0, "FSPD": 14.14897, "FDIR": 313.69537, "RENV": 135.0, "PENV": 1008.0, "VALIDT": 0, "DTG": "2026-06-25 00:00", "LATNOW": 19.7, "LONNOW": 135.5, "WINDNOW": 45.0, "DIRNOW": 9.0, "SPDNOW": 2.0, "TECH": "TRAK", "ADVNR": 12, "ATCFID": "WP082026", "NAME": "HIGOS", "FTECH": "JTWC", "FCST_DTG": "2026-06-25 06:00:00", "RUN_DTG": "2026-06-25 08:34:18", "BASIN": "WP", "STMNR": 8, "CAT_ID": null, "CAT_DESC": null, "MSGID": "WTPN52 PGTW 250900", "VALIDTIME": "2026-06-25 00:00:00" }, "geometry": { "type": "LineString", "coordinates": [ [ 137.6000061, 17.79999924 ], [ 135.5, 19.70000076 ] ] } },
{ "type": "Feature", "properties": { "ID": 26088, "LAT": 19.7, "LON": 135.5, "VMAX": 45.0, "MSLP": 1004.66364, "RMAX": 39.89946, "FSPD": 8.95501, "FDIR": 332.92838, "RENV": 500.0, "PENV": 1012.0, "VALIDT": 0, "DTG": "2026-06-25 06:00", "LATNOW": 19.7, "LONNOW": 135.5, "WINDNOW": 45.0, "DIRNOW": 9.0, "SPDNOW": 2.0, "TECH": "TRAK", "ADVNR": 12, "ATCFID": "WP082026", "NAME": "HIGOS", "FTECH": "JTWC", "FCST_DTG": "2026-06-25 06:00:00", "RUN_DTG": "2026-06-25 08:34:18", "BASIN": "WP", "STMNR": 8, "CAT_ID": null, "CAT_DESC": null, "MSGID": "WTPN52 PGTW 250900", "VALIDTIME": "2026-06-25 06:00:00" }, "geometry": { "type": "LineString", "coordinates": [ [ 135.5, 19.70000076 ], [ 133.800003049999987, 22.79999924 ] ] } },
{ "type": "Feature", "properties": { "ID": 26089, "LAT": 22.8, "LON": 133.8, "VMAX": 50.0, "MSLP": 1002.2391, "RMAX": 38.56918, "FSPD": 12.6382, "FDIR": 4.2226, "RENV": 250.0, "PENV": 1012.0, "VALIDT": 12, "DTG": "2026-06-25 18:00", "LATNOW": 19.7, "LONNOW": 135.5, "WINDNOW": 45.0, "DIRNOW": 9.0, "SPDNOW": 2.0, "TECH": "FCST", "ADVNR": 12, "ATCFID": "WP082026", "NAME": "HIGOS", "FTECH": "JTWC", "FCST_DTG": "2026-06-25 06:00:00", "RUN_DTG": "2026-06-25 08:34:18", "BASIN": "WP", "STMNR": 8, "CAT_ID": null, "CAT_DESC": null, "MSGID": "WTPN52 PGTW 250900", "VALIDTIME": "2026-06-25 18:00:00" }, "geometry": { "type": "LineString", "coordinates": [ [ 133.800003049999987, 22.79999924 ], [ 134.199996950000013, 27.70000076 ] ] } },
{ "type": "Feature", "properties": { "ID": 26090, "LAT": 27.7, "LON": 134.2, "VMAX": 50.0, "MSLP": 1002.2391, "RMAX": 38.56918, "FSPD": 16.28531, "FDIR": 25.80246, "RENV": 250.0, "PENV": 1012.0, "VALIDT": 24, "DTG": "2026-06-26 06:00", "LATNOW": 19.7, "LONNOW": 135.5, "WINDNOW": 45.0, "DIRNOW": 9.0, "SPDNOW": 2.0, "TECH": "FCST", "ADVNR": 12, "ATCFID": "WP082026", "NAME": "HIGOS", "FTECH": "JTWC", "FCST_DTG": "2026-06-25 06:00:00", "RUN_DTG": "2026-06-25 08:34:18", "BASIN": "WP", "STMNR": 8, "CAT_ID": null, "CAT_DESC": null, "MSGID": "WTPN52 PGTW 250900", "VALIDTIME": "2026-06-26 06:00:00" }, "geometry": { "type": "LineString", "coordinates": [ [ 134.199996950000013, 27.70000076 ], [ 137.3999939, 33.40000153 ] ] } },
{ "type": "Feature", "properties": { "ID": 25999, "LAT": 5.4, "LON": 176.5, "VMAX": 15.0, "MSLP": 1013.8515, "RMAX": 40.0, "FSPD": 2.04861, "FDIR": 269.99997, "RENV": 500.0, "PENV": 1012.0, "VALIDT": 0, "DTG": "2026-06-11 12:00", "LATNOW": 24.8, "LONNOW": 126.0, "WINDNOW": 50.0, "DIRNOW": 6.0, "SPDNOW": 1.0, "TECH": "TRAK", "ADVNR": 27, "ATCFID": "WP072026", "NAME": "MEKKHALA", "FTECH": "JTWC", "FCST_DTG": "2026-06-25 06:00:00", "RUN_DTG": "2026-06-25 08:34:18", "BASIN": "WP", "STMNR": 7, "CAT_ID": null, "CAT_DESC": null, "MSGID": "WTPN51 PGTW 250900", "VALIDTIME": "2026-06-11 12:00:00" }, "geometry": { "type": "LineString", "coordinates": [ [ 176.5, 5.4000001 ], [ 176.1000061, 5.4000001 ] ] } },
{ "type": "Feature", "properties": { "ID": 26000, "LAT": 5.4, "LON": 176.1, "VMAX": 15.0, "MSLP": 1013.8515, "RMAX": 40.0, "FSPD": 1.62021, "FDIR": 288.51276, "RENV": 500.0, "PENV": 1012.0, "VALIDT": 0, "DTG": "2026-06-11 18:00", "LATNOW": 24.8, "LONNOW": 126.0, "WINDNOW": 50.0, "DIRNOW": 6.0, "SPDNOW": 1.0, "TECH": "TRAK", "ADVNR": 27, "ATCFID": "WP072026", "NAME": "MEKKHALA", "FTECH": "JTWC", "FCST_DTG": "2026-06-25 06:00:00", "RUN_DTG": "2026-06-25 08:34:18", "BASIN": "WP", "STMNR": 7, "CAT_ID": null, "CAT_DESC": null, "MSGID": "WTPN51 PGTW 250900", "VALIDTIME": "2026-06-11 18:00:00" }, "geometry": { "type": "LineString", "coordinates": [ [ 176.1000061, 5.4000001 ], [ 175.800003049999987, 5.5 ] ] } },
{ "type": "Feature", "properties": { "ID": 26001, "LAT": 5.5, "LON": 175.8, "VMAX": 15.0, "MSLP": 1013.8515, "RMAX": 40.0, "FSPD": 2.75897, "FDIR": 291.89606, "RENV": 500.0, "PENV": 1012.0, "VALIDT": 0, "DTG": "2026-06-12 00:00", "LATNOW": 24.8, "LONNOW": 126.0, "WINDNOW": 50.0, "DIRNOW": 6.0, "SPDNOW": 1.0, "TECH": "TRAK", "ADVNR": 27, "ATCFID": "WP072026", "NAME": "MEKKHALA", "FTECH": "JTWC", "FCST_DTG": "2026-06-25 06:00:00", "RUN_DTG": "2026-06-25 08:34:18", "BASIN": "WP", "STMNR": 7, "CAT_ID": null, "CAT_DESC": null, "MSGID": "WTPN51 PGTW 250900", "VALIDTIME": "2026-06-12 00:00:00" }, "geometry": { "type": "LineString", "coordinates": [ [ 175.800003049999987, 5.5 ], [ 175.300003049999987, 5.69999981 ] ] } },
{ "type": "Feature", "properties": { "ID": 26002, "LAT": 5.7, "LON": 175.3, "VMAX": 15.0, "MSLP": 1013.8515, "RMAX": 40.0, "FSPD": 5.04433, "FDIR": 294.07538, "RENV": 500.0, "PENV": 1012.0, "VALIDT": 0, "DTG": "2026-06-12 06:00", "LATNOW": 24.8, "LONNOW": 126.0, "WINDNOW": 50.0, "DIRNOW": 6.0, "SPDNOW": 1.0, "TECH": "TRAK", "ADVNR": 27, "ATCFID": "WP072026", "NAME": "MEKKHALA", "FTECH": "JTWC", "FCST_DTG": "2026-06-25 06:00:00", "RUN_DTG": "2026-06-25 08:34:18", "BASIN": "WP", "STMNR": 7, "CAT_ID": null, "CAT_DESC": null, "MSGID": "WTPN51 PGTW 250900", "VALIDTIME": "2026-06-12 06:00:00" }, "geometry": { "type": "LineString", "coordinates": [ [ 175.300003049999987, 5.69999981 ], [ 174.3999939, 6.0999999 ] ] } },
{ "type": "Feature", "properties": { "ID": 26003, "LAT": 6.1, "LON": 174.4, "VMAX": 15.0, "MSLP": 1013.8515, "RMAX": 40.0, "FSPD": 4.12402, "FDIR": 277.1659, "RENV": 500.0, "PENV": 1012.0, "VALIDT": 0, "DTG": "2026-06-12 12:00", "LATNOW": 24.8, "LONNOW": 126.0, "WINDNOW": 50.0, "DIRNOW": 6.0, "SPDNOW": 1.0, "TECH": "TRAK", "ADVNR": 27, "ATCFID": "WP072026", "NAME": "MEKKHALA", "FTECH": "JTWC", "FCST_DTG": "2026-06-25 06:00:00", "RUN_DTG": "2026-06-25 08:34:18", "BASIN": "WP", "STMNR": 7, "CAT_ID": null, "CAT_DESC": null, "MSGID": "WTPN51 PGTW 250900", "VALIDTIME": "2026-06-12 12:00:00" }, "geometry": { "type": "LineString", "coordinates": [ [ 174.3999939, 6.0999999 ], [ 173.6000061, 6.19999981 ] ] } },
{ "type": "Feature", "properties": { "ID": 26004, "LAT": 6.2, "LON": 173.6, "VMAX": 15.0, "MSLP": 1013.8515, "RMAX": 40.0, "FSPD": 6.15823, "FDIR": 274.79193, "RENV": 500.0, "PENV": 1012.0, "VALIDT": 0, "DTG": "2026-06-12 18:00", "LATNOW": 24.8, "LONNOW": 126.0, "WINDNOW": 50.0, "DIRNOW": 6.0, "SPDNOW": 1.0, "TECH": "TRAK", "ADVNR": 27, "ATCFID": "WP072026", "NAME": "MEKKHALA", "FTECH": "JTWC", "FCST_DTG": "2026-06-25 06:00:00", "RUN_DTG": "2026-06-25 08:34:18", "BASIN": "WP", "STMNR": 7, "CAT_ID": null, "CAT_DESC": null, "MSGID": "WTPN51 PGTW 250900", "VALIDTIME": "2026-06-12 18:00:00" }, "geometry": { "type": "LineString", "coordinates": [ [ 173.6000061, 6.19999981 ], [ 172.3999939, 6.30000019 ] ] } },
{ "type": "Feature", "properties": { "ID": 26005, "LAT": 6.3, "LON": 172.4, "VMAX": 15.0, "MSLP": 1013.8515, "RMAX": 40.0, "FSPD": 5.11338, "FDIR": 269.99997, "RENV": 500.0, "PENV": 1012.0, "VALIDT": 0, "DTG": "2026-06-13 00:00", "LATNOW": 24.8, "LONNOW": 126.0, "WINDNOW": 50.0, "DIRNOW": 6.0, "SPDNOW": 1.0, "TECH": "TRAK", "ADVNR": 27, "ATCFID": "WP072026", "NAME": "MEKKHALA", "FTECH": "JTWC", "FCST_DTG": "2026-06-25 06:00:00", "RUN_DTG": "2026-06-25 08:34:18", "BASIN": "WP", "STMNR": 7, "CAT_ID": null, "CAT_DESC": null, "MSGID": "WTPN51 PGTW 250900", "VALIDTIME": "2026-06-13 00:00:00" }, "geometry": { "type": "LineString", "coordinates": [ [ 172.3999939, 6.30000019 ], [ 171.3999939, 6.30000019 ] ] } },
{ "type": "Feature", "properties": { "ID": 26006, "LAT": 6.3, "LON": 171.4, "VMAX": 15.0, "MSLP": 1013.8515, "RMAX": 40.0, "FSPD": 5.1387, "FDIR": 275.7456, "RENV": 500.0, "PENV": 1012.0, "VALIDT": 0, "DTG": "2026-06-13 06:00", "LATNOW": 24.8, "LONNOW": 126.0, "WINDNOW": 50.0, "DIRNOW": 6.0, "SPDNOW": 1.0, "TECH": "TRAK", "ADVNR": 27, "ATCFID": "WP072026", "NAME": "MEKKHALA", "FTECH": "JTWC", "FCST_DTG": "2026-06-25 06:00:00", "RUN_DTG": "2026-06-25 08:34:18", "BASIN": "WP", "STMNR": 7, "CAT_ID": null, "CAT_DESC": null, "MSGID": "WTPN51 PGTW 250900", "VALIDTIME": "2026-06-13 06:00:00" }, "geometry": { "type": "LineString", "coordinates": [ [ 171.3999939, 6.30000019 ], [ 170.3999939, 6.4000001 ] ] } },
{ "type": "Feature", "properties": { "ID": 26007, "LAT": 6.4, "LON": 170.4, "VMAX": 15.0, "MSLP": 1013.8515, "RMAX": 40.0, "FSPD": 6.8643, "FDIR": 296.72247, "RENV": 500.0, "PENV": 1012.0, "VALIDT": 0, "DTG": "2026-06-13 12:00", "LATNOW": 24.8, "LONNOW": 126.0, "WINDNOW": 50.0, "DIRNOW": 6.0, "SPDNOW": 1.0, "TECH": "TRAK", "ADVNR": 27, "ATCFID": "WP072026", "NAME": "MEKKHALA", "FTECH": "JTWC", "FCST_DTG": "2026-06-25 06:00:00", "RUN_DTG": "2026-06-25 08:34:18", "BASIN": "WP", "STMNR": 7, "CAT_ID": null, "CAT_DESC": null, "MSGID": "WTPN51 PGTW 250900", "VALIDTIME": "2026-06-13 12:00:00" }, "geometry": { "type": "LineString", "coordinates": [ [ 170.3999939, 6.4000001 ], [ 169.199996950000013, 7.0 ] ] } },
{ "type": "Feature", "properties": { "ID": 26008, "LAT": 7.0, "LON": 169.2, "VMAX": 15.0, "MSLP": 1013.8515, "RMAX": 40.0, "FSPD": 6.85726, "FDIR": 296.75208, "RENV": 500.0, "PENV": 1012.0, "VALIDT": 0, "DTG": "2026-06-13 18:00", "LATNOW": 24.8, "LONNOW": 126.0, "WINDNOW": 50.0, "DIRNOW": 6.0, "SPDNOW": 1.0, "TECH": "TRAK", "ADVNR": 27, "ATCFID": "WP072026", "NAME": "MEKKHALA", "FTECH": "JTWC", "FCST_DTG": "2026-06-25 06:00:00", "RUN_DTG": "2026-06-25 08:34:18", "BASIN": "WP", "STMNR": 7, "CAT_ID": null, "CAT_DESC": null, "MSGID": "WTPN51 PGTW 250900", "VALIDTIME": "2026-06-13 18:00:00" }, "geometry": { "type": "LineString", "coordinates": [ [ 169.199996950000013, 7.0 ], [ 168.0, 7.5999999 ] ] } },
{ "type": "Feature", "properties": { "ID": 26009, "LAT": 7.6, "LON": 168.0, "VMAX": 15.0, "MSLP": 1013.8515, "RMAX": 40.0, "FSPD": 10.27148, "FDIR": 296.7926, "RENV": 500.0, "PENV": 1012.0, "VALIDT": 0, "DTG": "2026-06-14 00:00", "LATNOW": 24.8, "LONNOW": 126.0, "WINDNOW": 50.0, "DIRNOW": 6.0, "SPDNOW": 1.0, "TECH": "TRAK", "ADVNR": 27, "ATCFID": "WP072026", "NAME": "MEKKHALA", "FTECH": "JTWC", "FCST_DTG": "2026-06-25 06:00:00", "RUN_DTG": "2026-06-25 08:34:18", "BASIN": "WP", "STMNR": 7, "CAT_ID": null, "CAT_DESC": null, "MSGID": "WTPN51 PGTW 250900", "VALIDTIME": "2026-06-14 00:00:00" }, "geometry": { "type": "LineString", "coordinates": [ [ 168.0, 7.5999999 ], [ 166.199996950000013, 8.5 ] ] } },
{ "type": "Feature", "properties": { "ID": 26010, "LAT": 8.5, "LON": 166.2, "VMAX": 15.0, "MSLP": 1013.8515, "RMAX": 40.0, "FSPD": 10.62596, "FDIR": 286.8869, "RENV": 500.0, "PENV": 1012.0, "VALIDT": 0, "DTG": "2026-06-14 06:00", "LATNOW": 24.8, "LONNOW": 126.0, "WINDNOW": 50.0, "DIRNOW": 6.0, "SPDNOW": 1.0, "TECH": "TRAK", "ADVNR": 27, "ATCFID": "WP072026", "NAME": "MEKKHALA", "FTECH": "JTWC", "FCST_DTG": "2026-06-25 06:00:00", "RUN_DTG": "2026-06-25 08:34:18", "BASIN": "WP", "STMNR": 7, "CAT_ID": null, "CAT_DESC": null, "MSGID": "WTPN51 PGTW 250900", "VALIDTIME": "2026-06-14 06:00:00" }, "geometry": { "type": "LineString", "coordinates": [ [ 166.199996950000013, 8.5 ], [ 164.199996950000013, 9.10000038 ] ] } },
{ "type": "Feature", "properties": { "ID": 26011, "LAT": 9.1, "LON": 164.2, "VMAX": 15.0, "MSLP": 1013.8515, "RMAX": 40.0, "FSPD": 6.22253, "FDIR": 305.36063, "RENV": 500.0, "PENV": 1012.0, "VALIDT": 0, "DTG": "2026-06-14 12:00", "LATNOW": 24.8, "LONNOW": 126.0, "WINDNOW": 50.0, "DIRNOW": 6.0, "SPDNOW": 1.0, "TECH": "TRAK", "ADVNR": 27, "ATCFID": "WP072026", "NAME": "MEKKHALA", "FTECH": "JTWC", "FCST_DTG": "2026-06-25 06:00:00", "RUN_DTG": "2026-06-25 08:34:18", "BASIN": "WP", "STMNR": 7, "CAT_ID": null, "CAT_DESC": null, "MSGID": "WTPN51 PGTW 250900", "VALIDTIME": "2026-06-14 12:00:00" }, "geometry": { "type": "LineString", "coordinates": [ [ 164.199996950000013, 9.10000038 ], [ 163.199996950000013, 9.80000019 ] ] } },
{ "type": "Feature", "properties": { "ID": 26012, "LAT": 9.8, "LON": 163.2, "VMAX": 15.0, "MSLP": 1013.8515, "RMAX": 40.0, "FSPD": 6.90017, "FDIR": 287.35077, "RENV": 500.0, "PENV": 1012.0, "VALIDT": 0, "DTG": "2026-06-14 18:00", "LATNOW": 24.8, "LONNOW": 126.0, "WINDNOW": 50.0, "DIRNOW": 6.0, "SPDNOW": 1.0, "TECH": "TRAK", "ADVNR": 27, "ATCFID": "WP072026", "NAME": "MEKKHALA", "FTECH": "JTWC", "FCST_DTG": "2026-06-25 06:00:00", "RUN_DTG": "2026-06-25 08:34:18", "BASIN": "WP", "STMNR": 7, "CAT_ID": null, "CAT_DESC": null, "MSGID": "WTPN51 PGTW 250900", "VALIDTIME": "2026-06-14 18:00:00" }, "geometry": { "type": "LineString", "coordinates": [ [ 163.199996950000013, 9.80000019 ], [ 161.8999939, 10.19999981 ] ] } },
{ "type": "Feature", "properties": { "ID": 26013, "LAT": 10.2, "LON": 161.9, "VMAX": 15.0, "MSLP": 1013.8515, "RMAX": 40.0, "FSPD": 7.16043, "FDIR": 278.26144, "RENV": 500.0, "PENV": 1012.0, "VALIDT": 0, "DTG": "2026-06-15 00:00", "LATNOW": 24.8, "LONNOW": 126.0, "WINDNOW": 50.0, "DIRNOW": 6.0, "SPDNOW": 1.0, "TECH": "TRAK", "ADVNR": 27, "ATCFID": "WP072026", "NAME": "MEKKHALA", "FTECH": "JTWC", "FCST_DTG": "2026-06-25 06:00:00", "RUN_DTG": "2026-06-25 08:34:18", "BASIN": "WP", "STMNR": 7, "CAT_ID": null, "CAT_DESC": null, "MSGID": "WTPN51 PGTW 250900", "VALIDTIME": "2026-06-15 00:00:00" }, "geometry": { "type": "LineString", "coordinates": [ [ 161.8999939, 10.19999981 ], [ 160.5, 10.39999962 ] ] } },
{ "type": "Feature", "properties": { "ID": 26014, "LAT": 10.4, "LON": 160.5, "VMAX": 15.0, "MSLP": 1013.8515, "RMAX": 40.0, "FSPD": 7.74162, "FDIR": 281.49927, "RENV": 500.0, "PENV": 1012.0, "VALIDT": 0, "DTG": "2026-06-15 06:00", "LATNOW": 24.8, "LONNOW": 126.0, "WINDNOW": 50.0, "DIRNOW": 6.0, "SPDNOW": 1.0, "TECH": "TRAK", "ADVNR": 27, "ATCFID": "WP072026", "NAME": "MEKKHALA", "FTECH": "JTWC", "FCST_DTG": "2026-06-25 06:00:00", "RUN_DTG": "2026-06-25 08:34:18", "BASIN": "WP", "STMNR": 7, "CAT_ID": null, "CAT_DESC": null, "MSGID": "WTPN51 PGTW 250900", "VALIDTIME": "2026-06-15 06:00:00" }, "geometry": { "type": "LineString", "coordinates": [ [ 160.5, 10.39999962 ], [ 159.0, 10.69999981 ] ] } },
{ "type": "Feature", "properties": { "ID": 26015, "LAT": 10.7, "LON": 159.0, "VMAX": 15.0, "MSLP": 1013.8515, "RMAX": 40.0, "FSPD": 5.16027, "FDIR": 258.4989, "RENV": 500.0, "PENV": 1012.0, "VALIDT": 0, "DTG": "2026-06-15 12:00", "LATNOW": 24.8, "LONNOW": 126.0, "WINDNOW": 50.0, "DIRNOW": 6.0, "SPDNOW": 1.0, "TECH": "TRAK", "ADVNR": 27, "ATCFID": "WP072026", "NAME": "MEKKHALA", "FTECH": "JTWC", "FCST_DTG": "2026-06-25 06:00:00", "RUN_DTG": "2026-06-25 08:34:18", "BASIN": "WP", "STMNR": 7, "CAT_ID": null, "CAT_DESC": null, "MSGID": "WTPN51 PGTW 250900", "VALIDTIME": "2026-06-15 12:00:00" }, "geometry": { "type": "LineString", "coordinates": [ [ 159.0, 10.69999981 ], [ 158.0, 10.5 ] ] } },
{ "type": "Feature", "properties": { "ID": 26016, "LAT": 10.5, "LON": 158.0, "VMAX": 15.0, "MSLP": 1013.8515, "RMAX": 40.0, "FSPD": 6.6537, "FDIR": 278.89554, "RENV": 500.0, "PENV": 1012.0, "VALIDT": 0, "DTG": "2026-06-15 18:00", "LATNOW": 24.8, "LONNOW": 126.0, "WINDNOW": 50.0, "DIRNOW": 6.0, "SPDNOW": 1.0, "TECH": "TRAK", "ADVNR": 27, "ATCFID": "WP072026", "NAME": "MEKKHALA", "FTECH": "JTWC", "FCST_DTG": "2026-06-25 06:00:00", "RUN_DTG": "2026-06-25 08:34:18", "BASIN": "WP", "STMNR": 7, "CAT_ID": null, "CAT_DESC": null, "MSGID": "WTPN51 PGTW 250900", "VALIDTIME": "2026-06-15 18:00:00" }, "geometry": { "type": "LineString", "coordinates": [ [ 158.0, 10.5 ], [ 156.699996950000013, 10.69999981 ] ] } },
{ "type": "Feature", "properties": { "ID": 26017, "LAT": 10.7, "LON": 156.7, "VMAX": 15.0, "MSLP": 1013.8515, "RMAX": 40.0, "FSPD": 6.08676, "FDIR": 274.84833, "RENV": 500.0, "PENV": 1012.0, "VALIDT": 0, "DTG": "2026-06-16 00:00", "LATNOW": 24.8, "LONNOW": 126.0, "WINDNOW": 50.0, "DIRNOW": 6.0, "SPDNOW": 1.0, "TECH": "TRAK", "ADVNR": 27, "ATCFID": "WP072026", "NAME": "MEKKHALA", "FTECH": "JTWC", "FCST_DTG": "2026-06-25 06:00:00", "RUN_DTG": "2026-06-25 08:34:18", "BASIN": "WP", "STMNR": 7, "CAT_ID": null, "CAT_DESC": null, "MSGID": "WTPN51 PGTW 250900", "VALIDTIME": "2026-06-16 00:00:00" }, "geometry": { "type": "LineString", "coordinates": [ [ 156.699996950000013, 10.69999981 ], [ 155.5, 10.80000019 ] ] } },
{ "type": "Feature", "properties": { "ID": 26018, "LAT": 10.8, "LON": 155.5, "VMAX": 20.0, "MSLP": 1012.95825, "RMAX": 45.0, "FSPD": 6.58835, "FDIR": 274.4784, "RENV": 500.0, "PENV": 1012.0, "VALIDT": 0, "DTG": "2026-06-16 06:00", "LATNOW": 24.8, "LONNOW": 126.0, "WINDNOW": 50.0, "DIRNOW": 6.0, "SPDNOW": 1.0, "TECH": "TRAK", "ADVNR": 27, "ATCFID": "WP072026", "NAME": "MEKKHALA", "FTECH": "JTWC", "FCST_DTG": "2026-06-25 06:00:00", "RUN_DTG": "2026-06-25 08:34:18", "BASIN": "WP", "STMNR": 7, "CAT_ID": null, "CAT_DESC": null, "MSGID": "WTPN51 PGTW 250900", "VALIDTIME": "2026-06-16 06:00:00" }, "geometry": { "type": "LineString", "coordinates": [ [ 155.5, 10.80000019 ], [ 154.199996950000013, 10.89999962 ] ] } },
{ "type": "Feature", "properties": { "ID": 26019, "LAT": 10.9, "LON": 154.2, "VMAX": 20.0, "MSLP": 1012.95825, "RMAX": 45.0, "FSPD": 7.14434, "FDIR": 278.2802, "RENV": 500.0, "PENV": 1012.0, "VALIDT": 0, "DTG": "2026-06-16 12:00", "LATNOW": 24.8, "LONNOW": 126.0, "WINDNOW": 50.0, "DIRNOW": 6.0, "SPDNOW": 1.0, "TECH": "TRAK", "ADVNR": 27, "ATCFID": "WP072026", "NAME": "MEKKHALA", "FTECH": "JTWC", "FCST_DTG": "2026-06-25 06:00:00", "RUN_DTG": "2026-06-25 08:34:18", "BASIN": "WP", "STMNR": 7, "CAT_ID": null, "CAT_DESC": null, "MSGID": "WTPN51 PGTW 250900", "VALIDTIME": "2026-06-16 12:00:00" }, "geometry": { "type": "LineString", "coordinates": [ [ 154.199996950000013, 10.89999962 ], [ 152.800003049999987, 11.10000038 ] ] } },
{ "type": "Feature", "properties": { "ID": 26020, "LAT": 11.1, "LON": 152.8, "VMAX": 20.0, "MSLP": 1012.95825, "RMAX": 45.0, "FSPD": 6.79326, "FDIR": 297.02448, "RENV": 500.0, "PENV": 1012.0, "VALIDT": 0, "DTG": "2026-06-16 18:00", "LATNOW": 24.8, "LONNOW": 126.0, "WINDNOW": 50.0, "DIRNOW": 6.0, "SPDNOW": 1.0, "TECH": "TRAK", "ADVNR": 27, "ATCFID": "WP072026", "NAME": "MEKKHALA", "FTECH": "JTWC", "FCST_DTG": "2026-06-25 06:00:00", "RUN_DTG": "2026-06-25 08:34:18", "BASIN": "WP", "STMNR": 7, "CAT_ID": null, "CAT_DESC": null, "MSGID": "WTPN51 PGTW 250900", "VALIDTIME": "2026-06-16 18:00:00" }, "geometry": { "type": "LineString", "coordinates": [ [ 152.800003049999987, 11.10000038 ], [ 151.6000061, 11.69999981 ] ] } },
{ "type": "Feature", "properties": { "ID": 26021, "LAT": 11.7, "LON": 151.6, "VMAX": 20.0, "MSLP": 1012.95825, "RMAX": 45.0, "FSPD": 5.63408, "FDIR": 280.5223, "RENV": 500.0, "PENV": 1012.0, "VALIDT": 0, "DTG": "2026-06-17 00:00", "LATNOW": 24.8, "LONNOW": 126.0, "WINDNOW": 50.0, "DIRNOW": 6.0, "SPDNOW": 1.0, "TECH": "TRAK", "ADVNR": 27, "ATCFID": "WP072026", "NAME": "MEKKHALA", "FTECH": "JTWC", "FCST_DTG": "2026-06-25 06:00:00", "RUN_DTG": "2026-06-25 08:34:18", "BASIN": "WP", "STMNR": 7, "CAT_ID": null, "CAT_DESC": null, "MSGID": "WTPN51 PGTW 250900", "VALIDTIME": "2026-06-17 00:00:00" }, "geometry": { "type": "LineString", "coordinates": [ [ 151.6000061, 11.69999981 ], [ 150.5, 11.89999962 ] ] } },
{ "type": "Feature", "properties": { "ID": 26022, "LAT": 11.9, "LON": 150.5, "VMAX": 20.0, "MSLP": 1012.95825, "RMAX": 45.0, "FSPD": 5.56013, "FDIR": 275.3088, "RENV": 500.0, "PENV": 1012.0, "VALIDT": 0, "DTG": "2026-06-17 06:00", "LATNOW": 24.8, "LONNOW": 126.0, "WINDNOW": 50.0, "DIRNOW": 6.0, "SPDNOW": 1.0, "TECH": "TRAK", "ADVNR": 27, "ATCFID": "WP072026", "NAME": "MEKKHALA", "FTECH": "JTWC", "FCST_DTG": "2026-06-25 06:00:00", "RUN_DTG": "2026-06-25 08:34:18", "BASIN": "WP", "STMNR": 7, "CAT_ID": null, "CAT_DESC": null, "MSGID": "WTPN51 PGTW 250900", "VALIDTIME": "2026-06-17 06:00:00" }, "geometry": { "type": "LineString", "coordinates": [ [ 150.5, 11.89999962 ], [ 149.3999939, 12.0 ] ] } },
{ "type": "Feature", "properties": { "ID": 26023, "LAT": 12.0, "LON": 149.4, "VMAX": 15.0, "MSLP": 1013.8515, "RMAX": 40.0, "FSPD": 5.53518, "FDIR": 269.99997, "RENV": 500.0, "PENV": 1012.0, "VALIDT": 0, "DTG": "2026-06-17 12:00", "LATNOW": 24.8, "LONNOW": 126.0, "WINDNOW": 50.0, "DIRNOW": 6.0, "SPDNOW": 1.0, "TECH": "TRAK", "ADVNR": 27, "ATCFID": "WP072026", "NAME": "MEKKHALA", "FTECH": "JTWC", "FCST_DTG": "2026-06-25 06:00:00", "RUN_DTG": "2026-06-25 08:34:18", "BASIN": "WP", "STMNR": 7, "CAT_ID": null, "CAT_DESC": null, "MSGID": "WTPN51 PGTW 250900", "VALIDTIME": "2026-06-17 12:00:00" }, "geometry": { "type": "LineString", "coordinates": [ [ 149.3999939, 12.0 ], [ 148.300003049999987, 12.0 ] ] } },
{ "type": "Feature", "properties": { "ID": 26024, "LAT": 12.0, "LON": 148.3, "VMAX": 15.0, "MSLP": 1013.8515, "RMAX": 40.0, "FSPD": 3.01925, "FDIR": 269.99997, "RENV": 500.0, "PENV": 1012.0, "VALIDT": 0, "DTG": "2026-06-17 18:00", "LATNOW": 24.8, "LONNOW": 126.0, "WINDNOW": 50.0, "DIRNOW": 6.0, "SPDNOW": 1.0, "TECH": "TRAK", "ADVNR": 27, "ATCFID": "WP072026", "NAME": "MEKKHALA", "FTECH": "JTWC", "FCST_DTG": "2026-06-25 06:00:00", "RUN_DTG": "2026-06-25 08:34:18", "BASIN": "WP", "STMNR": 7, "CAT_ID": null, "CAT_DESC": null, "MSGID": "WTPN51 PGTW 250900", "VALIDTIME": "2026-06-17 18:00:00" }, "geometry": { "type": "LineString", "coordinates": [ [ 148.300003049999987, 12.0 ], [ 147.699996950000013, 12.0 ] ] } },
{ "type": "Feature", "properties": { "ID": 26025, "LAT": 12.0, "LON": 147.7, "VMAX": 20.0, "MSLP": 1012.95825, "RMAX": 45.0, "FSPD": 4.52879, "FDIR": 269.99997, "RENV": 500.0, "PENV": 1012.0, "VALIDT": 0, "DTG": "2026-06-18 00:00", "LATNOW": 24.8, "LONNOW": 126.0, "WINDNOW": 50.0, "DIRNOW": 6.0, "SPDNOW": 1.0, "TECH": "TRAK", "ADVNR": 27, "ATCFID": "WP072026", "NAME": "MEKKHALA", "FTECH": "JTWC", "FCST_DTG": "2026-06-25 06:00:00", "RUN_DTG": "2026-06-25 08:34:18", "BASIN": "WP", "STMNR": 7, "CAT_ID": null, "CAT_DESC": null, "MSGID": "WTPN51 PGTW 250900", "VALIDTIME": "2026-06-18 00:00:00" }, "geometry": { "type": "LineString", "coordinates": [ [ 147.699996950000013, 12.0 ], [ 146.800003049999987, 12.0 ] ] } },
{ "type": "Feature", "properties": { "ID": 26026, "LAT": 12.0, "LON": 146.8, "VMAX": 20.0, "MSLP": 1012.95825, "RMAX": 45.0, "FSPD": 4.05763, "FDIR": 277.2838, "RENV": 500.0, "PENV": 1012.0, "VALIDT": 0, "DTG": "2026-06-18 06:00", "LATNOW": 24.8, "LONNOW": 126.0, "WINDNOW": 50.0, "DIRNOW": 6.0, "SPDNOW": 1.0, "TECH": "TRAK", "ADVNR": 27, "ATCFID": "WP072026", "NAME": "MEKKHALA", "FTECH": "JTWC", "FCST_DTG": "2026-06-25 06:00:00", "RUN_DTG": "2026-06-25 08:34:18", "BASIN": "WP", "STMNR": 7, "CAT_ID": null, "CAT_DESC": null, "MSGID": "WTPN51 PGTW 250900", "VALIDTIME": "2026-06-18 06:00:00" }, "geometry": { "type": "LineString", "coordinates": [ [ 146.800003049999987, 12.0 ], [ 146.0, 12.10000038 ] ] } },
{ "type": "Feature", "properties": { "ID": 26027, "LAT": 12.1, "LON": 146.0, "VMAX": 25.0, "MSLP": 1011.80975, "RMAX": 45.0, "FSPD": 4.5554, "FDIR": 276.48422, "RENV": 500.0, "PENV": 1012.0, "VALIDT": 0, "DTG": "2026-06-18 12:00", "LATNOW": 24.8, "LONNOW": 126.0, "WINDNOW": 50.0, "DIRNOW": 6.0, "SPDNOW": 1.0, "TECH": "TRAK", "ADVNR": 27, "ATCFID": "WP072026", "NAME": "MEKKHALA", "FTECH": "JTWC", "FCST_DTG": "2026-06-25 06:00:00", "RUN_DTG": "2026-06-25 08:34:18", "BASIN": "WP", "STMNR": 7, "CAT_ID": null, "CAT_DESC": null, "MSGID": "WTPN51 PGTW 250900", "VALIDTIME": "2026-06-18 12:00:00" }, "geometry": { "type": "LineString", "coordinates": [ [ 146.0, 12.10000038 ], [ 145.1000061, 12.19999981 ] ] } },
{ "type": "Feature", "properties": { "ID": 26028, "LAT": 12.2, "LON": 145.1, "VMAX": 30.0, "MSLP": 1004.0, "RMAX": 60.0, "FSPD": 10.66916, "FDIR": 289.72614, "RENV": 180.0, "PENV": 1008.0, "VALIDT": 0, "DTG": "2026-06-18 18:00", "LATNOW": 24.8, "LONNOW": 126.0, "WINDNOW": 50.0, "DIRNOW": 6.0, "SPDNOW": 1.0, "TECH": "TRAK", "ADVNR": 27, "ATCFID": "WP072026", "NAME": "MEKKHALA", "FTECH": "JTWC", "FCST_DTG": "2026-06-25 06:00:00", "RUN_DTG": "2026-06-25 08:34:18", "BASIN": "WP", "STMNR": 7, "CAT_ID": null, "CAT_DESC": null, "MSGID": "WTPN51 PGTW 250900", "VALIDTIME": "2026-06-18 18:00:00" }, "geometry": { "type": "LineString", "coordinates": [ [ 145.1000061, 12.19999981 ], [ 143.1000061, 12.89999962 ] ] } },
{ "type": "Feature", "properties": { "ID": 26029, "LAT": 12.9, "LON": 143.1, "VMAX": 30.0, "MSLP": 1004.0, "RMAX": 60.0, "FSPD": 6.83106, "FDIR": 287.532, "RENV": 180.0, "PENV": 1008.0, "VALIDT": 0, "DTG": "2026-06-19 00:00", "LATNOW": 24.8, "LONNOW": 126.0, "WINDNOW": 50.0, "DIRNOW": 6.0, "SPDNOW": 1.0, "TECH": "TRAK", "ADVNR": 27, "ATCFID": "WP072026", "NAME": "MEKKHALA", "FTECH": "JTWC", "FCST_DTG": "2026-06-25 06:00:00", "RUN_DTG": "2026-06-25 08:34:18", "BASIN": "WP", "STMNR": 7, "CAT_ID": null, "CAT_DESC": null, "MSGID": "WTPN51 PGTW 250900", "VALIDTIME": "2026-06-19 00:00:00" }, "geometry": { "type": "LineString", "coordinates": [ [ 143.1000061, 12.89999962 ], [ 141.800003049999987, 13.30000019 ] ] } },
{ "type": "Feature", "properties": { "ID": 26030, "LAT": 13.3, "LON": 141.8, "VMAX": 30.0, "MSLP": 1005.0, "RMAX": 60.0, "FSPD": 8.26401, "FDIR": 284.41858, "RENV": 180.0, "PENV": 1009.0, "VALIDT": 0, "DTG": "2026-06-19 06:00", "LATNOW": 24.8, "LONNOW": 126.0, "WINDNOW": 50.0, "DIRNOW": 6.0, "SPDNOW": 1.0, "TECH": "TRAK", "ADVNR": 27, "ATCFID": "WP072026", "NAME": "MEKKHALA", "FTECH": "JTWC", "FCST_DTG": "2026-06-25 06:00:00", "RUN_DTG": "2026-06-25 08:34:18", "BASIN": "WP", "STMNR": 7, "CAT_ID": null, "CAT_DESC": null, "MSGID": "WTPN51 PGTW 250900", "VALIDTIME": "2026-06-19 06:00:00" }, "geometry": { "type": "LineString", "coordinates": [ [ 141.800003049999987, 13.30000019 ], [ 140.199996950000013, 13.69999981 ] ] } },
{ "type": "Feature", "properties": { "ID": 26031, "LAT": 13.7, "LON": 140.2, "VMAX": 35.0, "MSLP": 1003.0, "RMAX": 50.0, "FSPD": 8.13941, "FDIR": 280.93015, "RENV": 190.0, "PENV": 1008.0, "VALIDT": 0, "DTG": "2026-06-19 12:00", "LATNOW": 24.8, "LONNOW": 126.0, "WINDNOW": 50.0, "DIRNOW": 6.0, "SPDNOW": 1.0, "TECH": "TRAK", "ADVNR": 27, "ATCFID": "WP072026", "NAME": "MEKKHALA", "FTECH": "JTWC", "FCST_DTG": "2026-06-25 06:00:00", "RUN_DTG": "2026-06-25 08:34:18", "BASIN": "WP", "STMNR": 7, "CAT_ID": null, "CAT_DESC": null, "MSGID": "WTPN51 PGTW 250900", "VALIDTIME": "2026-06-19 12:00:00" }, "geometry": { "type": "LineString", "coordinates": [ [ 140.199996950000013, 13.69999981 ], [ 138.6000061, 14.0 ] ] } },
{ "type": "Feature", "properties": { "ID": 26032, "LAT": 14.0, "LON": 138.6, "VMAX": 40.0, "MSLP": 1002.0, "RMAX": 30.0, "FSPD": 4.12205, "FDIR": 284.45416, "RENV": 190.0, "PENV": 1009.0, "VALIDT": 0, "DTG": "2026-06-19 18:00", "LATNOW": 24.8, "LONNOW": 126.0, "WINDNOW": 50.0, "DIRNOW": 6.0, "SPDNOW": 1.0, "TECH": "TRAK", "ADVNR": 27, "ATCFID": "WP072026", "NAME": "MEKKHALA", "FTECH": "JTWC", "FCST_DTG": "2026-06-25 06:00:00", "RUN_DTG": "2026-06-25 08:34:18", "BASIN": "WP", "STMNR": 7, "CAT_ID": null, "CAT_DESC": null, "MSGID": "WTPN51 PGTW 250900", "VALIDTIME": "2026-06-19 18:00:00" }, "geometry": { "type": "LineString", "coordinates": [ [ 138.6000061, 14.0 ], [ 137.800003049999987, 14.19999981 ] ] } },
{ "type": "Feature", "properties": { "ID": 26033, "LAT": 14.2, "LON": 137.8, "VMAX": 45.0, "MSLP": 1000.0, "RMAX": 40.0, "FSPD": 5.01481, "FDIR": 264.11194, "RENV": 110.0, "PENV": 1007.0, "VALIDT": 0, "DTG": "2026-06-20 00:00", "LATNOW": 24.8, "LONNOW": 126.0, "WINDNOW": 50.0, "DIRNOW": 6.0, "SPDNOW": 1.0, "TECH": "TRAK", "ADVNR": 27, "ATCFID": "WP072026", "NAME": "MEKKHALA", "FTECH": "JTWC", "FCST_DTG": "2026-06-25 06:00:00", "RUN_DTG": "2026-06-25 08:34:18", "BASIN": "WP", "STMNR": 7, "CAT_ID": null, "CAT_DESC": null, "MSGID": "WTPN51 PGTW 250900", "VALIDTIME": "2026-06-20 00:00:00" }, "geometry": { "type": "LineString", "coordinates": [ [ 137.800003049999987, 14.19999981 ], [ 136.800003049999987, 14.10000038 ] ] } },
{ "type": "Feature", "properties": { "ID": 26034, "LAT": 14.1, "LON": 136.8, "VMAX": 45.0, "MSLP": 997.0, "RMAX": 40.0, "FSPD": 7.05761, "FDIR": 278.3827, "RENV": 110.0, "PENV": 1007.0, "VALIDT": 0, "DTG": "2026-06-20 06:00", "LATNOW": 24.8, "LONNOW": 126.0, "WINDNOW": 50.0, "DIRNOW": 6.0, "SPDNOW": 1.0, "TECH": "TRAK", "ADVNR": 27, "ATCFID": "WP072026", "NAME": "MEKKHALA", "FTECH": "JTWC", "FCST_DTG": "2026-06-25 06:00:00", "RUN_DTG": "2026-06-25 08:34:18", "BASIN": "WP", "STMNR": 7, "CAT_ID": null, "CAT_DESC": null, "MSGID": "WTPN51 PGTW 250900", "VALIDTIME": "2026-06-20 06:00:00" }, "geometry": { "type": "LineString", "coordinates": [ [ 136.800003049999987, 14.10000038 ], [ 135.3999939, 14.30000019 ] ] } },
{ "type": "Feature", "properties": { "ID": 26035, "LAT": 14.3, "LON": 135.4, "VMAX": 50.0, "MSLP": 997.0, "RMAX": 40.0, "FSPD": 6.32101, "FDIR": 288.9986, "RENV": 150.0, "PENV": 1007.0, "VALIDT": 0, "DTG": "2026-06-20 12:00", "LATNOW": 24.8, "LONNOW": 126.0, "WINDNOW": 50.0, "DIRNOW": 6.0, "SPDNOW": 1.0, "TECH": "TRAK", "ADVNR": 27, "ATCFID": "WP072026", "NAME": "MEKKHALA", "FTECH": "JTWC", "FCST_DTG": "2026-06-25 06:00:00", "RUN_DTG": "2026-06-25 08:34:18", "BASIN": "WP", "STMNR": 7, "CAT_ID": null, "CAT_DESC": null, "MSGID": "WTPN51 PGTW 250900", "VALIDTIME": "2026-06-20 12:00:00" }, "geometry": { "type": "LineString", "coordinates": [ [ 135.3999939, 14.30000019 ], [ 134.199996950000013, 14.69999981 ] ] } },
{ "type": "Feature", "properties": { "ID": 26036, "LAT": 14.7, "LON": 134.2, "VMAX": 55.0, "MSLP": 995.0, "RMAX": 35.0, "FSPD": 6.13587, "FDIR": 305.93695, "RENV": 150.0, "PENV": 1008.0, "VALIDT": 0, "DTG": "2026-06-20 18:00", "LATNOW": 24.8, "LONNOW": 126.0, "WINDNOW": 50.0, "DIRNOW": 6.0, "SPDNOW": 1.0, "TECH": "TRAK", "ADVNR": 27, "ATCFID": "WP072026", "NAME": "MEKKHALA", "FTECH": "JTWC", "FCST_DTG": "2026-06-25 06:00:00", "RUN_DTG": "2026-06-25 08:34:18", "BASIN": "WP", "STMNR": 7, "CAT_ID": null, "CAT_DESC": null, "MSGID": "WTPN51 PGTW 250900", "VALIDTIME": "2026-06-20 18:00:00" }, "geometry": { "type": "LineString", "coordinates": [ [ 134.199996950000013, 14.69999981 ], [ 133.199996950000013, 15.39999962 ] ] } },
{ "type": "Feature", "properties": { "ID": 26037, "LAT": 15.4, "LON": 133.2, "VMAX": 55.0, "MSLP": 993.0, "RMAX": 30.0, "FSPD": 7.37558, "FDIR": 299.22552, "RENV": 180.0, "PENV": 1008.0, "VALIDT": 0, "DTG": "2026-06-21 00:00", "LATNOW": 24.8, "LONNOW": 126.0, "WINDNOW": 50.0, "DIRNOW": 6.0, "SPDNOW": 1.0, "TECH": "TRAK", "ADVNR": 27, "ATCFID": "WP072026", "NAME": "MEKKHALA", "FTECH": "JTWC", "FCST_DTG": "2026-06-25 06:00:00", "RUN_DTG": "2026-06-25 08:34:18", "BASIN": "WP", "STMNR": 7, "CAT_ID": null, "CAT_DESC": null, "MSGID": "WTPN51 PGTW 250900", "VALIDTIME": "2026-06-21 00:00:00" }, "geometry": { "type": "LineString", "coordinates": [ [ 133.199996950000013, 15.39999962 ], [ 131.8999939, 16.10000038 ] ] } },
{ "type": "Feature", "properties": { "ID": 26038, "LAT": 16.1, "LON": 131.9, "VMAX": 65.0, "MSLP": 993.0, "RMAX": 25.0, "FSPD": 6.74068, "FDIR": 287.77484, "RENV": 180.0, "PENV": 1008.0, "VALIDT": 0, "DTG": "2026-06-21 06:00", "LATNOW": 24.8, "LONNOW": 126.0, "WINDNOW": 50.0, "DIRNOW": 6.0, "SPDNOW": 1.0, "TECH": "TRAK", "ADVNR": 27, "ATCFID": "WP072026", "NAME": "MEKKHALA", "FTECH": "JTWC", "FCST_DTG": "2026-06-25 06:00:00", "RUN_DTG": "2026-06-25 08:34:18", "BASIN": "WP", "STMNR": 7, "CAT_ID": null, "CAT_DESC": null, "MSGID": "WTPN51 PGTW 250900", "VALIDTIME": "2026-06-21 06:00:00" }, "geometry": { "type": "LineString", "coordinates": [ [ 131.8999939, 16.10000038 ], [ 130.6000061, 16.5 ] ] } },
{ "type": "Feature", "properties": { "ID": 26039, "LAT": 16.5, "LON": 130.6, "VMAX": 75.0, "MSLP": 988.0, "RMAX": 20.0, "FSPD": 9.32523, "FDIR": 296.1891, "RENV": 180.0, "PENV": 1008.0, "VALIDT": 0, "DTG": "2026-06-21 12:00", "LATNOW": 24.8, "LONNOW": 126.0, "WINDNOW": 50.0, "DIRNOW": 6.0, "SPDNOW": 1.0, "TECH": "TRAK", "ADVNR": 27, "ATCFID": "WP072026", "NAME": "MEKKHALA", "FTECH": "JTWC", "FCST_DTG": "2026-06-25 06:00:00", "RUN_DTG": "2026-06-25 08:34:18", "BASIN": "WP", "STMNR": 7, "CAT_ID": null, "CAT_DESC": null, "MSGID": "WTPN51 PGTW 250900", "VALIDTIME": "2026-06-21 12:00:00" }, "geometry": { "type": "LineString", "coordinates": [ [ 130.6000061, 16.5 ], [ 128.8999939, 17.29999924 ] ] } },
{ "type": "Feature", "properties": { "ID": 26040, "LAT": 17.3, "LON": 128.9, "VMAX": 80.0, "MSLP": 981.0, "RMAX": 30.0, "FSPD": 5.42581, "FDIR": 275.4406, "RENV": 180.0, "PENV": 1008.0, "VALIDT": 0, "DTG": "2026-06-21 18:00", "LATNOW": 24.8, "LONNOW": 126.0, "WINDNOW": 50.0, "DIRNOW": 6.0, "SPDNOW": 1.0, "TECH": "TRAK", "ADVNR": 27, "ATCFID": "WP072026", "NAME": "MEKKHALA", "FTECH": "JTWC", "FCST_DTG": "2026-06-25 06:00:00", "RUN_DTG": "2026-06-25 08:34:18", "BASIN": "WP", "STMNR": 7, "CAT_ID": null, "CAT_DESC": null, "MSGID": "WTPN51 PGTW 250900", "VALIDTIME": "2026-06-21 18:00:00" }, "geometry": { "type": "LineString", "coordinates": [ [ 128.8999939, 17.29999924 ], [ 127.80000305, 17.39999962 ] ] } },
{ "type": "Feature", "properties": { "ID": 26041, "LAT": 17.4, "LON": 127.8, "VMAX": 100.0, "MSLP": 976.0, "RMAX": 10.0, "FSPD": 5.10711, "FDIR": 300.2421, "RENV": 180.0, "PENV": 1006.0, "VALIDT": 0, "DTG": "2026-06-22 00:00", "LATNOW": 24.8, "LONNOW": 126.0, "WINDNOW": 50.0, "DIRNOW": 6.0, "SPDNOW": 1.0, "TECH": "TRAK", "ADVNR": 27, "ATCFID": "WP072026", "NAME": "MEKKHALA", "FTECH": "JTWC", "FCST_DTG": "2026-06-25 06:00:00", "RUN_DTG": "2026-06-25 08:34:18", "BASIN": "WP", "STMNR": 7, "CAT_ID": null, "CAT_DESC": null, "MSGID": "WTPN51 PGTW 250900", "VALIDTIME": "2026-06-22 00:00:00" }, "geometry": { "type": "LineString", "coordinates": [ [ 127.80000305, 17.39999962 ], [ 126.90000153, 17.89999962 ] ] } },
{ "type": "Feature", "properties": { "ID": 26042, "LAT": 17.9, "LON": 126.9, "VMAX": 115.0, "MSLP": 961.0, "RMAX": 10.0, "FSPD": 4.04711, "FDIR": 284.72787, "RENV": 210.0, "PENV": 1006.0, "VALIDT": 0, "DTG": "2026-06-22 06:00", "LATNOW": 24.8, "LONNOW": 126.0, "WINDNOW": 50.0, "DIRNOW": 6.0, "SPDNOW": 1.0, "TECH": "TRAK", "ADVNR": 27, "ATCFID": "WP072026", "NAME": "MEKKHALA", "FTECH": "JTWC", "FCST_DTG": "2026-06-25 06:00:00", "RUN_DTG": "2026-06-25 08:34:18", "BASIN": "WP", "STMNR": 7, "CAT_ID": null, "CAT_DESC": null, "MSGID": "WTPN51 PGTW 250900", "VALIDTIME": "2026-06-22 06:00:00" }, "geometry": { "type": "LineString", "coordinates": [ [ 126.90000153, 17.89999962 ], [ 126.09999847, 18.10000038 ] ] } },
{ "type": "Feature", "properties": { "ID": 26043, "LAT": 18.1, "LON": 126.1, "VMAX": 125.0, "MSLP": 947.0, "RMAX": 12.0, "FSPD": 2.65132, "FDIR": 292.8341, "RENV": 220.0, "PENV": 1006.0, "VALIDT": 0, "DTG": "2026-06-22 12:00", "LATNOW": 24.8, "LONNOW": 126.0, "WINDNOW": 50.0, "DIRNOW": 6.0, "SPDNOW": 1.0, "TECH": "TRAK", "ADVNR": 27, "ATCFID": "WP072026", "NAME": "MEKKHALA", "FTECH": "JTWC", "FCST_DTG": "2026-06-25 06:00:00", "RUN_DTG": "2026-06-25 08:34:18", "BASIN": "WP", "STMNR": 7, "CAT_ID": null, "CAT_DESC": null, "MSGID": "WTPN51 PGTW 250900", "VALIDTIME": "2026-06-22 12:00:00" }, "geometry": { "type": "LineString", "coordinates": [ [ 126.09999847, 18.10000038 ], [ 125.59999847, 18.29999924 ] ] } },
{ "type": "Feature", "properties": { "ID": 26044, "LAT": 18.3, "LON": 125.6, "VMAX": 125.0, "MSLP": 937.0, "RMAX": 12.0, "FSPD": 3.65119, "FDIR": 327.71335, "RENV": 220.0, "PENV": 1006.0, "VALIDT": 0, "DTG": "2026-06-22 18:00", "LATNOW": 24.8, "LONNOW": 126.0, "WINDNOW": 50.0, "DIRNOW": 6.0, "SPDNOW": 1.0, "TECH": "TRAK", "ADVNR": 27, "ATCFID": "WP072026", "NAME": "MEKKHALA", "FTECH": "JTWC", "FCST_DTG": "2026-06-25 06:00:00", "RUN_DTG": "2026-06-25 08:34:18", "BASIN": "WP", "STMNR": 7, "CAT_ID": null, "CAT_DESC": null, "MSGID": "WTPN51 PGTW 250900", "VALIDTIME": "2026-06-22 18:00:00" }, "geometry": { "type": "LineString", "coordinates": [ [ 125.59999847, 18.29999924 ], [ 125.19999695, 18.89999962 ] ] } },
{ "type": "Feature", "properties": { "ID": 26045, "LAT": 18.9, "LON": 125.2, "VMAX": 115.0, "MSLP": 934.0, "RMAX": 12.0, "FSPD": 2.20094, "FDIR": 297.8708, "RENV": 240.0, "PENV": 1004.0, "VALIDT": 0, "DTG": "2026-06-23 00:00", "LATNOW": 24.8, "LONNOW": 126.0, "WINDNOW": 50.0, "DIRNOW": 6.0, "SPDNOW": 1.0, "TECH": "TRAK", "ADVNR": 27, "ATCFID": "WP072026", "NAME": "MEKKHALA", "FTECH": "JTWC", "FCST_DTG": "2026-06-25 06:00:00", "RUN_DTG": "2026-06-25 08:34:18", "BASIN": "WP", "STMNR": 7, "CAT_ID": null, "CAT_DESC": null, "MSGID": "WTPN51 PGTW 250900", "VALIDTIME": "2026-06-23 00:00:00" }, "geometry": { "type": "LineString", "coordinates": [ [ 125.19999695, 18.89999962 ], [ 124.80000305, 19.10000038 ] ] } },
{ "type": "Feature", "properties": { "ID": 26046, "LAT": 19.1, "LON": 124.8, "VMAX": 110.0, "MSLP": 943.0, "RMAX": 12.0, "FSPD": 2.61762, "FDIR": 349.31317, "RENV": 240.0, "PENV": 1004.0, "VALIDT": 0, "DTG": "2026-06-23 06:00", "LATNOW": 24.8, "LONNOW": 126.0, "WINDNOW": 50.0, "DIRNOW": 6.0, "SPDNOW": 1.0, "TECH": "TRAK", "ADVNR": 27, "ATCFID": "WP072026", "NAME": "MEKKHALA", "FTECH": "JTWC", "FCST_DTG": "2026-06-25 06:00:00", "RUN_DTG": "2026-06-25 08:34:18", "BASIN": "WP", "STMNR": 7, "CAT_ID": null, "CAT_DESC": null, "MSGID": "WTPN51 PGTW 250900", "VALIDTIME": "2026-06-23 06:00:00" }, "geometry": { "type": "LineString", "coordinates": [ [ 124.80000305, 19.10000038 ], [ 124.69999695, 19.60000038 ] ] } },
{ "type": "Feature", "properties": { "ID": 26047, "LAT": 19.6, "LON": 124.7, "VMAX": 100.0, "MSLP": 946.0, "RMAX": 12.0, "FSPD": 3.12435, "FDIR": 8.90717, "RENV": 210.0, "PENV": 1004.0, "VALIDT": 0, "DTG": "2026-06-23 12:00", "LATNOW": 24.8, "LONNOW": 126.0, "WINDNOW": 50.0, "DIRNOW": 6.0, "SPDNOW": 1.0, "TECH": "TRAK", "ADVNR": 27, "ATCFID": "WP072026", "NAME": "MEKKHALA", "FTECH": "JTWC", "FCST_DTG": "2026-06-25 06:00:00", "RUN_DTG": "2026-06-25 08:34:18", "BASIN": "WP", "STMNR": 7, "CAT_ID": null, "CAT_DESC": null, "MSGID": "WTPN51 PGTW 250900", "VALIDTIME": "2026-06-23 12:00:00" }, "geometry": { "type": "LineString", "coordinates": [ [ 124.69999695, 19.60000038 ], [ 124.80000305, 20.20000076 ] ] } },
{ "type": "Feature", "properties": { "ID": 26048, "LAT": 20.2, "LON": 124.8, "VMAX": 85.0, "MSLP": 954.0, "RMAX": 15.0, "FSPD": 4.22674, "FDIR": 346.82864, "RENV": 190.0, "PENV": 1004.0, "VALIDT": 0, "DTG": "2026-06-23 18:00", "LATNOW": 24.8, "LONNOW": 126.0, "WINDNOW": 50.0, "DIRNOW": 6.0, "SPDNOW": 1.0, "TECH": "TRAK", "ADVNR": 27, "ATCFID": "WP072026", "NAME": "MEKKHALA", "FTECH": "JTWC", "FCST_DTG": "2026-06-25 06:00:00", "RUN_DTG": "2026-06-25 08:34:18", "BASIN": "WP", "STMNR": 7, "CAT_ID": null, "CAT_DESC": null, "MSGID": "WTPN51 PGTW 250900", "VALIDTIME": "2026-06-23 18:00:00" }, "geometry": { "type": "LineString", "coordinates": [ [ 124.80000305, 20.20000076 ], [ 124.59999847, 21.0 ] ] } },
{ "type": "Feature", "properties": { "ID": 26049, "LAT": 21.0, "LON": 124.6, "VMAX": 75.0, "MSLP": 965.0, "RMAX": 15.0, "FSPD": 4.22557, "FDIR": 13.10336, "RENV": 165.0, "PENV": 1003.0, "VALIDT": 0, "DTG": "2026-06-24 00:00", "LATNOW": 24.8, "LONNOW": 126.0, "WINDNOW": 50.0, "DIRNOW": 6.0, "SPDNOW": 1.0, "TECH": "TRAK", "ADVNR": 27, "ATCFID": "WP072026", "NAME": "MEKKHALA", "FTECH": "JTWC", "FCST_DTG": "2026-06-25 06:00:00", "RUN_DTG": "2026-06-25 08:34:18", "BASIN": "WP", "STMNR": 7, "CAT_ID": null, "CAT_DESC": null, "MSGID": "WTPN51 PGTW 250900", "VALIDTIME": "2026-06-24 00:00:00" }, "geometry": { "type": "LineString", "coordinates": [ [ 124.59999847, 21.0 ], [ 124.80000305, 21.79999924 ] ] } },
{ "type": "Feature", "properties": { "ID": 26050, "LAT": 21.8, "LON": 124.8, "VMAX": 70.0, "MSLP": 974.0, "RMAX": 15.0, "FSPD": 1.54334, "FDIR": 360.0, "RENV": 185.0, "PENV": 1004.0, "VALIDT": 0, "DTG": "2026-06-24 06:00", "LATNOW": 24.8, "LONNOW": 126.0, "WINDNOW": 50.0, "DIRNOW": 6.0, "SPDNOW": 1.0, "TECH": "TRAK", "ADVNR": 27, "ATCFID": "WP072026", "NAME": "MEKKHALA", "FTECH": "JTWC", "FCST_DTG": "2026-06-25 06:00:00", "RUN_DTG": "2026-06-25 08:34:18", "BASIN": "WP", "STMNR": 7, "CAT_ID": null, "CAT_DESC": null, "MSGID": "WTPN51 PGTW 250900", "VALIDTIME": "2026-06-24 06:00:00" }, "geometry": { "type": "LineString", "coordinates": [ [ 124.80000305, 21.79999924 ], [ 124.80000305, 22.10000038 ] ] } },
{ "type": "Feature", "properties": { "ID": 26051, "LAT": 22.1, "LON": 124.8, "VMAX": 65.0, "MSLP": 975.0, "RMAX": 20.0, "FSPD": 2.7426, "FDIR": 20.30173, "RENV": 170.0, "PENV": 1002.0, "VALIDT": 0, "DTG": "2026-06-24 12:00", "LATNOW": 24.8, "LONNOW": 126.0, "WINDNOW": 50.0, "DIRNOW": 6.0, "SPDNOW": 1.0, "TECH": "TRAK", "ADVNR": 27, "ATCFID": "WP072026", "NAME": "MEKKHALA", "FTECH": "JTWC", "FCST_DTG": "2026-06-25 06:00:00", "RUN_DTG": "2026-06-25 08:34:18", "BASIN": "WP", "STMNR": 7, "CAT_ID": null, "CAT_DESC": null, "MSGID": "WTPN51 PGTW 250900", "VALIDTIME": "2026-06-24 12:00:00" }, "geometry": { "type": "LineString", "coordinates": [ [ 124.80000305, 22.10000038 ], [ 125.0, 22.60000038 ] ] } },
{ "type": "Feature", "properties": { "ID": 26052, "LAT": 22.6, "LON": 125.0, "VMAX": 55.0, "MSLP": 978.0, "RMAX": 20.0, "FSPD": 5.83411, "FDIR": 14.07773, "RENV": 160.0, "PENV": 1003.0, "VALIDT": 0, "DTG": "2026-06-24 18:00", "LATNOW": 24.8, "LONNOW": 126.0, "WINDNOW": 50.0, "DIRNOW": 6.0, "SPDNOW": 1.0, "TECH": "TRAK", "ADVNR": 27, "ATCFID": "WP072026", "NAME": "MEKKHALA", "FTECH": "JTWC", "FCST_DTG": "2026-06-25 06:00:00", "RUN_DTG": "2026-06-25 08:34:18", "BASIN": "WP", "STMNR": 7, "CAT_ID": null, "CAT_DESC": null, "MSGID": "WTPN51 PGTW 250900", "VALIDTIME": "2026-06-24 18:00:00" }, "geometry": { "type": "LineString", "coordinates": [ [ 125.0, 22.60000038 ], [ 125.30000305, 23.70000076 ] ] } },
{ "type": "Feature", "properties": { "ID": 26053, "LAT": 23.7, "LON": 125.3, "VMAX": 50.0, "MSLP": 983.0, "RMAX": 30.0, "FSPD": 6.54242, "FDIR": 30.12274, "RENV": 165.0, "PENV": 1002.0, "VALIDT": 0, "DTG": "2026-06-25 00:00", "LATNOW": 24.8, "LONNOW": 126.0, "WINDNOW": 50.0, "DIRNOW": 6.0, "SPDNOW": 1.0, "TECH": "TRAK", "ADVNR": 27, "ATCFID": "WP072026", "NAME": "MEKKHALA", "FTECH": "JTWC", "FCST_DTG": "2026-06-25 06:00:00", "RUN_DTG": "2026-06-25 08:34:18", "BASIN": "WP", "STMNR": 7, "CAT_ID": null, "CAT_DESC": null, "MSGID": "WTPN51 PGTW 250900", "VALIDTIME": "2026-06-25 00:00:00" }, "geometry": { "type": "LineString", "coordinates": [ [ 125.30000305, 23.70000076 ], [ 126.0, 24.79999924 ] ] } },
{ "type": "Feature", "properties": { "ID": 26054, "LAT": 24.8, "LON": 126.0, "VMAX": 50.0, "MSLP": 1002.2391, "RMAX": 38.56918, "FSPD": 5.62265, "FDIR": 29.63382, "RENV": 500.0, "PENV": 1012.0, "VALIDT": 0, "DTG": "2026-06-25 06:00", "LATNOW": 24.8, "LONNOW": 126.0, "WINDNOW": 50.0, "DIRNOW": 6.0, "SPDNOW": 1.0, "TECH": "TRAK", "ADVNR": 27, "ATCFID": "WP072026", "NAME": "MEKKHALA", "FTECH": "JTWC", "FCST_DTG": "2026-06-25 06:00:00", "RUN_DTG": "2026-06-25 08:34:18", "BASIN": "WP", "STMNR": 7, "CAT_ID": null, "CAT_DESC": null, "MSGID": "WTPN51 PGTW 250900", "VALIDTIME": "2026-06-25 06:00:00" }, "geometry": { "type": "LineString", "coordinates": [ [ 126.0, 24.79999924 ], [ 127.19999695, 26.70000076 ] ] } },
{ "type": "Feature", "properties": { "ID": 26055, "LAT": 26.7, "LON": 127.2, "VMAX": 50.0, "MSLP": 1002.2391, "RMAX": 38.56918, "FSPD": 6.38007, "FDIR": 40.00269, "RENV": 250.0, "PENV": 1012.0, "VALIDT": 12, "DTG": "2026-06-25 18:00", "LATNOW": 24.8, "LONNOW": 126.0, "WINDNOW": 50.0, "DIRNOW": 6.0, "SPDNOW": 1.0, "TECH": "FCST", "ADVNR": 27, "ATCFID": "WP072026", "NAME": "MEKKHALA", "FTECH": "JTWC", "FCST_DTG": "2026-06-25 06:00:00", "RUN_DTG": "2026-06-25 08:34:18", "BASIN": "WP", "STMNR": 7, "CAT_ID": null, "CAT_DESC": null, "MSGID": "WTPN51 PGTW 250900", "VALIDTIME": "2026-06-25 18:00:00" }, "geometry": { "type": "LineString", "coordinates": [ [ 127.19999695, 26.70000076 ], [ 129.0, 28.60000038 ] ] } },
{ "type": "Feature", "properties": { "ID": 26056, "LAT": 28.6, "LON": 129.0, "VMAX": 45.0, "MSLP": 1004.66364, "RMAX": 39.89946, "FSPD": 9.95701, "FDIR": 51.68396, "RENV": 250.0, "PENV": 1012.0, "VALIDT": 24, "DTG": "2026-06-26 06:00", "LATNOW": 24.8, "LONNOW": 126.0, "WINDNOW": 50.0, "DIRNOW": 6.0, "SPDNOW": 1.0, "TECH": "FCST", "ADVNR": 27, "ATCFID": "WP072026", "NAME": "MEKKHALA", "FTECH": "JTWC", "FCST_DTG": "2026-06-25 06:00:00", "RUN_DTG": "2026-06-25 08:34:18", "BASIN": "WP", "STMNR": 7, "CAT_ID": null, "CAT_DESC": null, "MSGID": "WTPN51 PGTW 250900", "VALIDTIME": "2026-06-26 06:00:00" }, "geometry": { "type": "LineString", "coordinates": [ [ 129.0, 28.60000038 ], [ 132.5, 31.0 ] ] } },
{ "type": "Feature", "properties": { "ID": 26057, "LAT": 31.0, "LON": 132.5, "VMAX": 45.0, "MSLP": 1004.66364, "RMAX": 39.89946, "FSPD": 14.57577, "FDIR": 58.03387, "RENV": 250.0, "PENV": 1012.0, "VALIDT": 36, "DTG": "2026-06-26 18:00", "LATNOW": 24.8, "LONNOW": 126.0, "WINDNOW": 50.0, "DIRNOW": 6.0, "SPDNOW": 1.0, "TECH": "FCST", "ADVNR": 27, "ATCFID": "WP072026", "NAME": "MEKKHALA", "FTECH": "JTWC", "FCST_DTG": "2026-06-25 06:00:00", "RUN_DTG": "2026-06-25 08:34:18", "BASIN": "WP", "STMNR": 7, "CAT_ID": null, "CAT_DESC": null, "MSGID": "WTPN51 PGTW 250900", "VALIDTIME": "2026-06-26 18:00:00" }, "geometry": { "type": "LineString", "coordinates": [ [ 132.5, 31.0 ], [ 138.199996950000013, 34.0 ] ] } },
{ "type": "Feature", "properties": { "ID": 26058, "LAT": 34.0, "LON": 138.2, "VMAX": 40.0, "MSLP": 1006.833, "RMAX": 41.26637, "FSPD": 15.49082, "FDIR": 63.3634, "RENV": 250.0, "PENV": 1012.0, "VALIDT": 48, "DTG": "2026-06-27 06:00", "LATNOW": 24.8, "LONNOW": 126.0, "WINDNOW": 50.0, "DIRNOW": 6.0, "SPDNOW": 1.0, "TECH": "FCST", "ADVNR": 27, "ATCFID": "WP072026", "NAME": "MEKKHALA", "FTECH": "JTWC", "FCST_DTG": "2026-06-25 06:00:00", "RUN_DTG": "2026-06-25 08:34:18", "BASIN": "WP", "STMNR": 7, "CAT_ID": null, "CAT_DESC": null, "MSGID": "WTPN51 PGTW 250900", "VALIDTIME": "2026-06-27 06:00:00" }, "geometry": { "type": "LineString", "coordinates": [ [ 138.199996950000013, 34.0 ], [ 144.800003049999987, 36.70000076 ] ] } }
]
}
