{
"type": "FeatureCollection",
"name": "storm_forecast_points",
"crs": { "type": "name", "properties": { "name": "urn:ogc:def:crs:OGC:1.3:CRS84" } },
"features": [
{ "type": "Feature", "properties": { "ID": 26474, "LAT": 14.2, "LON": 149.2, "VMAX": 20.0, "MSLP": 1012.95825, "RMAX": 45.0, "FSPD": 3.49107, "FDIR": 269.99997, "RENV": 500.0, "PENV": 1012.0, "VALIDT": 0, "DTG": "2026-06-22 00:00", "LATNOW": 19.7, "LONNOW": 135.5, "WINDNOW": 45.0, "DIRNOW": 9.0, "SPDNOW": 2.0, "TECH": "TRAK", "ADVNR": 12, "ATCFID": "WP082026", "NAME": "HIGOS", "FTECH": "JTWC", "FCST_DTG": "2026-06-25 06:00:00", "RUN_DTG": "2026-06-25 08:34:18", "BASIN": "WP", "STMNR": 8, "CAT_ID": null, "CAT_DESC": null, "MSGID": "WTPN52 PGTW 250900", "VALIDTIME": "2026-06-22 00:00:00" }, "geometry": { "type": "Point", "coordinates": [ 149.199997, 14.2 ] } },
{ "type": "Feature", "properties": { "ID": 26475, "LAT": 14.2, "LON": 148.5, "VMAX": 20.0, "MSLP": 1012.95825, "RMAX": 45.0, "FSPD": 3.49107, "FDIR": 269.99997, "RENV": 500.0, "PENV": 1012.0, "VALIDT": 0, "DTG": "2026-06-22 06:00", "LATNOW": 19.7, "LONNOW": 135.5, "WINDNOW": 45.0, "DIRNOW": 9.0, "SPDNOW": 2.0, "TECH": "TRAK", "ADVNR": 12, "ATCFID": "WP082026", "NAME": "HIGOS", "FTECH": "JTWC", "FCST_DTG": "2026-06-25 06:00:00", "RUN_DTG": "2026-06-25 08:34:18", "BASIN": "WP", "STMNR": 8, "CAT_ID": null, "CAT_DESC": null, "MSGID": "WTPN52 PGTW 250900", "VALIDTIME": "2026-06-22 06:00:00" }, "geometry": { "type": "Point", "coordinates": [ 148.5, 14.2 ] } },
{ "type": "Feature", "properties": { "ID": 26476, "LAT": 14.2, "LON": 147.8, "VMAX": 25.0, "MSLP": 1006.0, "RMAX": 30.0, "FSPD": 6.66041, "FDIR": 283.3982, "RENV": 150.0, "PENV": 1008.0, "VALIDT": 0, "DTG": "2026-06-22 12:00", "LATNOW": 19.7, "LONNOW": 135.5, "WINDNOW": 45.0, "DIRNOW": 9.0, "SPDNOW": 2.0, "TECH": "TRAK", "ADVNR": 12, "ATCFID": "WP082026", "NAME": "HIGOS", "FTECH": "JTWC", "FCST_DTG": "2026-06-25 06:00:00", "RUN_DTG": "2026-06-25 08:34:18", "BASIN": "WP", "STMNR": 8, "CAT_ID": null, "CAT_DESC": null, "MSGID": "WTPN52 PGTW 250900", "VALIDTIME": "2026-06-22 12:00:00" }, "geometry": { "type": "Point", "coordinates": [ 147.800003, 14.2 ] } },
{ "type": "Feature", "properties": { "ID": 26477, "LAT": 14.5, "LON": 146.5, "VMAX": 30.0, "MSLP": 1006.0, "RMAX": 30.0, "FSPD": 4.59708, "FDIR": 282.9331, "RENV": 150.0, "PENV": 1008.0, "VALIDT": 0, "DTG": "2026-06-22 18:00", "LATNOW": 19.7, "LONNOW": 135.5, "WINDNOW": 45.0, "DIRNOW": 9.0, "SPDNOW": 2.0, "TECH": "TRAK", "ADVNR": 12, "ATCFID": "WP082026", "NAME": "HIGOS", "FTECH": "JTWC", "FCST_DTG": "2026-06-25 06:00:00", "RUN_DTG": "2026-06-25 08:34:18", "BASIN": "WP", "STMNR": 8, "CAT_ID": null, "CAT_DESC": null, "MSGID": "WTPN52 PGTW 250900", "VALIDTIME": "2026-06-22 18:00:00" }, "geometry": { "type": "Point", "coordinates": [ 146.5, 14.5 ] } },
{ "type": "Feature", "properties": { "ID": 26478, "LAT": 14.7, "LON": 145.6, "VMAX": 35.0, "MSLP": 1005.0, "RMAX": 30.0, "FSPD": 3.52029, "FDIR": 278.40314, "RENV": 210.0, "PENV": 1008.0, "VALIDT": 0, "DTG": "2026-06-23 00:00", "LATNOW": 19.7, "LONNOW": 135.5, "WINDNOW": 45.0, "DIRNOW": 9.0, "SPDNOW": 2.0, "TECH": "TRAK", "ADVNR": 12, "ATCFID": "WP082026", "NAME": "HIGOS", "FTECH": "JTWC", "FCST_DTG": "2026-06-25 06:00:00", "RUN_DTG": "2026-06-25 08:34:18", "BASIN": "WP", "STMNR": 8, "CAT_ID": null, "CAT_DESC": null, "MSGID": "WTPN52 PGTW 250900", "VALIDTIME": "2026-06-23 00:00:00" }, "geometry": { "type": "Point", "coordinates": [ 145.600006, 14.7 ] } },
{ "type": "Feature", "properties": { "ID": 26479, "LAT": 14.8, "LON": 144.9, "VMAX": 35.0, "MSLP": 1005.0, "RMAX": 50.0, "FSPD": 4.97377, "FDIR": 269.99997, "RENV": 130.0, "PENV": 1009.0, "VALIDT": 0, "DTG": "2026-06-23 06:00", "LATNOW": 19.7, "LONNOW": 135.5, "WINDNOW": 45.0, "DIRNOW": 9.0, "SPDNOW": 2.0, "TECH": "TRAK", "ADVNR": 12, "ATCFID": "WP082026", "NAME": "HIGOS", "FTECH": "JTWC", "FCST_DTG": "2026-06-25 06:00:00", "RUN_DTG": "2026-06-25 08:34:18", "BASIN": "WP", "STMNR": 8, "CAT_ID": null, "CAT_DESC": null, "MSGID": "WTPN52 PGTW 250900", "VALIDTIME": "2026-06-23 06:00:00" }, "geometry": { "type": "Point", "coordinates": [ 144.899994, 14.8 ] } },
{ "type": "Feature", "properties": { "ID": 26480, "LAT": 14.8, "LON": 143.9, "VMAX": 30.0, "MSLP": 1003.0, "RMAX": 40.0, "FSPD": 5.49398, "FDIR": 275.37286, "RENV": 140.0, "PENV": 1008.0, "VALIDT": 0, "DTG": "2026-06-23 12:00", "LATNOW": 19.7, "LONNOW": 135.5, "WINDNOW": 45.0, "DIRNOW": 9.0, "SPDNOW": 2.0, "TECH": "TRAK", "ADVNR": 12, "ATCFID": "WP082026", "NAME": "HIGOS", "FTECH": "JTWC", "FCST_DTG": "2026-06-25 06:00:00", "RUN_DTG": "2026-06-25 08:34:18", "BASIN": "WP", "STMNR": 8, "CAT_ID": null, "CAT_DESC": null, "MSGID": "WTPN52 PGTW 250900", "VALIDTIME": "2026-06-23 12:00:00" }, "geometry": { "type": "Point", "coordinates": [ 143.899994, 14.8 ] } },
{ "type": "Feature", "properties": { "ID": 26481, "LAT": 14.9, "LON": 142.8, "VMAX": 30.0, "MSLP": 1003.0, "RMAX": 30.0, "FSPD": 4.58911, "FDIR": 282.956, "RENV": 140.0, "PENV": 1010.0, "VALIDT": 0, "DTG": "2026-06-23 18:00", "LATNOW": 19.7, "LONNOW": 135.5, "WINDNOW": 45.0, "DIRNOW": 9.0, "SPDNOW": 2.0, "TECH": "TRAK", "ADVNR": 12, "ATCFID": "WP082026", "NAME": "HIGOS", "FTECH": "JTWC", "FCST_DTG": "2026-06-25 06:00:00", "RUN_DTG": "2026-06-25 08:34:18", "BASIN": "WP", "STMNR": 8, "CAT_ID": null, "CAT_DESC": null, "MSGID": "WTPN52 PGTW 250900", "VALIDTIME": "2026-06-23 18:00:00" }, "geometry": { "type": "Point", "coordinates": [ 142.800003, 14.9 ] } },
{ "type": "Feature", "properties": { "ID": 26482, "LAT": 15.1, "LON": 141.9, "VMAX": 30.0, "MSLP": 1010.40607, "RMAX": 44.21983, "FSPD": 6.26831, "FDIR": 299.49994, "RENV": 500.0, "PENV": 1012.0, "VALIDT": 0, "DTG": "2026-06-24 00:00", "LATNOW": 19.7, "LONNOW": 135.5, "WINDNOW": 45.0, "DIRNOW": 9.0, "SPDNOW": 2.0, "TECH": "TRAK", "ADVNR": 12, "ATCFID": "WP082026", "NAME": "HIGOS", "FTECH": "JTWC", "FCST_DTG": "2026-06-25 06:00:00", "RUN_DTG": "2026-06-25 08:34:18", "BASIN": "WP", "STMNR": 8, "CAT_ID": null, "CAT_DESC": null, "MSGID": "WTPN52 PGTW 250900", "VALIDTIME": "2026-06-24 00:00:00" }, "geometry": { "type": "Point", "coordinates": [ 141.899994, 15.1 ] } },
{ "type": "Feature", "properties": { "ID": 26483, "LAT": 15.7, "LON": 140.8, "VMAX": 30.0, "MSLP": 1003.0, "RMAX": 40.0, "FSPD": 6.25443, "FDIR": 299.57196, "RENV": 140.0, "PENV": 1008.0, "VALIDT": 0, "DTG": "2026-06-24 06:00", "LATNOW": 19.7, "LONNOW": 135.5, "WINDNOW": 45.0, "DIRNOW": 9.0, "SPDNOW": 2.0, "TECH": "TRAK", "ADVNR": 12, "ATCFID": "WP082026", "NAME": "HIGOS", "FTECH": "JTWC", "FCST_DTG": "2026-06-25 06:00:00", "RUN_DTG": "2026-06-25 08:34:18", "BASIN": "WP", "STMNR": 8, "CAT_ID": null, "CAT_DESC": null, "MSGID": "WTPN52 PGTW 250900", "VALIDTIME": "2026-06-24 06:00:00" }, "geometry": { "type": "Point", "coordinates": [ 140.800003, 15.7 ] } },
{ "type": "Feature", "properties": { "ID": 26484, "LAT": 16.3, "LON": 139.7, "VMAX": 30.0, "MSLP": 1002.0, "RMAX": 30.0, "FSPD": 6.92454, "FDIR": 301.3357, "RENV": 145.0, "PENV": 1008.0, "VALIDT": 0, "DTG": "2026-06-24 12:00", "LATNOW": 19.7, "LONNOW": 135.5, "WINDNOW": 45.0, "DIRNOW": 9.0, "SPDNOW": 2.0, "TECH": "TRAK", "ADVNR": 12, "ATCFID": "WP082026", "NAME": "HIGOS", "FTECH": "JTWC", "FCST_DTG": "2026-06-25 06:00:00", "RUN_DTG": "2026-06-25 08:34:18", "BASIN": "WP", "STMNR": 8, "CAT_ID": null, "CAT_DESC": null, "MSGID": "WTPN52 PGTW 250900", "VALIDTIME": "2026-06-24 12:00:00" }, "geometry": { "type": "Point", "coordinates": [ 139.699997, 16.299999 ] } },
{ "type": "Feature", "properties": { "ID": 26485, "LAT": 17.0, "LON": 138.5, "VMAX": 35.0, "MSLP": 1002.0, "RMAX": 30.0, "FSPD": 6.038, "FDIR": 312.96948, "RENV": 150.0, "PENV": 1010.0, "VALIDT": 0, "DTG": "2026-06-24 18:00", "LATNOW": 19.7, "LONNOW": 135.5, "WINDNOW": 45.0, "DIRNOW": 9.0, "SPDNOW": 2.0, "TECH": "TRAK", "ADVNR": 12, "ATCFID": "WP082026", "NAME": "HIGOS", "FTECH": "JTWC", "FCST_DTG": "2026-06-25 06:00:00", "RUN_DTG": "2026-06-25 08:34:18", "BASIN": "WP", "STMNR": 8, "CAT_ID": null, "CAT_DESC": null, "MSGID": "WTPN52 PGTW 250900", "VALIDTIME": "2026-06-24 18:00:00" }, "geometry": { "type": "Point", "coordinates": [ 138.5, 17.0 ] } },
{ "type": "Feature", "properties": { "ID": 26486, "LAT": 17.8, "LON": 137.6, "VMAX": 40.0, "MSLP": 1003.0, "RMAX": 35.0, "FSPD": 14.14897, "FDIR": 313.69537, "RENV": 135.0, "PENV": 1008.0, "VALIDT": 0, "DTG": "2026-06-25 00:00", "LATNOW": 19.7, "LONNOW": 135.5, "WINDNOW": 45.0, "DIRNOW": 9.0, "SPDNOW": 2.0, "TECH": "TRAK", "ADVNR": 12, "ATCFID": "WP082026", "NAME": "HIGOS", "FTECH": "JTWC", "FCST_DTG": "2026-06-25 06:00:00", "RUN_DTG": "2026-06-25 08:34:18", "BASIN": "WP", "STMNR": 8, "CAT_ID": null, "CAT_DESC": null, "MSGID": "WTPN52 PGTW 250900", "VALIDTIME": "2026-06-25 00:00:00" }, "geometry": { "type": "Point", "coordinates": [ 137.600006, 17.799999 ] } },
{ "type": "Feature", "properties": { "ID": 26487, "LAT": 19.7, "LON": 135.5, "VMAX": 45.0, "MSLP": 1004.66364, "RMAX": 39.89946, "FSPD": 8.95501, "FDIR": 332.92838, "RENV": 500.0, "PENV": 1012.0, "VALIDT": 0, "DTG": "2026-06-25 06:00", "LATNOW": 19.7, "LONNOW": 135.5, "WINDNOW": 45.0, "DIRNOW": 9.0, "SPDNOW": 2.0, "TECH": "TRAK", "ADVNR": 12, "ATCFID": "WP082026", "NAME": "HIGOS", "FTECH": "JTWC", "FCST_DTG": "2026-06-25 06:00:00", "RUN_DTG": "2026-06-25 08:34:18", "BASIN": "WP", "STMNR": 8, "CAT_ID": null, "CAT_DESC": null, "MSGID": "WTPN52 PGTW 250900", "VALIDTIME": "2026-06-25 06:00:00" }, "geometry": { "type": "Point", "coordinates": [ 135.5, 19.700001 ] } },
{ "type": "Feature", "properties": { "ID": 26488, "LAT": 22.8, "LON": 133.8, "VMAX": 50.0, "MSLP": 1002.2391, "RMAX": 38.56918, "FSPD": 12.6382, "FDIR": 4.2226, "RENV": 250.0, "PENV": 1012.0, "VALIDT": 12, "DTG": "2026-06-25 18:00", "LATNOW": 19.7, "LONNOW": 135.5, "WINDNOW": 45.0, "DIRNOW": 9.0, "SPDNOW": 2.0, "TECH": "FCST", "ADVNR": 12, "ATCFID": "WP082026", "NAME": "HIGOS", "FTECH": "JTWC", "FCST_DTG": "2026-06-25 06:00:00", "RUN_DTG": "2026-06-25 08:34:18", "BASIN": "WP", "STMNR": 8, "CAT_ID": null, "CAT_DESC": null, "MSGID": "WTPN52 PGTW 250900", "VALIDTIME": "2026-06-25 18:00:00" }, "geometry": { "type": "Point", "coordinates": [ 133.800003, 22.799999 ] } },
{ "type": "Feature", "properties": { "ID": 26489, "LAT": 27.7, "LON": 134.2, "VMAX": 50.0, "MSLP": 1002.2391, "RMAX": 38.56918, "FSPD": 16.28531, "FDIR": 25.80246, "RENV": 250.0, "PENV": 1012.0, "VALIDT": 24, "DTG": "2026-06-26 06:00", "LATNOW": 19.7, "LONNOW": 135.5, "WINDNOW": 45.0, "DIRNOW": 9.0, "SPDNOW": 2.0, "TECH": "FCST", "ADVNR": 12, "ATCFID": "WP082026", "NAME": "HIGOS", "FTECH": "JTWC", "FCST_DTG": "2026-06-25 06:00:00", "RUN_DTG": "2026-06-25 08:34:18", "BASIN": "WP", "STMNR": 8, "CAT_ID": null, "CAT_DESC": null, "MSGID": "WTPN52 PGTW 250900", "VALIDTIME": "2026-06-26 06:00:00" }, "geometry": { "type": "Point", "coordinates": [ 134.199997, 27.700001 ] } },
{ "type": "Feature", "properties": { "ID": 26490, "LAT": 33.4, "LON": 137.4, "VMAX": 45.0, "MSLP": 1004.66364, "RMAX": 39.89946, "FSPD": 16.28531, "FDIR": 25.80246, "RENV": 250.0, "PENV": 1012.0, "VALIDT": 36, "DTG": "2026-06-26 18:00", "LATNOW": 19.7, "LONNOW": 135.5, "WINDNOW": 45.0, "DIRNOW": 9.0, "SPDNOW": 2.0, "TECH": "FCST", "ADVNR": 12, "ATCFID": "WP082026", "NAME": "HIGOS", "FTECH": "JTWC", "FCST_DTG": "2026-06-25 06:00:00", "RUN_DTG": "2026-06-25 08:34:18", "BASIN": "WP", "STMNR": 8, "CAT_ID": null, "CAT_DESC": null, "MSGID": "WTPN52 PGTW 250900", "VALIDTIME": "2026-06-26 18:00:00" }, "geometry": { "type": "Point", "coordinates": [ 137.399994, 33.400002 ] } },
{ "type": "Feature", "properties": { "ID": 26396, "LAT": 5.4, "LON": 176.5, "VMAX": 15.0, "MSLP": 1013.8515, "RMAX": 40.0, "FSPD": 2.04861, "FDIR": 269.99997, "RENV": 500.0, "PENV": 1012.0, "VALIDT": 0, "DTG": "2026-06-11 12:00", "LATNOW": 24.8, "LONNOW": 126.0, "WINDNOW": 50.0, "DIRNOW": 6.0, "SPDNOW": 1.0, "TECH": "TRAK", "ADVNR": 27, "ATCFID": "WP072026", "NAME": "MEKKHALA", "FTECH": "JTWC", "FCST_DTG": "2026-06-25 06:00:00", "RUN_DTG": "2026-06-25 08:34:18", "BASIN": "WP", "STMNR": 7, "CAT_ID": null, "CAT_DESC": null, "MSGID": "WTPN51 PGTW 250900", "VALIDTIME": "2026-06-11 12:00:00" }, "geometry": { "type": "Point", "coordinates": [ 176.5, 5.4 ] } },
{ "type": "Feature", "properties": { "ID": 26397, "LAT": 5.4, "LON": 176.1, "VMAX": 15.0, "MSLP": 1013.8515, "RMAX": 40.0, "FSPD": 1.62021, "FDIR": 288.51276, "RENV": 500.0, "PENV": 1012.0, "VALIDT": 0, "DTG": "2026-06-11 18:00", "LATNOW": 24.8, "LONNOW": 126.0, "WINDNOW": 50.0, "DIRNOW": 6.0, "SPDNOW": 1.0, "TECH": "TRAK", "ADVNR": 27, "ATCFID": "WP072026", "NAME": "MEKKHALA", "FTECH": "JTWC", "FCST_DTG": "2026-06-25 06:00:00", "RUN_DTG": "2026-06-25 08:34:18", "BASIN": "WP", "STMNR": 7, "CAT_ID": null, "CAT_DESC": null, "MSGID": "WTPN51 PGTW 250900", "VALIDTIME": "2026-06-11 18:00:00" }, "geometry": { "type": "Point", "coordinates": [ 176.100006, 5.4 ] } },
{ "type": "Feature", "properties": { "ID": 26398, "LAT": 5.5, "LON": 175.8, "VMAX": 15.0, "MSLP": 1013.8515, "RMAX": 40.0, "FSPD": 2.75897, "FDIR": 291.89606, "RENV": 500.0, "PENV": 1012.0, "VALIDT": 0, "DTG": "2026-06-12 00:00", "LATNOW": 24.8, "LONNOW": 126.0, "WINDNOW": 50.0, "DIRNOW": 6.0, "SPDNOW": 1.0, "TECH": "TRAK", "ADVNR": 27, "ATCFID": "WP072026", "NAME": "MEKKHALA", "FTECH": "JTWC", "FCST_DTG": "2026-06-25 06:00:00", "RUN_DTG": "2026-06-25 08:34:18", "BASIN": "WP", "STMNR": 7, "CAT_ID": null, "CAT_DESC": null, "MSGID": "WTPN51 PGTW 250900", "VALIDTIME": "2026-06-12 00:00:00" }, "geometry": { "type": "Point", "coordinates": [ 175.800003, 5.5 ] } },
{ "type": "Feature", "properties": { "ID": 26399, "LAT": 5.7, "LON": 175.3, "VMAX": 15.0, "MSLP": 1013.8515, "RMAX": 40.0, "FSPD": 5.04433, "FDIR": 294.07538, "RENV": 500.0, "PENV": 1012.0, "VALIDT": 0, "DTG": "2026-06-12 06:00", "LATNOW": 24.8, "LONNOW": 126.0, "WINDNOW": 50.0, "DIRNOW": 6.0, "SPDNOW": 1.0, "TECH": "TRAK", "ADVNR": 27, "ATCFID": "WP072026", "NAME": "MEKKHALA", "FTECH": "JTWC", "FCST_DTG": "2026-06-25 06:00:00", "RUN_DTG": "2026-06-25 08:34:18", "BASIN": "WP", "STMNR": 7, "CAT_ID": null, "CAT_DESC": null, "MSGID": "WTPN51 PGTW 250900", "VALIDTIME": "2026-06-12 06:00:00" }, "geometry": { "type": "Point", "coordinates": [ 175.300003, 5.7 ] } },
{ "type": "Feature", "properties": { "ID": 26400, "LAT": 6.1, "LON": 174.4, "VMAX": 15.0, "MSLP": 1013.8515, "RMAX": 40.0, "FSPD": 4.12402, "FDIR": 277.1659, "RENV": 500.0, "PENV": 1012.0, "VALIDT": 0, "DTG": "2026-06-12 12:00", "LATNOW": 24.8, "LONNOW": 126.0, "WINDNOW": 50.0, "DIRNOW": 6.0, "SPDNOW": 1.0, "TECH": "TRAK", "ADVNR": 27, "ATCFID": "WP072026", "NAME": "MEKKHALA", "FTECH": "JTWC", "FCST_DTG": "2026-06-25 06:00:00", "RUN_DTG": "2026-06-25 08:34:18", "BASIN": "WP", "STMNR": 7, "CAT_ID": null, "CAT_DESC": null, "MSGID": "WTPN51 PGTW 250900", "VALIDTIME": "2026-06-12 12:00:00" }, "geometry": { "type": "Point", "coordinates": [ 174.399994, 6.1 ] } },
{ "type": "Feature", "properties": { "ID": 26401, "LAT": 6.2, "LON": 173.6, "VMAX": 15.0, "MSLP": 1013.8515, "RMAX": 40.0, "FSPD": 6.15823, "FDIR": 274.79193, "RENV": 500.0, "PENV": 1012.0, "VALIDT": 0, "DTG": "2026-06-12 18:00", "LATNOW": 24.8, "LONNOW": 126.0, "WINDNOW": 50.0, "DIRNOW": 6.0, "SPDNOW": 1.0, "TECH": "TRAK", "ADVNR": 27, "ATCFID": "WP072026", "NAME": "MEKKHALA", "FTECH": "JTWC", "FCST_DTG": "2026-06-25 06:00:00", "RUN_DTG": "2026-06-25 08:34:18", "BASIN": "WP", "STMNR": 7, "CAT_ID": null, "CAT_DESC": null, "MSGID": "WTPN51 PGTW 250900", "VALIDTIME": "2026-06-12 18:00:00" }, "geometry": { "type": "Point", "coordinates": [ 173.600006, 6.2 ] } },
{ "type": "Feature", "properties": { "ID": 26402, "LAT": 6.3, "LON": 172.4, "VMAX": 15.0, "MSLP": 1013.8515, "RMAX": 40.0, "FSPD": 5.11338, "FDIR": 269.99997, "RENV": 500.0, "PENV": 1012.0, "VALIDT": 0, "DTG": "2026-06-13 00:00", "LATNOW": 24.8, "LONNOW": 126.0, "WINDNOW": 50.0, "DIRNOW": 6.0, "SPDNOW": 1.0, "TECH": "TRAK", "ADVNR": 27, "ATCFID": "WP072026", "NAME": "MEKKHALA", "FTECH": "JTWC", "FCST_DTG": "2026-06-25 06:00:00", "RUN_DTG": "2026-06-25 08:34:18", "BASIN": "WP", "STMNR": 7, "CAT_ID": null, "CAT_DESC": null, "MSGID": "WTPN51 PGTW 250900", "VALIDTIME": "2026-06-13 00:00:00" }, "geometry": { "type": "Point", "coordinates": [ 172.399994, 6.3 ] } },
{ "type": "Feature", "properties": { "ID": 26403, "LAT": 6.3, "LON": 171.4, "VMAX": 15.0, "MSLP": 1013.8515, "RMAX": 40.0, "FSPD": 5.1387, "FDIR": 275.7456, "RENV": 500.0, "PENV": 1012.0, "VALIDT": 0, "DTG": "2026-06-13 06:00", "LATNOW": 24.8, "LONNOW": 126.0, "WINDNOW": 50.0, "DIRNOW": 6.0, "SPDNOW": 1.0, "TECH": "TRAK", "ADVNR": 27, "ATCFID": "WP072026", "NAME": "MEKKHALA", "FTECH": "JTWC", "FCST_DTG": "2026-06-25 06:00:00", "RUN_DTG": "2026-06-25 08:34:18", "BASIN": "WP", "STMNR": 7, "CAT_ID": null, "CAT_DESC": null, "MSGID": "WTPN51 PGTW 250900", "VALIDTIME": "2026-06-13 06:00:00" }, "geometry": { "type": "Point", "coordinates": [ 171.399994, 6.3 ] } },
{ "type": "Feature", "properties": { "ID": 26404, "LAT": 6.4, "LON": 170.4, "VMAX": 15.0, "MSLP": 1013.8515, "RMAX": 40.0, "FSPD": 6.8643, "FDIR": 296.72247, "RENV": 500.0, "PENV": 1012.0, "VALIDT": 0, "DTG": "2026-06-13 12:00", "LATNOW": 24.8, "LONNOW": 126.0, "WINDNOW": 50.0, "DIRNOW": 6.0, "SPDNOW": 1.0, "TECH": "TRAK", "ADVNR": 27, "ATCFID": "WP072026", "NAME": "MEKKHALA", "FTECH": "JTWC", "FCST_DTG": "2026-06-25 06:00:00", "RUN_DTG": "2026-06-25 08:34:18", "BASIN": "WP", "STMNR": 7, "CAT_ID": null, "CAT_DESC": null, "MSGID": "WTPN51 PGTW 250900", "VALIDTIME": "2026-06-13 12:00:00" }, "geometry": { "type": "Point", "coordinates": [ 170.399994, 6.4 ] } },
{ "type": "Feature", "properties": { "ID": 26405, "LAT": 7.0, "LON": 169.2, "VMAX": 15.0, "MSLP": 1013.8515, "RMAX": 40.0, "FSPD": 6.85726, "FDIR": 296.75208, "RENV": 500.0, "PENV": 1012.0, "VALIDT": 0, "DTG": "2026-06-13 18:00", "LATNOW": 24.8, "LONNOW": 126.0, "WINDNOW": 50.0, "DIRNOW": 6.0, "SPDNOW": 1.0, "TECH": "TRAK", "ADVNR": 27, "ATCFID": "WP072026", "NAME": "MEKKHALA", "FTECH": "JTWC", "FCST_DTG": "2026-06-25 06:00:00", "RUN_DTG": "2026-06-25 08:34:18", "BASIN": "WP", "STMNR": 7, "CAT_ID": null, "CAT_DESC": null, "MSGID": "WTPN51 PGTW 250900", "VALIDTIME": "2026-06-13 18:00:00" }, "geometry": { "type": "Point", "coordinates": [ 169.199997, 7.0 ] } },
{ "type": "Feature", "properties": { "ID": 26406, "LAT": 7.6, "LON": 168.0, "VMAX": 15.0, "MSLP": 1013.8515, "RMAX": 40.0, "FSPD": 10.27148, "FDIR": 296.7926, "RENV": 500.0, "PENV": 1012.0, "VALIDT": 0, "DTG": "2026-06-14 00:00", "LATNOW": 24.8, "LONNOW": 126.0, "WINDNOW": 50.0, "DIRNOW": 6.0, "SPDNOW": 1.0, "TECH": "TRAK", "ADVNR": 27, "ATCFID": "WP072026", "NAME": "MEKKHALA", "FTECH": "JTWC", "FCST_DTG": "2026-06-25 06:00:00", "RUN_DTG": "2026-06-25 08:34:18", "BASIN": "WP", "STMNR": 7, "CAT_ID": null, "CAT_DESC": null, "MSGID": "WTPN51 PGTW 250900", "VALIDTIME": "2026-06-14 00:00:00" }, "geometry": { "type": "Point", "coordinates": [ 168.0, 7.6 ] } },
{ "type": "Feature", "properties": { "ID": 26407, "LAT": 8.5, "LON": 166.2, "VMAX": 15.0, "MSLP": 1013.8515, "RMAX": 40.0, "FSPD": 10.62596, "FDIR": 286.8869, "RENV": 500.0, "PENV": 1012.0, "VALIDT": 0, "DTG": "2026-06-14 06:00", "LATNOW": 24.8, "LONNOW": 126.0, "WINDNOW": 50.0, "DIRNOW": 6.0, "SPDNOW": 1.0, "TECH": "TRAK", "ADVNR": 27, "ATCFID": "WP072026", "NAME": "MEKKHALA", "FTECH": "JTWC", "FCST_DTG": "2026-06-25 06:00:00", "RUN_DTG": "2026-06-25 08:34:18", "BASIN": "WP", "STMNR": 7, "CAT_ID": null, "CAT_DESC": null, "MSGID": "WTPN51 PGTW 250900", "VALIDTIME": "2026-06-14 06:00:00" }, "geometry": { "type": "Point", "coordinates": [ 166.199997, 8.5 ] } },
{ "type": "Feature", "properties": { "ID": 26408, "LAT": 9.1, "LON": 164.2, "VMAX": 15.0, "MSLP": 1013.8515, "RMAX": 40.0, "FSPD": 6.22253, "FDIR": 305.36063, "RENV": 500.0, "PENV": 1012.0, "VALIDT": 0, "DTG": "2026-06-14 12:00", "LATNOW": 24.8, "LONNOW": 126.0, "WINDNOW": 50.0, "DIRNOW": 6.0, "SPDNOW": 1.0, "TECH": "TRAK", "ADVNR": 27, "ATCFID": "WP072026", "NAME": "MEKKHALA", "FTECH": "JTWC", "FCST_DTG": "2026-06-25 06:00:00", "RUN_DTG": "2026-06-25 08:34:18", "BASIN": "WP", "STMNR": 7, "CAT_ID": null, "CAT_DESC": null, "MSGID": "WTPN51 PGTW 250900", "VALIDTIME": "2026-06-14 12:00:00" }, "geometry": { "type": "Point", "coordinates": [ 164.199997, 9.1 ] } },
{ "type": "Feature", "properties": { "ID": 26409, "LAT": 9.8, "LON": 163.2, "VMAX": 15.0, "MSLP": 1013.8515, "RMAX": 40.0, "FSPD": 6.90017, "FDIR": 287.35077, "RENV": 500.0, "PENV": 1012.0, "VALIDT": 0, "DTG": "2026-06-14 18:00", "LATNOW": 24.8, "LONNOW": 126.0, "WINDNOW": 50.0, "DIRNOW": 6.0, "SPDNOW": 1.0, "TECH": "TRAK", "ADVNR": 27, "ATCFID": "WP072026", "NAME": "MEKKHALA", "FTECH": "JTWC", "FCST_DTG": "2026-06-25 06:00:00", "RUN_DTG": "2026-06-25 08:34:18", "BASIN": "WP", "STMNR": 7, "CAT_ID": null, "CAT_DESC": null, "MSGID": "WTPN51 PGTW 250900", "VALIDTIME": "2026-06-14 18:00:00" }, "geometry": { "type": "Point", "coordinates": [ 163.199997, 9.8 ] } },
{ "type": "Feature", "properties": { "ID": 26410, "LAT": 10.2, "LON": 161.9, "VMAX": 15.0, "MSLP": 1013.8515, "RMAX": 40.0, "FSPD": 7.16043, "FDIR": 278.26144, "RENV": 500.0, "PENV": 1012.0, "VALIDT": 0, "DTG": "2026-06-15 00:00", "LATNOW": 24.8, "LONNOW": 126.0, "WINDNOW": 50.0, "DIRNOW": 6.0, "SPDNOW": 1.0, "TECH": "TRAK", "ADVNR": 27, "ATCFID": "WP072026", "NAME": "MEKKHALA", "FTECH": "JTWC", "FCST_DTG": "2026-06-25 06:00:00", "RUN_DTG": "2026-06-25 08:34:18", "BASIN": "WP", "STMNR": 7, "CAT_ID": null, "CAT_DESC": null, "MSGID": "WTPN51 PGTW 250900", "VALIDTIME": "2026-06-15 00:00:00" }, "geometry": { "type": "Point", "coordinates": [ 161.899994, 10.2 ] } },
{ "type": "Feature", "properties": { "ID": 26411, "LAT": 10.4, "LON": 160.5, "VMAX": 15.0, "MSLP": 1013.8515, "RMAX": 40.0, "FSPD": 7.74162, "FDIR": 281.49927, "RENV": 500.0, "PENV": 1012.0, "VALIDT": 0, "DTG": "2026-06-15 06:00", "LATNOW": 24.8, "LONNOW": 126.0, "WINDNOW": 50.0, "DIRNOW": 6.0, "SPDNOW": 1.0, "TECH": "TRAK", "ADVNR": 27, "ATCFID": "WP072026", "NAME": "MEKKHALA", "FTECH": "JTWC", "FCST_DTG": "2026-06-25 06:00:00", "RUN_DTG": "2026-06-25 08:34:18", "BASIN": "WP", "STMNR": 7, "CAT_ID": null, "CAT_DESC": null, "MSGID": "WTPN51 PGTW 250900", "VALIDTIME": "2026-06-15 06:00:00" }, "geometry": { "type": "Point", "coordinates": [ 160.5, 10.4 ] } },
{ "type": "Feature", "properties": { "ID": 26412, "LAT": 10.7, "LON": 159.0, "VMAX": 15.0, "MSLP": 1013.8515, "RMAX": 40.0, "FSPD": 5.16027, "FDIR": 258.4989, "RENV": 500.0, "PENV": 1012.0, "VALIDT": 0, "DTG": "2026-06-15 12:00", "LATNOW": 24.8, "LONNOW": 126.0, "WINDNOW": 50.0, "DIRNOW": 6.0, "SPDNOW": 1.0, "TECH": "TRAK", "ADVNR": 27, "ATCFID": "WP072026", "NAME": "MEKKHALA", "FTECH": "JTWC", "FCST_DTG": "2026-06-25 06:00:00", "RUN_DTG": "2026-06-25 08:34:18", "BASIN": "WP", "STMNR": 7, "CAT_ID": null, "CAT_DESC": null, "MSGID": "WTPN51 PGTW 250900", "VALIDTIME": "2026-06-15 12:00:00" }, "geometry": { "type": "Point", "coordinates": [ 159.0, 10.7 ] } },
{ "type": "Feature", "properties": { "ID": 26413, "LAT": 10.5, "LON": 158.0, "VMAX": 15.0, "MSLP": 1013.8515, "RMAX": 40.0, "FSPD": 6.6537, "FDIR": 278.89554, "RENV": 500.0, "PENV": 1012.0, "VALIDT": 0, "DTG": "2026-06-15 18:00", "LATNOW": 24.8, "LONNOW": 126.0, "WINDNOW": 50.0, "DIRNOW": 6.0, "SPDNOW": 1.0, "TECH": "TRAK", "ADVNR": 27, "ATCFID": "WP072026", "NAME": "MEKKHALA", "FTECH": "JTWC", "FCST_DTG": "2026-06-25 06:00:00", "RUN_DTG": "2026-06-25 08:34:18", "BASIN": "WP", "STMNR": 7, "CAT_ID": null, "CAT_DESC": null, "MSGID": "WTPN51 PGTW 250900", "VALIDTIME": "2026-06-15 18:00:00" }, "geometry": { "type": "Point", "coordinates": [ 158.0, 10.5 ] } },
{ "type": "Feature", "properties": { "ID": 26414, "LAT": 10.7, "LON": 156.7, "VMAX": 15.0, "MSLP": 1013.8515, "RMAX": 40.0, "FSPD": 6.08676, "FDIR": 274.84833, "RENV": 500.0, "PENV": 1012.0, "VALIDT": 0, "DTG": "2026-06-16 00:00", "LATNOW": 24.8, "LONNOW": 126.0, "WINDNOW": 50.0, "DIRNOW": 6.0, "SPDNOW": 1.0, "TECH": "TRAK", "ADVNR": 27, "ATCFID": "WP072026", "NAME": "MEKKHALA", "FTECH": "JTWC", "FCST_DTG": "2026-06-25 06:00:00", "RUN_DTG": "2026-06-25 08:34:18", "BASIN": "WP", "STMNR": 7, "CAT_ID": null, "CAT_DESC": null, "MSGID": "WTPN51 PGTW 250900", "VALIDTIME": "2026-06-16 00:00:00" }, "geometry": { "type": "Point", "coordinates": [ 156.699997, 10.7 ] } },
{ "type": "Feature", "properties": { "ID": 26415, "LAT": 10.8, "LON": 155.5, "VMAX": 20.0, "MSLP": 1012.95825, "RMAX": 45.0, "FSPD": 6.58835, "FDIR": 274.4784, "RENV": 500.0, "PENV": 1012.0, "VALIDT": 0, "DTG": "2026-06-16 06:00", "LATNOW": 24.8, "LONNOW": 126.0, "WINDNOW": 50.0, "DIRNOW": 6.0, "SPDNOW": 1.0, "TECH": "TRAK", "ADVNR": 27, "ATCFID": "WP072026", "NAME": "MEKKHALA", "FTECH": "JTWC", "FCST_DTG": "2026-06-25 06:00:00", "RUN_DTG": "2026-06-25 08:34:18", "BASIN": "WP", "STMNR": 7, "CAT_ID": null, "CAT_DESC": null, "MSGID": "WTPN51 PGTW 250900", "VALIDTIME": "2026-06-16 06:00:00" }, "geometry": { "type": "Point", "coordinates": [ 155.5, 10.8 ] } },
{ "type": "Feature", "properties": { "ID": 26416, "LAT": 10.9, "LON": 154.2, "VMAX": 20.0, "MSLP": 1012.95825, "RMAX": 45.0, "FSPD": 7.14434, "FDIR": 278.2802, "RENV": 500.0, "PENV": 1012.0, "VALIDT": 0, "DTG": "2026-06-16 12:00", "LATNOW": 24.8, "LONNOW": 126.0, "WINDNOW": 50.0, "DIRNOW": 6.0, "SPDNOW": 1.0, "TECH": "TRAK", "ADVNR": 27, "ATCFID": "WP072026", "NAME": "MEKKHALA", "FTECH": "JTWC", "FCST_DTG": "2026-06-25 06:00:00", "RUN_DTG": "2026-06-25 08:34:18", "BASIN": "WP", "STMNR": 7, "CAT_ID": null, "CAT_DESC": null, "MSGID": "WTPN51 PGTW 250900", "VALIDTIME": "2026-06-16 12:00:00" }, "geometry": { "type": "Point", "coordinates": [ 154.199997, 10.9 ] } },
{ "type": "Feature", "properties": { "ID": 26417, "LAT": 11.1, "LON": 152.8, "VMAX": 20.0, "MSLP": 1012.95825, "RMAX": 45.0, "FSPD": 6.79326, "FDIR": 297.02448, "RENV": 500.0, "PENV": 1012.0, "VALIDT": 0, "DTG": "2026-06-16 18:00", "LATNOW": 24.8, "LONNOW": 126.0, "WINDNOW": 50.0, "DIRNOW": 6.0, "SPDNOW": 1.0, "TECH": "TRAK", "ADVNR": 27, "ATCFID": "WP072026", "NAME": "MEKKHALA", "FTECH": "JTWC", "FCST_DTG": "2026-06-25 06:00:00", "RUN_DTG": "2026-06-25 08:34:18", "BASIN": "WP", "STMNR": 7, "CAT_ID": null, "CAT_DESC": null, "MSGID": "WTPN51 PGTW 250900", "VALIDTIME": "2026-06-16 18:00:00" }, "geometry": { "type": "Point", "coordinates": [ 152.800003, 11.1 ] } },
{ "type": "Feature", "properties": { "ID": 26418, "LAT": 11.7, "LON": 151.6, "VMAX": 20.0, "MSLP": 1012.95825, "RMAX": 45.0, "FSPD": 5.63408, "FDIR": 280.5223, "RENV": 500.0, "PENV": 1012.0, "VALIDT": 0, "DTG": "2026-06-17 00:00", "LATNOW": 24.8, "LONNOW": 126.0, "WINDNOW": 50.0, "DIRNOW": 6.0, "SPDNOW": 1.0, "TECH": "TRAK", "ADVNR": 27, "ATCFID": "WP072026", "NAME": "MEKKHALA", "FTECH": "JTWC", "FCST_DTG": "2026-06-25 06:00:00", "RUN_DTG": "2026-06-25 08:34:18", "BASIN": "WP", "STMNR": 7, "CAT_ID": null, "CAT_DESC": null, "MSGID": "WTPN51 PGTW 250900", "VALIDTIME": "2026-06-17 00:00:00" }, "geometry": { "type": "Point", "coordinates": [ 151.600006, 11.7 ] } },
{ "type": "Feature", "properties": { "ID": 26419, "LAT": 11.9, "LON": 150.5, "VMAX": 20.0, "MSLP": 1012.95825, "RMAX": 45.0, "FSPD": 5.56013, "FDIR": 275.3088, "RENV": 500.0, "PENV": 1012.0, "VALIDT": 0, "DTG": "2026-06-17 06:00", "LATNOW": 24.8, "LONNOW": 126.0, "WINDNOW": 50.0, "DIRNOW": 6.0, "SPDNOW": 1.0, "TECH": "TRAK", "ADVNR": 27, "ATCFID": "WP072026", "NAME": "MEKKHALA", "FTECH": "JTWC", "FCST_DTG": "2026-06-25 06:00:00", "RUN_DTG": "2026-06-25 08:34:18", "BASIN": "WP", "STMNR": 7, "CAT_ID": null, "CAT_DESC": null, "MSGID": "WTPN51 PGTW 250900", "VALIDTIME": "2026-06-17 06:00:00" }, "geometry": { "type": "Point", "coordinates": [ 150.5, 11.9 ] } },
{ "type": "Feature", "properties": { "ID": 26420, "LAT": 12.0, "LON": 149.4, "VMAX": 15.0, "MSLP": 1013.8515, "RMAX": 40.0, "FSPD": 5.53518, "FDIR": 269.99997, "RENV": 500.0, "PENV": 1012.0, "VALIDT": 0, "DTG": "2026-06-17 12:00", "LATNOW": 24.8, "LONNOW": 126.0, "WINDNOW": 50.0, "DIRNOW": 6.0, "SPDNOW": 1.0, "TECH": "TRAK", "ADVNR": 27, "ATCFID": "WP072026", "NAME": "MEKKHALA", "FTECH": "JTWC", "FCST_DTG": "2026-06-25 06:00:00", "RUN_DTG": "2026-06-25 08:34:18", "BASIN": "WP", "STMNR": 7, "CAT_ID": null, "CAT_DESC": null, "MSGID": "WTPN51 PGTW 250900", "VALIDTIME": "2026-06-17 12:00:00" }, "geometry": { "type": "Point", "coordinates": [ 149.399994, 12.0 ] } },
{ "type": "Feature", "properties": { "ID": 26421, "LAT": 12.0, "LON": 148.3, "VMAX": 15.0, "MSLP": 1013.8515, "RMAX": 40.0, "FSPD": 3.01925, "FDIR": 269.99997, "RENV": 500.0, "PENV": 1012.0, "VALIDT": 0, "DTG": "2026-06-17 18:00", "LATNOW": 24.8, "LONNOW": 126.0, "WINDNOW": 50.0, "DIRNOW": 6.0, "SPDNOW": 1.0, "TECH": "TRAK", "ADVNR": 27, "ATCFID": "WP072026", "NAME": "MEKKHALA", "FTECH": "JTWC", "FCST_DTG": "2026-06-25 06:00:00", "RUN_DTG": "2026-06-25 08:34:18", "BASIN": "WP", "STMNR": 7, "CAT_ID": null, "CAT_DESC": null, "MSGID": "WTPN51 PGTW 250900", "VALIDTIME": "2026-06-17 18:00:00" }, "geometry": { "type": "Point", "coordinates": [ 148.300003, 12.0 ] } },
{ "type": "Feature", "properties": { "ID": 26422, "LAT": 12.0, "LON": 147.7, "VMAX": 20.0, "MSLP": 1012.95825, "RMAX": 45.0, "FSPD": 4.52879, "FDIR": 269.99997, "RENV": 500.0, "PENV": 1012.0, "VALIDT": 0, "DTG": "2026-06-18 00:00", "LATNOW": 24.8, "LONNOW": 126.0, "WINDNOW": 50.0, "DIRNOW": 6.0, "SPDNOW": 1.0, "TECH": "TRAK", "ADVNR": 27, "ATCFID": "WP072026", "NAME": "MEKKHALA", "FTECH": "JTWC", "FCST_DTG": "2026-06-25 06:00:00", "RUN_DTG": "2026-06-25 08:34:18", "BASIN": "WP", "STMNR": 7, "CAT_ID": null, "CAT_DESC": null, "MSGID": "WTPN51 PGTW 250900", "VALIDTIME": "2026-06-18 00:00:00" }, "geometry": { "type": "Point", "coordinates": [ 147.699997, 12.0 ] } },
{ "type": "Feature", "properties": { "ID": 26423, "LAT": 12.0, "LON": 146.8, "VMAX": 20.0, "MSLP": 1012.95825, "RMAX": 45.0, "FSPD": 4.05763, "FDIR": 277.2838, "RENV": 500.0, "PENV": 1012.0, "VALIDT": 0, "DTG": "2026-06-18 06:00", "LATNOW": 24.8, "LONNOW": 126.0, "WINDNOW": 50.0, "DIRNOW": 6.0, "SPDNOW": 1.0, "TECH": "TRAK", "ADVNR": 27, "ATCFID": "WP072026", "NAME": "MEKKHALA", "FTECH": "JTWC", "FCST_DTG": "2026-06-25 06:00:00", "RUN_DTG": "2026-06-25 08:34:18", "BASIN": "WP", "STMNR": 7, "CAT_ID": null, "CAT_DESC": null, "MSGID": "WTPN51 PGTW 250900", "VALIDTIME": "2026-06-18 06:00:00" }, "geometry": { "type": "Point", "coordinates": [ 146.800003, 12.0 ] } },
{ "type": "Feature", "properties": { "ID": 26424, "LAT": 12.1, "LON": 146.0, "VMAX": 25.0, "MSLP": 1011.80975, "RMAX": 45.0, "FSPD": 4.5554, "FDIR": 276.48422, "RENV": 500.0, "PENV": 1012.0, "VALIDT": 0, "DTG": "2026-06-18 12:00", "LATNOW": 24.8, "LONNOW": 126.0, "WINDNOW": 50.0, "DIRNOW": 6.0, "SPDNOW": 1.0, "TECH": "TRAK", "ADVNR": 27, "ATCFID": "WP072026", "NAME": "MEKKHALA", "FTECH": "JTWC", "FCST_DTG": "2026-06-25 06:00:00", "RUN_DTG": "2026-06-25 08:34:18", "BASIN": "WP", "STMNR": 7, "CAT_ID": null, "CAT_DESC": null, "MSGID": "WTPN51 PGTW 250900", "VALIDTIME": "2026-06-18 12:00:00" }, "geometry": { "type": "Point", "coordinates": [ 146.0, 12.1 ] } },
{ "type": "Feature", "properties": { "ID": 26425, "LAT": 12.2, "LON": 145.1, "VMAX": 30.0, "MSLP": 1004.0, "RMAX": 60.0, "FSPD": 10.66916, "FDIR": 289.72614, "RENV": 180.0, "PENV": 1008.0, "VALIDT": 0, "DTG": "2026-06-18 18:00", "LATNOW": 24.8, "LONNOW": 126.0, "WINDNOW": 50.0, "DIRNOW": 6.0, "SPDNOW": 1.0, "TECH": "TRAK", "ADVNR": 27, "ATCFID": "WP072026", "NAME": "MEKKHALA", "FTECH": "JTWC", "FCST_DTG": "2026-06-25 06:00:00", "RUN_DTG": "2026-06-25 08:34:18", "BASIN": "WP", "STMNR": 7, "CAT_ID": null, "CAT_DESC": null, "MSGID": "WTPN51 PGTW 250900", "VALIDTIME": "2026-06-18 18:00:00" }, "geometry": { "type": "Point", "coordinates": [ 145.100006, 12.2 ] } },
{ "type": "Feature", "properties": { "ID": 26426, "LAT": 12.9, "LON": 143.1, "VMAX": 30.0, "MSLP": 1004.0, "RMAX": 60.0, "FSPD": 6.83106, "FDIR": 287.532, "RENV": 180.0, "PENV": 1008.0, "VALIDT": 0, "DTG": "2026-06-19 00:00", "LATNOW": 24.8, "LONNOW": 126.0, "WINDNOW": 50.0, "DIRNOW": 6.0, "SPDNOW": 1.0, "TECH": "TRAK", "ADVNR": 27, "ATCFID": "WP072026", "NAME": "MEKKHALA", "FTECH": "JTWC", "FCST_DTG": "2026-06-25 06:00:00", "RUN_DTG": "2026-06-25 08:34:18", "BASIN": "WP", "STMNR": 7, "CAT_ID": null, "CAT_DESC": null, "MSGID": "WTPN51 PGTW 250900", "VALIDTIME": "2026-06-19 00:00:00" }, "geometry": { "type": "Point", "coordinates": [ 143.100006, 12.9 ] } },
{ "type": "Feature", "properties": { "ID": 26427, "LAT": 13.3, "LON": 141.8, "VMAX": 30.0, "MSLP": 1005.0, "RMAX": 60.0, "FSPD": 8.26401, "FDIR": 284.41858, "RENV": 180.0, "PENV": 1009.0, "VALIDT": 0, "DTG": "2026-06-19 06:00", "LATNOW": 24.8, "LONNOW": 126.0, "WINDNOW": 50.0, "DIRNOW": 6.0, "SPDNOW": 1.0, "TECH": "TRAK", "ADVNR": 27, "ATCFID": "WP072026", "NAME": "MEKKHALA", "FTECH": "JTWC", "FCST_DTG": "2026-06-25 06:00:00", "RUN_DTG": "2026-06-25 08:34:18", "BASIN": "WP", "STMNR": 7, "CAT_ID": null, "CAT_DESC": null, "MSGID": "WTPN51 PGTW 250900", "VALIDTIME": "2026-06-19 06:00:00" }, "geometry": { "type": "Point", "coordinates": [ 141.800003, 13.3 ] } },
{ "type": "Feature", "properties": { "ID": 26428, "LAT": 13.7, "LON": 140.2, "VMAX": 35.0, "MSLP": 1003.0, "RMAX": 50.0, "FSPD": 8.13941, "FDIR": 280.93015, "RENV": 190.0, "PENV": 1008.0, "VALIDT": 0, "DTG": "2026-06-19 12:00", "LATNOW": 24.8, "LONNOW": 126.0, "WINDNOW": 50.0, "DIRNOW": 6.0, "SPDNOW": 1.0, "TECH": "TRAK", "ADVNR": 27, "ATCFID": "WP072026", "NAME": "MEKKHALA", "FTECH": "JTWC", "FCST_DTG": "2026-06-25 06:00:00", "RUN_DTG": "2026-06-25 08:34:18", "BASIN": "WP", "STMNR": 7, "CAT_ID": null, "CAT_DESC": null, "MSGID": "WTPN51 PGTW 250900", "VALIDTIME": "2026-06-19 12:00:00" }, "geometry": { "type": "Point", "coordinates": [ 140.199997, 13.7 ] } },
{ "type": "Feature", "properties": { "ID": 26429, "LAT": 14.0, "LON": 138.6, "VMAX": 40.0, "MSLP": 1002.0, "RMAX": 30.0, "FSPD": 4.12205, "FDIR": 284.45416, "RENV": 190.0, "PENV": 1009.0, "VALIDT": 0, "DTG": "2026-06-19 18:00", "LATNOW": 24.8, "LONNOW": 126.0, "WINDNOW": 50.0, "DIRNOW": 6.0, "SPDNOW": 1.0, "TECH": "TRAK", "ADVNR": 27, "ATCFID": "WP072026", "NAME": "MEKKHALA", "FTECH": "JTWC", "FCST_DTG": "2026-06-25 06:00:00", "RUN_DTG": "2026-06-25 08:34:18", "BASIN": "WP", "STMNR": 7, "CAT_ID": null, "CAT_DESC": null, "MSGID": "WTPN51 PGTW 250900", "VALIDTIME": "2026-06-19 18:00:00" }, "geometry": { "type": "Point", "coordinates": [ 138.600006, 14.0 ] } },
{ "type": "Feature", "properties": { "ID": 26430, "LAT": 14.2, "LON": 137.8, "VMAX": 45.0, "MSLP": 1000.0, "RMAX": 40.0, "FSPD": 5.01481, "FDIR": 264.11194, "RENV": 110.0, "PENV": 1007.0, "VALIDT": 0, "DTG": "2026-06-20 00:00", "LATNOW": 24.8, "LONNOW": 126.0, "WINDNOW": 50.0, "DIRNOW": 6.0, "SPDNOW": 1.0, "TECH": "TRAK", "ADVNR": 27, "ATCFID": "WP072026", "NAME": "MEKKHALA", "FTECH": "JTWC", "FCST_DTG": "2026-06-25 06:00:00", "RUN_DTG": "2026-06-25 08:34:18", "BASIN": "WP", "STMNR": 7, "CAT_ID": null, "CAT_DESC": null, "MSGID": "WTPN51 PGTW 250900", "VALIDTIME": "2026-06-20 00:00:00" }, "geometry": { "type": "Point", "coordinates": [ 137.800003, 14.2 ] } },
{ "type": "Feature", "properties": { "ID": 26431, "LAT": 14.1, "LON": 136.8, "VMAX": 45.0, "MSLP": 997.0, "RMAX": 40.0, "FSPD": 7.05761, "FDIR": 278.3827, "RENV": 110.0, "PENV": 1007.0, "VALIDT": 0, "DTG": "2026-06-20 06:00", "LATNOW": 24.8, "LONNOW": 126.0, "WINDNOW": 50.0, "DIRNOW": 6.0, "SPDNOW": 1.0, "TECH": "TRAK", "ADVNR": 27, "ATCFID": "WP072026", "NAME": "MEKKHALA", "FTECH": "JTWC", "FCST_DTG": "2026-06-25 06:00:00", "RUN_DTG": "2026-06-25 08:34:18", "BASIN": "WP", "STMNR": 7, "CAT_ID": null, "CAT_DESC": null, "MSGID": "WTPN51 PGTW 250900", "VALIDTIME": "2026-06-20 06:00:00" }, "geometry": { "type": "Point", "coordinates": [ 136.800003, 14.1 ] } },
{ "type": "Feature", "properties": { "ID": 26432, "LAT": 14.3, "LON": 135.4, "VMAX": 50.0, "MSLP": 997.0, "RMAX": 40.0, "FSPD": 6.32101, "FDIR": 288.9986, "RENV": 150.0, "PENV": 1007.0, "VALIDT": 0, "DTG": "2026-06-20 12:00", "LATNOW": 24.8, "LONNOW": 126.0, "WINDNOW": 50.0, "DIRNOW": 6.0, "SPDNOW": 1.0, "TECH": "TRAK", "ADVNR": 27, "ATCFID": "WP072026", "NAME": "MEKKHALA", "FTECH": "JTWC", "FCST_DTG": "2026-06-25 06:00:00", "RUN_DTG": "2026-06-25 08:34:18", "BASIN": "WP", "STMNR": 7, "CAT_ID": null, "CAT_DESC": null, "MSGID": "WTPN51 PGTW 250900", "VALIDTIME": "2026-06-20 12:00:00" }, "geometry": { "type": "Point", "coordinates": [ 135.399994, 14.3 ] } },
{ "type": "Feature", "properties": { "ID": 26433, "LAT": 14.7, "LON": 134.2, "VMAX": 55.0, "MSLP": 995.0, "RMAX": 35.0, "FSPD": 6.13587, "FDIR": 305.93695, "RENV": 150.0, "PENV": 1008.0, "VALIDT": 0, "DTG": "2026-06-20 18:00", "LATNOW": 24.8, "LONNOW": 126.0, "WINDNOW": 50.0, "DIRNOW": 6.0, "SPDNOW": 1.0, "TECH": "TRAK", "ADVNR": 27, "ATCFID": "WP072026", "NAME": "MEKKHALA", "FTECH": "JTWC", "FCST_DTG": "2026-06-25 06:00:00", "RUN_DTG": "2026-06-25 08:34:18", "BASIN": "WP", "STMNR": 7, "CAT_ID": null, "CAT_DESC": null, "MSGID": "WTPN51 PGTW 250900", "VALIDTIME": "2026-06-20 18:00:00" }, "geometry": { "type": "Point", "coordinates": [ 134.199997, 14.7 ] } },
{ "type": "Feature", "properties": { "ID": 26434, "LAT": 15.4, "LON": 133.2, "VMAX": 55.0, "MSLP": 993.0, "RMAX": 30.0, "FSPD": 7.37558, "FDIR": 299.22552, "RENV": 180.0, "PENV": 1008.0, "VALIDT": 0, "DTG": "2026-06-21 00:00", "LATNOW": 24.8, "LONNOW": 126.0, "WINDNOW": 50.0, "DIRNOW": 6.0, "SPDNOW": 1.0, "TECH": "TRAK", "ADVNR": 27, "ATCFID": "WP072026", "NAME": "MEKKHALA", "FTECH": "JTWC", "FCST_DTG": "2026-06-25 06:00:00", "RUN_DTG": "2026-06-25 08:34:18", "BASIN": "WP", "STMNR": 7, "CAT_ID": null, "CAT_DESC": null, "MSGID": "WTPN51 PGTW 250900", "VALIDTIME": "2026-06-21 00:00:00" }, "geometry": { "type": "Point", "coordinates": [ 133.199997, 15.4 ] } },
{ "type": "Feature", "properties": { "ID": 26435, "LAT": 16.1, "LON": 131.9, "VMAX": 65.0, "MSLP": 993.0, "RMAX": 25.0, "FSPD": 6.74068, "FDIR": 287.77484, "RENV": 180.0, "PENV": 1008.0, "VALIDT": 0, "DTG": "2026-06-21 06:00", "LATNOW": 24.8, "LONNOW": 126.0, "WINDNOW": 50.0, "DIRNOW": 6.0, "SPDNOW": 1.0, "TECH": "TRAK", "ADVNR": 27, "ATCFID": "WP072026", "NAME": "MEKKHALA", "FTECH": "JTWC", "FCST_DTG": "2026-06-25 06:00:00", "RUN_DTG": "2026-06-25 08:34:18", "BASIN": "WP", "STMNR": 7, "CAT_ID": null, "CAT_DESC": null, "MSGID": "WTPN51 PGTW 250900", "VALIDTIME": "2026-06-21 06:00:00" }, "geometry": { "type": "Point", "coordinates": [ 131.899994, 16.1 ] } },
{ "type": "Feature", "properties": { "ID": 26436, "LAT": 16.5, "LON": 130.6, "VMAX": 75.0, "MSLP": 988.0, "RMAX": 20.0, "FSPD": 9.32523, "FDIR": 296.1891, "RENV": 180.0, "PENV": 1008.0, "VALIDT": 0, "DTG": "2026-06-21 12:00", "LATNOW": 24.8, "LONNOW": 126.0, "WINDNOW": 50.0, "DIRNOW": 6.0, "SPDNOW": 1.0, "TECH": "TRAK", "ADVNR": 27, "ATCFID": "WP072026", "NAME": "MEKKHALA", "FTECH": "JTWC", "FCST_DTG": "2026-06-25 06:00:00", "RUN_DTG": "2026-06-25 08:34:18", "BASIN": "WP", "STMNR": 7, "CAT_ID": null, "CAT_DESC": null, "MSGID": "WTPN51 PGTW 250900", "VALIDTIME": "2026-06-21 12:00:00" }, "geometry": { "type": "Point", "coordinates": [ 130.600006, 16.5 ] } },
{ "type": "Feature", "properties": { "ID": 26437, "LAT": 17.3, "LON": 128.9, "VMAX": 80.0, "MSLP": 981.0, "RMAX": 30.0, "FSPD": 5.42581, "FDIR": 275.4406, "RENV": 180.0, "PENV": 1008.0, "VALIDT": 0, "DTG": "2026-06-21 18:00", "LATNOW": 24.8, "LONNOW": 126.0, "WINDNOW": 50.0, "DIRNOW": 6.0, "SPDNOW": 1.0, "TECH": "TRAK", "ADVNR": 27, "ATCFID": "WP072026", "NAME": "MEKKHALA", "FTECH": "JTWC", "FCST_DTG": "2026-06-25 06:00:00", "RUN_DTG": "2026-06-25 08:34:18", "BASIN": "WP", "STMNR": 7, "CAT_ID": null, "CAT_DESC": null, "MSGID": "WTPN51 PGTW 250900", "VALIDTIME": "2026-06-21 18:00:00" }, "geometry": { "type": "Point", "coordinates": [ 128.899994, 17.299999 ] } },
{ "type": "Feature", "properties": { "ID": 26438, "LAT": 17.4, "LON": 127.8, "VMAX": 100.0, "MSLP": 976.0, "RMAX": 10.0, "FSPD": 5.10711, "FDIR": 300.2421, "RENV": 180.0, "PENV": 1006.0, "VALIDT": 0, "DTG": "2026-06-22 00:00", "LATNOW": 24.8, "LONNOW": 126.0, "WINDNOW": 50.0, "DIRNOW": 6.0, "SPDNOW": 1.0, "TECH": "TRAK", "ADVNR": 27, "ATCFID": "WP072026", "NAME": "MEKKHALA", "FTECH": "JTWC", "FCST_DTG": "2026-06-25 06:00:00", "RUN_DTG": "2026-06-25 08:34:18", "BASIN": "WP", "STMNR": 7, "CAT_ID": null, "CAT_DESC": null, "MSGID": "WTPN51 PGTW 250900", "VALIDTIME": "2026-06-22 00:00:00" }, "geometry": { "type": "Point", "coordinates": [ 127.800003, 17.4 ] } },
{ "type": "Feature", "properties": { "ID": 26439, "LAT": 17.9, "LON": 126.9, "VMAX": 115.0, "MSLP": 961.0, "RMAX": 10.0, "FSPD": 4.04711, "FDIR": 284.72787, "RENV": 210.0, "PENV": 1006.0, "VALIDT": 0, "DTG": "2026-06-22 06:00", "LATNOW": 24.8, "LONNOW": 126.0, "WINDNOW": 50.0, "DIRNOW": 6.0, "SPDNOW": 1.0, "TECH": "TRAK", "ADVNR": 27, "ATCFID": "WP072026", "NAME": "MEKKHALA", "FTECH": "JTWC", "FCST_DTG": "2026-06-25 06:00:00", "RUN_DTG": "2026-06-25 08:34:18", "BASIN": "WP", "STMNR": 7, "CAT_ID": null, "CAT_DESC": null, "MSGID": "WTPN51 PGTW 250900", "VALIDTIME": "2026-06-22 06:00:00" }, "geometry": { "type": "Point", "coordinates": [ 126.900002, 17.9 ] } },
{ "type": "Feature", "properties": { "ID": 26440, "LAT": 18.1, "LON": 126.1, "VMAX": 125.0, "MSLP": 947.0, "RMAX": 12.0, "FSPD": 2.65132, "FDIR": 292.8341, "RENV": 220.0, "PENV": 1006.0, "VALIDT": 0, "DTG": "2026-06-22 12:00", "LATNOW": 24.8, "LONNOW": 126.0, "WINDNOW": 50.0, "DIRNOW": 6.0, "SPDNOW": 1.0, "TECH": "TRAK", "ADVNR": 27, "ATCFID": "WP072026", "NAME": "MEKKHALA", "FTECH": "JTWC", "FCST_DTG": "2026-06-25 06:00:00", "RUN_DTG": "2026-06-25 08:34:18", "BASIN": "WP", "STMNR": 7, "CAT_ID": null, "CAT_DESC": null, "MSGID": "WTPN51 PGTW 250900", "VALIDTIME": "2026-06-22 12:00:00" }, "geometry": { "type": "Point", "coordinates": [ 126.099998, 18.1 ] } },
{ "type": "Feature", "properties": { "ID": 26441, "LAT": 18.3, "LON": 125.6, "VMAX": 125.0, "MSLP": 937.0, "RMAX": 12.0, "FSPD": 3.65119, "FDIR": 327.71335, "RENV": 220.0, "PENV": 1006.0, "VALIDT": 0, "DTG": "2026-06-22 18:00", "LATNOW": 24.8, "LONNOW": 126.0, "WINDNOW": 50.0, "DIRNOW": 6.0, "SPDNOW": 1.0, "TECH": "TRAK", "ADVNR": 27, "ATCFID": "WP072026", "NAME": "MEKKHALA", "FTECH": "JTWC", "FCST_DTG": "2026-06-25 06:00:00", "RUN_DTG": "2026-06-25 08:34:18", "BASIN": "WP", "STMNR": 7, "CAT_ID": null, "CAT_DESC": null, "MSGID": "WTPN51 PGTW 250900", "VALIDTIME": "2026-06-22 18:00:00" }, "geometry": { "type": "Point", "coordinates": [ 125.599998, 18.299999 ] } },
{ "type": "Feature", "properties": { "ID": 26442, "LAT": 18.9, "LON": 125.2, "VMAX": 115.0, "MSLP": 934.0, "RMAX": 12.0, "FSPD": 2.20094, "FDIR": 297.8708, "RENV": 240.0, "PENV": 1004.0, "VALIDT": 0, "DTG": "2026-06-23 00:00", "LATNOW": 24.8, "LONNOW": 126.0, "WINDNOW": 50.0, "DIRNOW": 6.0, "SPDNOW": 1.0, "TECH": "TRAK", "ADVNR": 27, "ATCFID": "WP072026", "NAME": "MEKKHALA", "FTECH": "JTWC", "FCST_DTG": "2026-06-25 06:00:00", "RUN_DTG": "2026-06-25 08:34:18", "BASIN": "WP", "STMNR": 7, "CAT_ID": null, "CAT_DESC": null, "MSGID": "WTPN51 PGTW 250900", "VALIDTIME": "2026-06-23 00:00:00" }, "geometry": { "type": "Point", "coordinates": [ 125.199997, 18.9 ] } },
{ "type": "Feature", "properties": { "ID": 26443, "LAT": 19.1, "LON": 124.8, "VMAX": 110.0, "MSLP": 943.0, "RMAX": 12.0, "FSPD": 2.61762, "FDIR": 349.31317, "RENV": 240.0, "PENV": 1004.0, "VALIDT": 0, "DTG": "2026-06-23 06:00", "LATNOW": 24.8, "LONNOW": 126.0, "WINDNOW": 50.0, "DIRNOW": 6.0, "SPDNOW": 1.0, "TECH": "TRAK", "ADVNR": 27, "ATCFID": "WP072026", "NAME": "MEKKHALA", "FTECH": "JTWC", "FCST_DTG": "2026-06-25 06:00:00", "RUN_DTG": "2026-06-25 08:34:18", "BASIN": "WP", "STMNR": 7, "CAT_ID": null, "CAT_DESC": null, "MSGID": "WTPN51 PGTW 250900", "VALIDTIME": "2026-06-23 06:00:00" }, "geometry": { "type": "Point", "coordinates": [ 124.800003, 19.1 ] } },
{ "type": "Feature", "properties": { "ID": 26444, "LAT": 19.6, "LON": 124.7, "VMAX": 100.0, "MSLP": 946.0, "RMAX": 12.0, "FSPD": 3.12435, "FDIR": 8.90717, "RENV": 210.0, "PENV": 1004.0, "VALIDT": 0, "DTG": "2026-06-23 12:00", "LATNOW": 24.8, "LONNOW": 126.0, "WINDNOW": 50.0, "DIRNOW": 6.0, "SPDNOW": 1.0, "TECH": "TRAK", "ADVNR": 27, "ATCFID": "WP072026", "NAME": "MEKKHALA", "FTECH": "JTWC", "FCST_DTG": "2026-06-25 06:00:00", "RUN_DTG": "2026-06-25 08:34:18", "BASIN": "WP", "STMNR": 7, "CAT_ID": null, "CAT_DESC": null, "MSGID": "WTPN51 PGTW 250900", "VALIDTIME": "2026-06-23 12:00:00" }, "geometry": { "type": "Point", "coordinates": [ 124.699997, 19.6 ] } },
{ "type": "Feature", "properties": { "ID": 26445, "LAT": 20.2, "LON": 124.8, "VMAX": 85.0, "MSLP": 954.0, "RMAX": 15.0, "FSPD": 4.22674, "FDIR": 346.82864, "RENV": 190.0, "PENV": 1004.0, "VALIDT": 0, "DTG": "2026-06-23 18:00", "LATNOW": 24.8, "LONNOW": 126.0, "WINDNOW": 50.0, "DIRNOW": 6.0, "SPDNOW": 1.0, "TECH": "TRAK", "ADVNR": 27, "ATCFID": "WP072026", "NAME": "MEKKHALA", "FTECH": "JTWC", "FCST_DTG": "2026-06-25 06:00:00", "RUN_DTG": "2026-06-25 08:34:18", "BASIN": "WP", "STMNR": 7, "CAT_ID": null, "CAT_DESC": null, "MSGID": "WTPN51 PGTW 250900", "VALIDTIME": "2026-06-23 18:00:00" }, "geometry": { "type": "Point", "coordinates": [ 124.800003, 20.200001 ] } },
{ "type": "Feature", "properties": { "ID": 26446, "LAT": 21.0, "LON": 124.6, "VMAX": 75.0, "MSLP": 965.0, "RMAX": 15.0, "FSPD": 4.22557, "FDIR": 13.10336, "RENV": 165.0, "PENV": 1003.0, "VALIDT": 0, "DTG": "2026-06-24 00:00", "LATNOW": 24.8, "LONNOW": 126.0, "WINDNOW": 50.0, "DIRNOW": 6.0, "SPDNOW": 1.0, "TECH": "TRAK", "ADVNR": 27, "ATCFID": "WP072026", "NAME": "MEKKHALA", "FTECH": "JTWC", "FCST_DTG": "2026-06-25 06:00:00", "RUN_DTG": "2026-06-25 08:34:18", "BASIN": "WP", "STMNR": 7, "CAT_ID": null, "CAT_DESC": null, "MSGID": "WTPN51 PGTW 250900", "VALIDTIME": "2026-06-24 00:00:00" }, "geometry": { "type": "Point", "coordinates": [ 124.599998, 21.0 ] } },
{ "type": "Feature", "properties": { "ID": 26447, "LAT": 21.8, "LON": 124.8, "VMAX": 70.0, "MSLP": 974.0, "RMAX": 15.0, "FSPD": 1.54334, "FDIR": 360.0, "RENV": 185.0, "PENV": 1004.0, "VALIDT": 0, "DTG": "2026-06-24 06:00", "LATNOW": 24.8, "LONNOW": 126.0, "WINDNOW": 50.0, "DIRNOW": 6.0, "SPDNOW": 1.0, "TECH": "TRAK", "ADVNR": 27, "ATCFID": "WP072026", "NAME": "MEKKHALA", "FTECH": "JTWC", "FCST_DTG": "2026-06-25 06:00:00", "RUN_DTG": "2026-06-25 08:34:18", "BASIN": "WP", "STMNR": 7, "CAT_ID": null, "CAT_DESC": null, "MSGID": "WTPN51 PGTW 250900", "VALIDTIME": "2026-06-24 06:00:00" }, "geometry": { "type": "Point", "coordinates": [ 124.800003, 21.799999 ] } },
{ "type": "Feature", "properties": { "ID": 26448, "LAT": 22.1, "LON": 124.8, "VMAX": 65.0, "MSLP": 975.0, "RMAX": 20.0, "FSPD": 2.7426, "FDIR": 20.30173, "RENV": 170.0, "PENV": 1002.0, "VALIDT": 0, "DTG": "2026-06-24 12:00", "LATNOW": 24.8, "LONNOW": 126.0, "WINDNOW": 50.0, "DIRNOW": 6.0, "SPDNOW": 1.0, "TECH": "TRAK", "ADVNR": 27, "ATCFID": "WP072026", "NAME": "MEKKHALA", "FTECH": "JTWC", "FCST_DTG": "2026-06-25 06:00:00", "RUN_DTG": "2026-06-25 08:34:18", "BASIN": "WP", "STMNR": 7, "CAT_ID": null, "CAT_DESC": null, "MSGID": "WTPN51 PGTW 250900", "VALIDTIME": "2026-06-24 12:00:00" }, "geometry": { "type": "Point", "coordinates": [ 124.800003, 22.1 ] } },
{ "type": "Feature", "properties": { "ID": 26449, "LAT": 22.6, "LON": 125.0, "VMAX": 55.0, "MSLP": 978.0, "RMAX": 20.0, "FSPD": 5.83411, "FDIR": 14.07773, "RENV": 160.0, "PENV": 1003.0, "VALIDT": 0, "DTG": "2026-06-24 18:00", "LATNOW": 24.8, "LONNOW": 126.0, "WINDNOW": 50.0, "DIRNOW": 6.0, "SPDNOW": 1.0, "TECH": "TRAK", "ADVNR": 27, "ATCFID": "WP072026", "NAME": "MEKKHALA", "FTECH": "JTWC", "FCST_DTG": "2026-06-25 06:00:00", "RUN_DTG": "2026-06-25 08:34:18", "BASIN": "WP", "STMNR": 7, "CAT_ID": null, "CAT_DESC": null, "MSGID": "WTPN51 PGTW 250900", "VALIDTIME": "2026-06-24 18:00:00" }, "geometry": { "type": "Point", "coordinates": [ 125.0, 22.6 ] } },
{ "type": "Feature", "properties": { "ID": 26450, "LAT": 23.7, "LON": 125.3, "VMAX": 50.0, "MSLP": 983.0, "RMAX": 30.0, "FSPD": 6.54242, "FDIR": 30.12274, "RENV": 165.0, "PENV": 1002.0, "VALIDT": 0, "DTG": "2026-06-25 00:00", "LATNOW": 24.8, "LONNOW": 126.0, "WINDNOW": 50.0, "DIRNOW": 6.0, "SPDNOW": 1.0, "TECH": "TRAK", "ADVNR": 27, "ATCFID": "WP072026", "NAME": "MEKKHALA", "FTECH": "JTWC", "FCST_DTG": "2026-06-25 06:00:00", "RUN_DTG": "2026-06-25 08:34:18", "BASIN": "WP", "STMNR": 7, "CAT_ID": null, "CAT_DESC": null, "MSGID": "WTPN51 PGTW 250900", "VALIDTIME": "2026-06-25 00:00:00" }, "geometry": { "type": "Point", "coordinates": [ 125.300003, 23.700001 ] } },
{ "type": "Feature", "properties": { "ID": 26451, "LAT": 24.8, "LON": 126.0, "VMAX": 50.0, "MSLP": 1002.2391, "RMAX": 38.56918, "FSPD": 5.62265, "FDIR": 29.63382, "RENV": 500.0, "PENV": 1012.0, "VALIDT": 0, "DTG": "2026-06-25 06:00", "LATNOW": 24.8, "LONNOW": 126.0, "WINDNOW": 50.0, "DIRNOW": 6.0, "SPDNOW": 1.0, "TECH": "TRAK", "ADVNR": 27, "ATCFID": "WP072026", "NAME": "MEKKHALA", "FTECH": "JTWC", "FCST_DTG": "2026-06-25 06:00:00", "RUN_DTG": "2026-06-25 08:34:18", "BASIN": "WP", "STMNR": 7, "CAT_ID": null, "CAT_DESC": null, "MSGID": "WTPN51 PGTW 250900", "VALIDTIME": "2026-06-25 06:00:00" }, "geometry": { "type": "Point", "coordinates": [ 126.0, 24.799999 ] } },
{ "type": "Feature", "properties": { "ID": 26452, "LAT": 26.7, "LON": 127.2, "VMAX": 50.0, "MSLP": 1002.2391, "RMAX": 38.56918, "FSPD": 6.38007, "FDIR": 40.00269, "RENV": 250.0, "PENV": 1012.0, "VALIDT": 12, "DTG": "2026-06-25 18:00", "LATNOW": 24.8, "LONNOW": 126.0, "WINDNOW": 50.0, "DIRNOW": 6.0, "SPDNOW": 1.0, "TECH": "FCST", "ADVNR": 27, "ATCFID": "WP072026", "NAME": "MEKKHALA", "FTECH": "JTWC", "FCST_DTG": "2026-06-25 06:00:00", "RUN_DTG": "2026-06-25 08:34:18", "BASIN": "WP", "STMNR": 7, "CAT_ID": null, "CAT_DESC": null, "MSGID": "WTPN51 PGTW 250900", "VALIDTIME": "2026-06-25 18:00:00" }, "geometry": { "type": "Point", "coordinates": [ 127.199997, 26.700001 ] } },
{ "type": "Feature", "properties": { "ID": 26453, "LAT": 28.6, "LON": 129.0, "VMAX": 45.0, "MSLP": 1004.66364, "RMAX": 39.89946, "FSPD": 9.95701, "FDIR": 51.68396, "RENV": 250.0, "PENV": 1012.0, "VALIDT": 24, "DTG": "2026-06-26 06:00", "LATNOW": 24.8, "LONNOW": 126.0, "WINDNOW": 50.0, "DIRNOW": 6.0, "SPDNOW": 1.0, "TECH": "FCST", "ADVNR": 27, "ATCFID": "WP072026", "NAME": "MEKKHALA", "FTECH": "JTWC", "FCST_DTG": "2026-06-25 06:00:00", "RUN_DTG": "2026-06-25 08:34:18", "BASIN": "WP", "STMNR": 7, "CAT_ID": null, "CAT_DESC": null, "MSGID": "WTPN51 PGTW 250900", "VALIDTIME": "2026-06-26 06:00:00" }, "geometry": { "type": "Point", "coordinates": [ 129.0, 28.6 ] } },
{ "type": "Feature", "properties": { "ID": 26454, "LAT": 31.0, "LON": 132.5, "VMAX": 45.0, "MSLP": 1004.66364, "RMAX": 39.89946, "FSPD": 14.57577, "FDIR": 58.03387, "RENV": 250.0, "PENV": 1012.0, "VALIDT": 36, "DTG": "2026-06-26 18:00", "LATNOW": 24.8, "LONNOW": 126.0, "WINDNOW": 50.0, "DIRNOW": 6.0, "SPDNOW": 1.0, "TECH": "FCST", "ADVNR": 27, "ATCFID": "WP072026", "NAME": "MEKKHALA", "FTECH": "JTWC", "FCST_DTG": "2026-06-25 06:00:00", "RUN_DTG": "2026-06-25 08:34:18", "BASIN": "WP", "STMNR": 7, "CAT_ID": null, "CAT_DESC": null, "MSGID": "WTPN51 PGTW 250900", "VALIDTIME": "2026-06-26 18:00:00" }, "geometry": { "type": "Point", "coordinates": [ 132.5, 31.0 ] } },
{ "type": "Feature", "properties": { "ID": 26455, "LAT": 34.0, "LON": 138.2, "VMAX": 40.0, "MSLP": 1006.833, "RMAX": 41.26637, "FSPD": 15.49082, "FDIR": 63.3634, "RENV": 250.0, "PENV": 1012.0, "VALIDT": 48, "DTG": "2026-06-27 06:00", "LATNOW": 24.8, "LONNOW": 126.0, "WINDNOW": 50.0, "DIRNOW": 6.0, "SPDNOW": 1.0, "TECH": "FCST", "ADVNR": 27, "ATCFID": "WP072026", "NAME": "MEKKHALA", "FTECH": "JTWC", "FCST_DTG": "2026-06-25 06:00:00", "RUN_DTG": "2026-06-25 08:34:18", "BASIN": "WP", "STMNR": 7, "CAT_ID": null, "CAT_DESC": null, "MSGID": "WTPN51 PGTW 250900", "VALIDTIME": "2026-06-27 06:00:00" }, "geometry": { "type": "Point", "coordinates": [ 138.199997, 34.0 ] } },
{ "type": "Feature", "properties": { "ID": 26456, "LAT": 36.7, "LON": 144.8, "VMAX": 40.0, "MSLP": 1006.833, "RMAX": 41.26637, "FSPD": 15.49082, "FDIR": 63.3634, "RENV": 250.0, "PENV": 1012.0, "VALIDT": 60, "DTG": "2026-06-27 18:00", "LATNOW": 24.8, "LONNOW": 126.0, "WINDNOW": 50.0, "DIRNOW": 6.0, "SPDNOW": 1.0, "TECH": "FCST", "ADVNR": 27, "ATCFID": "WP072026", "NAME": "MEKKHALA", "FTECH": "JTWC", "FCST_DTG": "2026-06-25 06:00:00", "RUN_DTG": "2026-06-25 08:34:18", "BASIN": "WP", "STMNR": 7, "CAT_ID": null, "CAT_DESC": null, "MSGID": "WTPN51 PGTW 250900", "VALIDTIME": "2026-06-27 18:00:00" }, "geometry": { "type": "Point", "coordinates": [ 144.800003, 36.700001 ] } }
]
}
