{
"type": "FeatureCollection",
"name": "ui_data",
"crs": { "type": "name", "properties": { "name": "urn:ogc:def:crs:OGC:1.3:CRS84" } },
"features": [
{ "type": "Feature", "properties": { "address": "Test Location #1 (Inside Storm)", "city": "Storm City", "state": "FL", "country": "USA", "zip": "33000", "location_id": "test-loc-0", "TIV_Exposed": "$5,000,000", "usofcl_past_impacts_ID": null, "usofcl_past_impacts_CAT": null, "usofcl_past_impacts_LABEL": null, "usofcl_past_impacts_COLOR": null, "usofcl_past_impacts_ADVNR": null, "usofcl_past_impacts_ATCFID": null, "usofcl_past_impacts_NAME": null, "usofcl_past_impacts_FTECH": null, "usofcl_past_impacts_FCST_DTG": null, "usofcl_past_impacts_RUN_DTG": null, "usofcl_past_impacts_MSGID": null, "usofcl_fcst_surge_ft_ID": null, "usofcl_fcst_surge_ft_CAT": null, "usofcl_fcst_surge_ft_LABEL": null, "usofcl_fcst_surge_ft_COLOR": null, "usofcl_fcst_surge_ft_ADVNR": null, "usofcl_fcst_surge_ft_ATCFID": null, "usofcl_fcst_surge_ft_NAME": null, "usofcl_fcst_surge_ft_FTECH": null, "usofcl_fcst_surge_ft_FCST_DTG": null, "usofcl_fcst_surge_ft_RUN_DTG": null, "usofcl_fcst_surge_ft_MSGID": null, "usofcl_tk_pts_ID": null, "usofcl_tk_pts_LAT": null, "usofcl_tk_pts_LON": null, "usofcl_tk_pts_VMAX": null, "usofcl_tk_pts_MSLP": null, "usofcl_tk_pts_RMAX": null, "usofcl_tk_pts_FSPD": null, "usofcl_tk_pts_FDIR": null, "usofcl_tk_pts_RENV": null, "usofcl_tk_pts_PENV": null, "usofcl_tk_pts_VALIDT": null, "usofcl_tk_pts_DTG": null, "usofcl_tk_pts_LATNOW": null, "usofcl_tk_pts_LONNOW": null, "usofcl_tk_pts_WINDNOW": null, "usofcl_tk_pts_DIRNOW": null, "usofcl_tk_pts_SPDNOW": null, "usofcl_tk_pts_TECH": null, "usofcl_tk_pts_ADVNR": null, "usofcl_tk_pts_ATCFID": null, "usofcl_tk_pts_NAME": null, "usofcl_tk_pts_FTECH": null, "usofcl_tk_pts_FCST_DTG": null, "usofcl_tk_pts_RUN_DTG": null, "usofcl_tk_pts_BASIN": null, "usofcl_tk_pts_STMNR": null, "usofcl_tk_pts_CAT_ID": null, "usofcl_tk_pts_CAT_DESC": null, "usofcl_tk_pts_MSGID": null, "usofcl_tk_pts_VALIDTIME": null, "usofcl_past_sscats_ID": null, "usofcl_past_sscats_CAT": null, "usofcl_past_sscats_LABEL": null, "usofcl_past_sscats_COLOR": null, "usofcl_past_sscats_ADVNR": null, "usofcl_past_sscats_ATCFID": null, "usofcl_past_sscats_NAME": null, "usofcl_past_sscats_FTECH": null, "usofcl_past_sscats_FCST_DTG": null, "usofcl_past_sscats_RUN_DTG": null, "usofcl_past_sscats_MSGID": null, "usofcl_national_econimpact_FEATURE_ID": 10728, "usofcl_national_econimpact_ATCFID": "WP072026", "usofcl_national_econimpact_DTG": "2026-06-25 06:00:00", "usofcl_national_econimpact_TECH": "JTWC", "usofcl_national_econimpact_CTRY_ID": 116, "usofcl_national_econimpact_NAME": "Japan", "usofcl_national_econimpact_COUNTRY": "JPN", "usofcl_national_econimpact_EXPOSURE": 7228994504915.8164, "usofcl_national_econimpact_POPULATION": 125210984.0, "usofcl_national_econimpact_ECONIMPACT": 67987811.528444588, "usofcl_national_econimpact_POP_TSWIND": 1552112.0, "usofcl_national_econimpact_POP_HUWIND": 0.0, "usofcl_national_econimpact_POP_SURGE": 0.0, "usofcl_fcst_wind_mph_ID": 184305, "usofcl_fcst_wind_mph_CAT": 1, "usofcl_fcst_wind_mph_LABEL": "30 - 35 mph", "usofcl_fcst_wind_mph_COLOR": "aae7d7bd", "usofcl_fcst_wind_mph_ADVNR": 12, "usofcl_fcst_wind_mph_ATCFID": "WP082026", "usofcl_fcst_wind_mph_NAME": "HIGOS", "usofcl_fcst_wind_mph_FTECH": "JTWC", "usofcl_fcst_wind_mph_FCST_DTG": "2026-06-25 06:00:00", "usofcl_fcst_wind_mph_RUN_DTG": "2026-06-25 08:32:41", "usofcl_fcst_wind_mph_MSGID": "WTPN52 PGTW 250900", "usofcl_seaport_impacts_FEATURE_ID": null, "usofcl_seaport_impacts_ATCFID": null, "usofcl_seaport_impacts_DTG": null, "usofcl_seaport_impacts_TECH": null, "usofcl_seaport_impacts_GEONAMEID": null, "usofcl_seaport_impacts_NAME": null, "usofcl_seaport_impacts_COUNTRY": null, "usofcl_seaport_impacts_AVE_ST_DAM": null, "usofcl_seaport_impacts_AVE_CO_DAM": null, "usofcl_seaport_impacts_EVAC_FLAG": null, "usofcl_seaport_impacts_TIME_ELE": null, "usofcl_seaport_impacts_TIME_START": null, "usofcl_seaport_impacts_WIND": null, "usofcl_swath_wave_ft_ID": null, "usofcl_swath_wave_ft_CAT": null, "usofcl_swath_wave_ft_LABEL": null, "usofcl_swath_wave_ft_COLOR": null, "usofcl_swath_wave_ft_ADVNR": null, "usofcl_swath_wave_ft_ATCFID": null, "usofcl_swath_wave_ft_NAME": null, "usofcl_swath_wave_ft_FTECH": null, "usofcl_swath_wave_ft_FCST_DTG": null, "usofcl_swath_wave_ft_RUN_DTG": null, "usofcl_swath_wave_ft_MSGID": null, "usofcl_track_ID": null, "usofcl_track_LAT": null, "usofcl_track_LON": null, "usofcl_track_VMAX": null, "usofcl_track_MSLP": null, "usofcl_track_RMAX": null, "usofcl_track_FSPD": null, "usofcl_track_FDIR": null, "usofcl_track_RENV": null, "usofcl_track_PENV": null, "usofcl_track_VALIDT": null, "usofcl_track_DTG": null, "usofcl_track_LATNOW": null, "usofcl_track_LONNOW": null, "usofcl_track_WINDNOW": null, "usofcl_track_DIRNOW": null, "usofcl_track_SPDNOW": null, "usofcl_track_TECH": null, "usofcl_track_ADVNR": null, "usofcl_track_ATCFID": null, "usofcl_track_NAME": null, "usofcl_track_FTECH": null, "usofcl_track_FCST_DTG": null, "usofcl_track_RUN_DTG": null, "usofcl_track_BASIN": null, "usofcl_track_STMNR": null, "usofcl_track_CAT_ID": null, "usofcl_track_CAT_DESC": null, "usofcl_track_MSGID": null, "usofcl_track_VALIDTIME": null, "usofcl_medicalfac_impacts_FEATURE_ID": null, "usofcl_medicalfac_impacts_ATCFID": null, "usofcl_medicalfac_impacts_DTG": null, "usofcl_medicalfac_impacts_TECH": null, "usofcl_medicalfac_impacts_GEONAMEID": null, "usofcl_medicalfac_impacts_NAME": null, "usofcl_medicalfac_impacts_COUNTRY": null, "usofcl_medicalfac_impacts_AVE_ST_DAM": null, "usofcl_medicalfac_impacts_AVE_CO_DAM": null, "usofcl_medicalfac_impacts_EVAC_FLAG": null, "usofcl_medicalfac_impacts_TIME_ELE": null, "usofcl_medicalfac_impacts_TIME_START": null, "usofcl_medicalfac_impacts_WIND": null, "usofcl_swath_rain_in_ID": 400100, "usofcl_swath_rain_in_CAT": 1, "usofcl_swath_rain_in_LABEL": "Less than 1in", "usofcl_swath_rain_in_COLOR": "aa50981A", "usofcl_swath_rain_in_ADVNR": 27, "usofcl_swath_rain_in_ATCFID": "WP072026", "usofcl_swath_rain_in_NAME": "MEKKHALA", "usofcl_swath_rain_in_FTECH": "JTWC", "usofcl_swath_rain_in_FCST_DTG": "2026-06-25 06:00:00", "usofcl_swath_rain_in_RUN_DTG": "2026-06-25 08:19:36", "usofcl_swath_rain_in_MSGID": "WTPN51 PGTW 250900", "ofcl_atcf_ID": null, "ofcl_atcf_ATCFID": null, "ofcl_atcf_NAME": null, "ofcl_atcf_TECH": null, "ofcl_atcf_FCSTDTG": null, "ofcl_atcf_TRKTIME": null, "ofcl_atcf_MODEL_CAT": null, "usofcl_swath_wind_mph_ID": 348629, "usofcl_swath_wind_mph_CAT": 1, "usofcl_swath_wind_mph_LABEL": "30 - 35 mph", "usofcl_swath_wind_mph_COLOR": "aae7d7bd", "usofcl_swath_wind_mph_ADVNR": 12, "usofcl_swath_wind_mph_ATCFID": "WP082026", "usofcl_swath_wind_mph_NAME": "HIGOS", "usofcl_swath_wind_mph_FTECH": "JTWC", "usofcl_swath_wind_mph_FCST_DTG": "2026-06-25 06:00:00", "usofcl_swath_wind_mph_RUN_DTG": "2026-06-25 08:32:41", "usofcl_swath_wind_mph_MSGID": "WTPN52 PGTW 250900", "usofcl_swath_surge_ft_ID": null, "usofcl_swath_surge_ft_CAT": null, "usofcl_swath_surge_ft_LABEL": null, "usofcl_swath_surge_ft_COLOR": null, "usofcl_swath_surge_ft_ADVNR": null, "usofcl_swath_surge_ft_ATCFID": null, "usofcl_swath_surge_ft_NAME": null, "usofcl_swath_surge_ft_FTECH": null, "usofcl_swath_surge_ft_FCST_DTG": null, "usofcl_swath_surge_ft_RUN_DTG": null, "usofcl_swath_surge_ft_MSGID": null, "usofcl_fcst_impacts_ID": 139435, "usofcl_fcst_impacts_CAT": 2, "usofcl_fcst_impacts_LABEL": "Large Trees Sway", "usofcl_fcst_impacts_COLOR": "bf8EDDAD", "usofcl_fcst_impacts_ADVNR": 12, "usofcl_fcst_impacts_ATCFID": "WP082026", "usofcl_fcst_impacts_NAME": "HIGOS", "usofcl_fcst_impacts_FTECH": "JTWC", "usofcl_fcst_impacts_FCST_DTG": "2026-06-25 06:00:00", "usofcl_fcst_impacts_RUN_DTG": "2026-06-25 08:32:41", "usofcl_fcst_impacts_MSGID": "WTPN52 PGTW 250900", "usofcl_airport_impacts_FEATURE_ID": null, "usofcl_airport_impacts_ATCFID": null, "usofcl_airport_impacts_DTG": null, "usofcl_airport_impacts_TECH": null, "usofcl_airport_impacts_GEONAMEID": null, "usofcl_airport_impacts_NAME": null, "usofcl_airport_impacts_COUNTRY": null, "usofcl_airport_impacts_AVE_ST_DAM": null, "usofcl_airport_impacts_AVE_CO_DAM": null, "usofcl_airport_impacts_EVAC_FLAG": null, "usofcl_airport_impacts_TIME_ELE": null, "usofcl_airport_impacts_TIME_START": null, "usofcl_airport_impacts_WIND": null, "usofcl_fcst_rain_in_ID": 269090, "usofcl_fcst_rain_in_CAT": 1, "usofcl_fcst_rain_in_LABEL": "Less than 1in", "usofcl_fcst_rain_in_COLOR": "aa50981A", "usofcl_fcst_rain_in_ADVNR": 27, "usofcl_fcst_rain_in_ATCFID": "WP072026", "usofcl_fcst_rain_in_NAME": "MEKKHALA", "usofcl_fcst_rain_in_FTECH": "JTWC", "usofcl_fcst_rain_in_FCST_DTG": "2026-06-25 06:00:00", "usofcl_fcst_rain_in_RUN_DTG": "2026-06-25 08:19:36", "usofcl_fcst_rain_in_MSGID": "WTPN51 PGTW 250900", "usofcl_swath_sscats_ID": null, "usofcl_swath_sscats_CAT": null, "usofcl_swath_sscats_LABEL": null, "usofcl_swath_sscats_COLOR": null, "usofcl_swath_sscats_ADVNR": null, "usofcl_swath_sscats_ATCFID": null, "usofcl_swath_sscats_NAME": null, "usofcl_swath_sscats_FTECH": null, "usofcl_swath_sscats_FCST_DTG": null, "usofcl_swath_sscats_RUN_DTG": null, "usofcl_swath_sscats_MSGID": null, "usofcl_swath_impacts_ID": 217307, "usofcl_swath_impacts_CAT": 2, "usofcl_swath_impacts_LABEL": "Large Trees Sway", "usofcl_swath_impacts_COLOR": "bf8EDDAD", "usofcl_swath_impacts_ADVNR": 12, "usofcl_swath_impacts_ATCFID": "WP082026", "usofcl_swath_impacts_NAME": "HIGOS", "usofcl_swath_impacts_FTECH": "JTWC", "usofcl_swath_impacts_FCST_DTG": "2026-06-25 06:00:00", "usofcl_swath_impacts_RUN_DTG": "2026-06-25 08:32:41", "usofcl_swath_impacts_MSGID": "WTPN52 PGTW 250900", "usofcl_past_wave_ft_ID": null, "usofcl_past_wave_ft_CAT": null, "usofcl_past_wave_ft_LABEL": null, "usofcl_past_wave_ft_COLOR": null, "usofcl_past_wave_ft_ADVNR": null, "usofcl_past_wave_ft_ATCFID": null, "usofcl_past_wave_ft_NAME": null, "usofcl_past_wave_ft_FTECH": null, "usofcl_past_wave_ft_FCST_DTG": null, "usofcl_past_wave_ft_RUN_DTG": null, "usofcl_past_wave_ft_MSGID": null, "usofcl_admin2_econimpact_FEATURE_ID": null, "usofcl_admin2_econimpact_ATCFID": null, "usofcl_admin2_econimpact_DTG": null, "usofcl_admin2_econimpact_TECH": null, "usofcl_admin2_econimpact_CTRY_ID": null, "usofcl_admin2_econimpact_NAME": null, "usofcl_admin2_econimpact_COUNTRY": null, "usofcl_admin2_econimpact_EXPOSURE": null, "usofcl_admin2_econimpact_POPULATION": null, "usofcl_admin2_econimpact_ECONIMPACT": null, "usofcl_admin2_econimpact_POP_TSWIND": null, "usofcl_admin2_econimpact_POP_HUWIND": null, "usofcl_admin2_econimpact_POP_SURGE": null, "usofcl_fcst_sscats_ID": null, "usofcl_fcst_sscats_CAT": null, "usofcl_fcst_sscats_LABEL": null, "usofcl_fcst_sscats_COLOR": null, "usofcl_fcst_sscats_ADVNR": null, "usofcl_fcst_sscats_ATCFID": null, "usofcl_fcst_sscats_NAME": null, "usofcl_fcst_sscats_FTECH": null, "usofcl_fcst_sscats_FCST_DTG": null, "usofcl_fcst_sscats_RUN_DTG": null, "usofcl_fcst_sscats_MSGID": null, "usofcl_past_wind_mph_ID": null, "usofcl_past_wind_mph_CAT": null, "usofcl_past_wind_mph_LABEL": null, "usofcl_past_wind_mph_COLOR": null, "usofcl_past_wind_mph_ADVNR": null, "usofcl_past_wind_mph_ATCFID": null, "usofcl_past_wind_mph_NAME": null, "usofcl_past_wind_mph_FTECH": null, "usofcl_past_wind_mph_FCST_DTG": null, "usofcl_past_wind_mph_RUN_DTG": null, "usofcl_past_wind_mph_MSGID": null, "usofcl_energy_impacts_FEATURE_ID": null, "usofcl_energy_impacts_ATCFID": null, "usofcl_energy_impacts_DTG": null, "usofcl_energy_impacts_TECH": null, "usofcl_energy_impacts_GEONAMEID": null, "usofcl_energy_impacts_NAME": null, "usofcl_energy_impacts_COUNTRY": null, "usofcl_energy_impacts_AVE_ST_DAM": null, "usofcl_energy_impacts_AVE_CO_DAM": null, "usofcl_energy_impacts_EVAC_FLAG": null, "usofcl_energy_impacts_TIME_ELE": null, "usofcl_energy_impacts_TIME_START": null, "usofcl_energy_impacts_WIND": null, "usofcl_past_surge_ft_ID": null, "usofcl_past_surge_ft_CAT": null, "usofcl_past_surge_ft_LABEL": null, "usofcl_past_surge_ft_COLOR": null, "usofcl_past_surge_ft_ADVNR": null, "usofcl_past_surge_ft_ATCFID": null, "usofcl_past_surge_ft_NAME": null, "usofcl_past_surge_ft_FTECH": null, "usofcl_past_surge_ft_FCST_DTG": null, "usofcl_past_surge_ft_RUN_DTG": null, "usofcl_past_surge_ft_MSGID": null, "usofcl_past_rain_in_ID": null, "usofcl_past_rain_in_CAT": null, "usofcl_past_rain_in_LABEL": null, "usofcl_past_rain_in_COLOR": null, "usofcl_past_rain_in_ADVNR": null, "usofcl_past_rain_in_ATCFID": null, "usofcl_past_rain_in_NAME": null, "usofcl_past_rain_in_FTECH": null, "usofcl_past_rain_in_FCST_DTG": null, "usofcl_past_rain_in_RUN_DTG": null, "usofcl_past_rain_in_MSGID": null, "usofcl_admin1_econimpact_FEATURE_ID": null, "usofcl_admin1_econimpact_ATCFID": null, "usofcl_admin1_econimpact_DTG": null, "usofcl_admin1_econimpact_TECH": null, "usofcl_admin1_econimpact_CTRY_ID": null, "usofcl_admin1_econimpact_NAME": null, "usofcl_admin1_econimpact_COUNTRY": null, "usofcl_admin1_econimpact_EXPOSURE": null, "usofcl_admin1_econimpact_POPULATION": null, "usofcl_admin1_econimpact_ECONIMPACT": null, "usofcl_admin1_econimpact_POP_TSWIND": null, "usofcl_admin1_econimpact_POP_HUWIND": null, "usofcl_admin1_econimpact_POP_SURGE": null, "usofcl_fcst_wave_ft_ID": null, "usofcl_fcst_wave_ft_CAT": null, "usofcl_fcst_wave_ft_LABEL": null, "usofcl_fcst_wave_ft_COLOR": null, "usofcl_fcst_wave_ft_ADVNR": null, "usofcl_fcst_wave_ft_ATCFID": null, "usofcl_fcst_wave_ft_NAME": null, "usofcl_fcst_wave_ft_FTECH": null, "usofcl_fcst_wave_ft_FCST_DTG": null, "usofcl_fcst_wave_ft_RUN_DTG": null, "usofcl_fcst_wave_ft_MSGID": null }, "geometry": { "type": "Point", "coordinates": [ 138.13335, 35.44165 ] } },
{ "type": "Feature", "properties": { "address": "Test Location #2 (Inside Storm)", "city": "Storm City", "state": "FL", "country": "USA", "zip": "33000", "location_id": "test-loc-1", "TIV_Exposed": "$10,000,000", "usofcl_past_impacts_ID": null, "usofcl_past_impacts_CAT": null, "usofcl_past_impacts_LABEL": null, "usofcl_past_impacts_COLOR": null, "usofcl_past_impacts_ADVNR": null, "usofcl_past_impacts_ATCFID": null, "usofcl_past_impacts_NAME": null, "usofcl_past_impacts_FTECH": null, "usofcl_past_impacts_FCST_DTG": null, "usofcl_past_impacts_RUN_DTG": null, "usofcl_past_impacts_MSGID": null, "usofcl_fcst_surge_ft_ID": null, "usofcl_fcst_surge_ft_CAT": null, "usofcl_fcst_surge_ft_LABEL": null, "usofcl_fcst_surge_ft_COLOR": null, "usofcl_fcst_surge_ft_ADVNR": null, "usofcl_fcst_surge_ft_ATCFID": null, "usofcl_fcst_surge_ft_NAME": null, "usofcl_fcst_surge_ft_FTECH": null, "usofcl_fcst_surge_ft_FCST_DTG": null, "usofcl_fcst_surge_ft_RUN_DTG": null, "usofcl_fcst_surge_ft_MSGID": null, "usofcl_tk_pts_ID": null, "usofcl_tk_pts_LAT": null, "usofcl_tk_pts_LON": null, "usofcl_tk_pts_VMAX": null, "usofcl_tk_pts_MSLP": null, "usofcl_tk_pts_RMAX": null, "usofcl_tk_pts_FSPD": null, "usofcl_tk_pts_FDIR": null, "usofcl_tk_pts_RENV": null, "usofcl_tk_pts_PENV": null, "usofcl_tk_pts_VALIDT": null, "usofcl_tk_pts_DTG": null, "usofcl_tk_pts_LATNOW": null, "usofcl_tk_pts_LONNOW": null, "usofcl_tk_pts_WINDNOW": null, "usofcl_tk_pts_DIRNOW": null, "usofcl_tk_pts_SPDNOW": null, "usofcl_tk_pts_TECH": null, "usofcl_tk_pts_ADVNR": null, "usofcl_tk_pts_ATCFID": null, "usofcl_tk_pts_NAME": null, "usofcl_tk_pts_FTECH": null, "usofcl_tk_pts_FCST_DTG": null, "usofcl_tk_pts_RUN_DTG": null, "usofcl_tk_pts_BASIN": null, "usofcl_tk_pts_STMNR": null, "usofcl_tk_pts_CAT_ID": null, "usofcl_tk_pts_CAT_DESC": null, "usofcl_tk_pts_MSGID": null, "usofcl_tk_pts_VALIDTIME": null, "usofcl_past_sscats_ID": null, "usofcl_past_sscats_CAT": null, "usofcl_past_sscats_LABEL": null, "usofcl_past_sscats_COLOR": null, "usofcl_past_sscats_ADVNR": null, "usofcl_past_sscats_ATCFID": null, "usofcl_past_sscats_NAME": null, "usofcl_past_sscats_FTECH": null, "usofcl_past_sscats_FCST_DTG": null, "usofcl_past_sscats_RUN_DTG": null, "usofcl_past_sscats_MSGID": null, "usofcl_national_econimpact_FEATURE_ID": 10728, "usofcl_national_econimpact_ATCFID": "WP072026", "usofcl_national_econimpact_DTG": "2026-06-25 06:00:00", "usofcl_national_econimpact_TECH": "JTWC", "usofcl_national_econimpact_CTRY_ID": 116, "usofcl_national_econimpact_NAME": "Japan", "usofcl_national_econimpact_COUNTRY": "JPN", "usofcl_national_econimpact_EXPOSURE": 7228994504915.8164, "usofcl_national_econimpact_POPULATION": 125210984.0, "usofcl_national_econimpact_ECONIMPACT": 67987811.528444588, "usofcl_national_econimpact_POP_TSWIND": 1552112.0, "usofcl_national_econimpact_POP_HUWIND": 0.0, "usofcl_national_econimpact_POP_SURGE": 0.0, "usofcl_fcst_wind_mph_ID": 184306, "usofcl_fcst_wind_mph_CAT": 1, "usofcl_fcst_wind_mph_LABEL": "30 - 35 mph", "usofcl_fcst_wind_mph_COLOR": "aae7d7bd", "usofcl_fcst_wind_mph_ADVNR": 12, "usofcl_fcst_wind_mph_ATCFID": "WP082026", "usofcl_fcst_wind_mph_NAME": "HIGOS", "usofcl_fcst_wind_mph_FTECH": "JTWC", "usofcl_fcst_wind_mph_FCST_DTG": "2026-06-25 06:00:00", "usofcl_fcst_wind_mph_RUN_DTG": "2026-06-25 08:32:41", "usofcl_fcst_wind_mph_MSGID": "WTPN52 PGTW 250900", "usofcl_seaport_impacts_FEATURE_ID": null, "usofcl_seaport_impacts_ATCFID": null, "usofcl_seaport_impacts_DTG": null, "usofcl_seaport_impacts_TECH": null, "usofcl_seaport_impacts_GEONAMEID": null, "usofcl_seaport_impacts_NAME": null, "usofcl_seaport_impacts_COUNTRY": null, "usofcl_seaport_impacts_AVE_ST_DAM": null, "usofcl_seaport_impacts_AVE_CO_DAM": null, "usofcl_seaport_impacts_EVAC_FLAG": null, "usofcl_seaport_impacts_TIME_ELE": null, "usofcl_seaport_impacts_TIME_START": null, "usofcl_seaport_impacts_WIND": null, "usofcl_swath_wave_ft_ID": null, "usofcl_swath_wave_ft_CAT": null, "usofcl_swath_wave_ft_LABEL": null, "usofcl_swath_wave_ft_COLOR": null, "usofcl_swath_wave_ft_ADVNR": null, "usofcl_swath_wave_ft_ATCFID": null, "usofcl_swath_wave_ft_NAME": null, "usofcl_swath_wave_ft_FTECH": null, "usofcl_swath_wave_ft_FCST_DTG": null, "usofcl_swath_wave_ft_RUN_DTG": null, "usofcl_swath_wave_ft_MSGID": null, "usofcl_track_ID": null, "usofcl_track_LAT": null, "usofcl_track_LON": null, "usofcl_track_VMAX": null, "usofcl_track_MSLP": null, "usofcl_track_RMAX": null, "usofcl_track_FSPD": null, "usofcl_track_FDIR": null, "usofcl_track_RENV": null, "usofcl_track_PENV": null, "usofcl_track_VALIDT": null, "usofcl_track_DTG": null, "usofcl_track_LATNOW": null, "usofcl_track_LONNOW": null, "usofcl_track_WINDNOW": null, "usofcl_track_DIRNOW": null, "usofcl_track_SPDNOW": null, "usofcl_track_TECH": null, "usofcl_track_ADVNR": null, "usofcl_track_ATCFID": null, "usofcl_track_NAME": null, "usofcl_track_FTECH": null, "usofcl_track_FCST_DTG": null, "usofcl_track_RUN_DTG": null, "usofcl_track_BASIN": null, "usofcl_track_STMNR": null, "usofcl_track_CAT_ID": null, "usofcl_track_CAT_DESC": null, "usofcl_track_MSGID": null, "usofcl_track_VALIDTIME": null, "usofcl_medicalfac_impacts_FEATURE_ID": null, "usofcl_medicalfac_impacts_ATCFID": null, "usofcl_medicalfac_impacts_DTG": null, "usofcl_medicalfac_impacts_TECH": null, "usofcl_medicalfac_impacts_GEONAMEID": null, "usofcl_medicalfac_impacts_NAME": null, "usofcl_medicalfac_impacts_COUNTRY": null, "usofcl_medicalfac_impacts_AVE_ST_DAM": null, "usofcl_medicalfac_impacts_AVE_CO_DAM": null, "usofcl_medicalfac_impacts_EVAC_FLAG": null, "usofcl_medicalfac_impacts_TIME_ELE": null, "usofcl_medicalfac_impacts_TIME_START": null, "usofcl_medicalfac_impacts_WIND": null, "usofcl_swath_rain_in_ID": 401361, "usofcl_swath_rain_in_CAT": 2, "usofcl_swath_rain_in_LABEL": "1-3in", "usofcl_swath_rain_in_COLOR": "aa6ad9a6", "usofcl_swath_rain_in_ADVNR": 27, "usofcl_swath_rain_in_ATCFID": "WP072026", "usofcl_swath_rain_in_NAME": "MEKKHALA", "usofcl_swath_rain_in_FTECH": "JTWC", "usofcl_swath_rain_in_FCST_DTG": "2026-06-25 06:00:00", "usofcl_swath_rain_in_RUN_DTG": "2026-06-25 08:19:36", "usofcl_swath_rain_in_MSGID": "WTPN51 PGTW 250900", "ofcl_atcf_ID": null, "ofcl_atcf_ATCFID": null, "ofcl_atcf_NAME": null, "ofcl_atcf_TECH": null, "ofcl_atcf_FCSTDTG": null, "ofcl_atcf_TRKTIME": null, "ofcl_atcf_MODEL_CAT": null, "usofcl_swath_wind_mph_ID": 348630, "usofcl_swath_wind_mph_CAT": 1, "usofcl_swath_wind_mph_LABEL": "30 - 35 mph", "usofcl_swath_wind_mph_COLOR": "aae7d7bd", "usofcl_swath_wind_mph_ADVNR": 12, "usofcl_swath_wind_mph_ATCFID": "WP082026", "usofcl_swath_wind_mph_NAME": "HIGOS", "usofcl_swath_wind_mph_FTECH": "JTWC", "usofcl_swath_wind_mph_FCST_DTG": "2026-06-25 06:00:00", "usofcl_swath_wind_mph_RUN_DTG": "2026-06-25 08:32:41", "usofcl_swath_wind_mph_MSGID": "WTPN52 PGTW 250900", "usofcl_swath_surge_ft_ID": null, "usofcl_swath_surge_ft_CAT": null, "usofcl_swath_surge_ft_LABEL": null, "usofcl_swath_surge_ft_COLOR": null, "usofcl_swath_surge_ft_ADVNR": null, "usofcl_swath_surge_ft_ATCFID": null, "usofcl_swath_surge_ft_NAME": null, "usofcl_swath_surge_ft_FTECH": null, "usofcl_swath_surge_ft_FCST_DTG": null, "usofcl_swath_surge_ft_RUN_DTG": null, "usofcl_swath_surge_ft_MSGID": null, "usofcl_fcst_impacts_ID": 139436, "usofcl_fcst_impacts_CAT": 2, "usofcl_fcst_impacts_LABEL": "Large Trees Sway", "usofcl_fcst_impacts_COLOR": "bf8EDDAD", "usofcl_fcst_impacts_ADVNR": 12, "usofcl_fcst_impacts_ATCFID": "WP082026", "usofcl_fcst_impacts_NAME": "HIGOS", "usofcl_fcst_impacts_FTECH": "JTWC", "usofcl_fcst_impacts_FCST_DTG": "2026-06-25 06:00:00", "usofcl_fcst_impacts_RUN_DTG": "2026-06-25 08:32:41", "usofcl_fcst_impacts_MSGID": "WTPN52 PGTW 250900", "usofcl_airport_impacts_FEATURE_ID": null, "usofcl_airport_impacts_ATCFID": null, "usofcl_airport_impacts_DTG": null, "usofcl_airport_impacts_TECH": null, "usofcl_airport_impacts_GEONAMEID": null, "usofcl_airport_impacts_NAME": null, "usofcl_airport_impacts_COUNTRY": null, "usofcl_airport_impacts_AVE_ST_DAM": null, "usofcl_airport_impacts_AVE_CO_DAM": null, "usofcl_airport_impacts_EVAC_FLAG": null, "usofcl_airport_impacts_TIME_ELE": null, "usofcl_airport_impacts_TIME_START": null, "usofcl_airport_impacts_WIND": null, "usofcl_fcst_rain_in_ID": 270202, "usofcl_fcst_rain_in_CAT": 2, "usofcl_fcst_rain_in_LABEL": "1-3in", "usofcl_fcst_rain_in_COLOR": "aa6ad9a6", "usofcl_fcst_rain_in_ADVNR": 27, "usofcl_fcst_rain_in_ATCFID": "WP072026", "usofcl_fcst_rain_in_NAME": "MEKKHALA", "usofcl_fcst_rain_in_FTECH": "JTWC", "usofcl_fcst_rain_in_FCST_DTG": "2026-06-25 06:00:00", "usofcl_fcst_rain_in_RUN_DTG": "2026-06-25 08:19:36", "usofcl_fcst_rain_in_MSGID": "WTPN51 PGTW 250900", "usofcl_swath_sscats_ID": null, "usofcl_swath_sscats_CAT": null, "usofcl_swath_sscats_LABEL": null, "usofcl_swath_sscats_COLOR": null, "usofcl_swath_sscats_ADVNR": null, "usofcl_swath_sscats_ATCFID": null, "usofcl_swath_sscats_NAME": null, "usofcl_swath_sscats_FTECH": null, "usofcl_swath_sscats_FCST_DTG": null, "usofcl_swath_sscats_RUN_DTG": null, "usofcl_swath_sscats_MSGID": null, "usofcl_swath_impacts_ID": 217308, "usofcl_swath_impacts_CAT": 2, "usofcl_swath_impacts_LABEL": "Large Trees Sway", "usofcl_swath_impacts_COLOR": "bf8EDDAD", "usofcl_swath_impacts_ADVNR": 12, "usofcl_swath_impacts_ATCFID": "WP082026", "usofcl_swath_impacts_NAME": "HIGOS", "usofcl_swath_impacts_FTECH": "JTWC", "usofcl_swath_impacts_FCST_DTG": "2026-06-25 06:00:00", "usofcl_swath_impacts_RUN_DTG": "2026-06-25 08:32:41", "usofcl_swath_impacts_MSGID": "WTPN52 PGTW 250900", "usofcl_past_wave_ft_ID": null, "usofcl_past_wave_ft_CAT": null, "usofcl_past_wave_ft_LABEL": null, "usofcl_past_wave_ft_COLOR": null, "usofcl_past_wave_ft_ADVNR": null, "usofcl_past_wave_ft_ATCFID": null, "usofcl_past_wave_ft_NAME": null, "usofcl_past_wave_ft_FTECH": null, "usofcl_past_wave_ft_FCST_DTG": null, "usofcl_past_wave_ft_RUN_DTG": null, "usofcl_past_wave_ft_MSGID": null, "usofcl_admin2_econimpact_FEATURE_ID": null, "usofcl_admin2_econimpact_ATCFID": null, "usofcl_admin2_econimpact_DTG": null, "usofcl_admin2_econimpact_TECH": null, "usofcl_admin2_econimpact_CTRY_ID": null, "usofcl_admin2_econimpact_NAME": null, "usofcl_admin2_econimpact_COUNTRY": null, "usofcl_admin2_econimpact_EXPOSURE": null, "usofcl_admin2_econimpact_POPULATION": null, "usofcl_admin2_econimpact_ECONIMPACT": null, "usofcl_admin2_econimpact_POP_TSWIND": null, "usofcl_admin2_econimpact_POP_HUWIND": null, "usofcl_admin2_econimpact_POP_SURGE": null, "usofcl_fcst_sscats_ID": null, "usofcl_fcst_sscats_CAT": null, "usofcl_fcst_sscats_LABEL": null, "usofcl_fcst_sscats_COLOR": null, "usofcl_fcst_sscats_ADVNR": null, "usofcl_fcst_sscats_ATCFID": null, "usofcl_fcst_sscats_NAME": null, "usofcl_fcst_sscats_FTECH": null, "usofcl_fcst_sscats_FCST_DTG": null, "usofcl_fcst_sscats_RUN_DTG": null, "usofcl_fcst_sscats_MSGID": null, "usofcl_past_wind_mph_ID": null, "usofcl_past_wind_mph_CAT": null, "usofcl_past_wind_mph_LABEL": null, "usofcl_past_wind_mph_COLOR": null, "usofcl_past_wind_mph_ADVNR": null, "usofcl_past_wind_mph_ATCFID": null, "usofcl_past_wind_mph_NAME": null, "usofcl_past_wind_mph_FTECH": null, "usofcl_past_wind_mph_FCST_DTG": null, "usofcl_past_wind_mph_RUN_DTG": null, "usofcl_past_wind_mph_MSGID": null, "usofcl_energy_impacts_FEATURE_ID": null, "usofcl_energy_impacts_ATCFID": null, "usofcl_energy_impacts_DTG": null, "usofcl_energy_impacts_TECH": null, "usofcl_energy_impacts_GEONAMEID": null, "usofcl_energy_impacts_NAME": null, "usofcl_energy_impacts_COUNTRY": null, "usofcl_energy_impacts_AVE_ST_DAM": null, "usofcl_energy_impacts_AVE_CO_DAM": null, "usofcl_energy_impacts_EVAC_FLAG": null, "usofcl_energy_impacts_TIME_ELE": null, "usofcl_energy_impacts_TIME_START": null, "usofcl_energy_impacts_WIND": null, "usofcl_past_surge_ft_ID": null, "usofcl_past_surge_ft_CAT": null, "usofcl_past_surge_ft_LABEL": null, "usofcl_past_surge_ft_COLOR": null, "usofcl_past_surge_ft_ADVNR": null, "usofcl_past_surge_ft_ATCFID": null, "usofcl_past_surge_ft_NAME": null, "usofcl_past_surge_ft_FTECH": null, "usofcl_past_surge_ft_FCST_DTG": null, "usofcl_past_surge_ft_RUN_DTG": null, "usofcl_past_surge_ft_MSGID": null, "usofcl_past_rain_in_ID": null, "usofcl_past_rain_in_CAT": null, "usofcl_past_rain_in_LABEL": null, "usofcl_past_rain_in_COLOR": null, "usofcl_past_rain_in_ADVNR": null, "usofcl_past_rain_in_ATCFID": null, "usofcl_past_rain_in_NAME": null, "usofcl_past_rain_in_FTECH": null, "usofcl_past_rain_in_FCST_DTG": null, "usofcl_past_rain_in_RUN_DTG": null, "usofcl_past_rain_in_MSGID": null, "usofcl_admin1_econimpact_FEATURE_ID": null, "usofcl_admin1_econimpact_ATCFID": null, "usofcl_admin1_econimpact_DTG": null, "usofcl_admin1_econimpact_TECH": null, "usofcl_admin1_econimpact_CTRY_ID": null, "usofcl_admin1_econimpact_NAME": null, "usofcl_admin1_econimpact_COUNTRY": null, "usofcl_admin1_econimpact_EXPOSURE": null, "usofcl_admin1_econimpact_POPULATION": null, "usofcl_admin1_econimpact_ECONIMPACT": null, "usofcl_admin1_econimpact_POP_TSWIND": null, "usofcl_admin1_econimpact_POP_HUWIND": null, "usofcl_admin1_econimpact_POP_SURGE": null, "usofcl_fcst_wave_ft_ID": null, "usofcl_fcst_wave_ft_CAT": null, "usofcl_fcst_wave_ft_LABEL": null, "usofcl_fcst_wave_ft_COLOR": null, "usofcl_fcst_wave_ft_ADVNR": null, "usofcl_fcst_wave_ft_ATCFID": null, "usofcl_fcst_wave_ft_NAME": null, "usofcl_fcst_wave_ft_FTECH": null, "usofcl_fcst_wave_ft_FCST_DTG": null, "usofcl_fcst_wave_ft_RUN_DTG": null, "usofcl_fcst_wave_ft_MSGID": null }, "geometry": { "type": "Point", "coordinates": [ 138.26665, 35.44165 ] } },
{ "type": "Feature", "properties": { "address": "Test Location #3 (Inside Storm)", "city": "Storm City", "state": "FL", "country": "USA", "zip": "33000", "location_id": "test-loc-2", "TIV_Exposed": "$15,000,000", "usofcl_past_impacts_ID": null, "usofcl_past_impacts_CAT": null, "usofcl_past_impacts_LABEL": null, "usofcl_past_impacts_COLOR": null, "usofcl_past_impacts_ADVNR": null, "usofcl_past_impacts_ATCFID": null, "usofcl_past_impacts_NAME": null, "usofcl_past_impacts_FTECH": null, "usofcl_past_impacts_FCST_DTG": null, "usofcl_past_impacts_RUN_DTG": null, "usofcl_past_impacts_MSGID": null, "usofcl_fcst_surge_ft_ID": null, "usofcl_fcst_surge_ft_CAT": null, "usofcl_fcst_surge_ft_LABEL": null, "usofcl_fcst_surge_ft_COLOR": null, "usofcl_fcst_surge_ft_ADVNR": null, "usofcl_fcst_surge_ft_ATCFID": null, "usofcl_fcst_surge_ft_NAME": null, "usofcl_fcst_surge_ft_FTECH": null, "usofcl_fcst_surge_ft_FCST_DTG": null, "usofcl_fcst_surge_ft_RUN_DTG": null, "usofcl_fcst_surge_ft_MSGID": null, "usofcl_tk_pts_ID": null, "usofcl_tk_pts_LAT": null, "usofcl_tk_pts_LON": null, "usofcl_tk_pts_VMAX": null, "usofcl_tk_pts_MSLP": null, "usofcl_tk_pts_RMAX": null, "usofcl_tk_pts_FSPD": null, "usofcl_tk_pts_FDIR": null, "usofcl_tk_pts_RENV": null, "usofcl_tk_pts_PENV": null, "usofcl_tk_pts_VALIDT": null, "usofcl_tk_pts_DTG": null, "usofcl_tk_pts_LATNOW": null, "usofcl_tk_pts_LONNOW": null, "usofcl_tk_pts_WINDNOW": null, "usofcl_tk_pts_DIRNOW": null, "usofcl_tk_pts_SPDNOW": null, "usofcl_tk_pts_TECH": null, "usofcl_tk_pts_ADVNR": null, "usofcl_tk_pts_ATCFID": null, "usofcl_tk_pts_NAME": null, "usofcl_tk_pts_FTECH": null, "usofcl_tk_pts_FCST_DTG": null, "usofcl_tk_pts_RUN_DTG": null, "usofcl_tk_pts_BASIN": null, "usofcl_tk_pts_STMNR": null, "usofcl_tk_pts_CAT_ID": null, "usofcl_tk_pts_CAT_DESC": null, "usofcl_tk_pts_MSGID": null, "usofcl_tk_pts_VALIDTIME": null, "usofcl_past_sscats_ID": null, "usofcl_past_sscats_CAT": null, "usofcl_past_sscats_LABEL": null, "usofcl_past_sscats_COLOR": null, "usofcl_past_sscats_ADVNR": null, "usofcl_past_sscats_ATCFID": null, "usofcl_past_sscats_NAME": null, "usofcl_past_sscats_FTECH": null, "usofcl_past_sscats_FCST_DTG": null, "usofcl_past_sscats_RUN_DTG": null, "usofcl_past_sscats_MSGID": null, "usofcl_national_econimpact_FEATURE_ID": 10728, "usofcl_national_econimpact_ATCFID": "WP072026", "usofcl_national_econimpact_DTG": "2026-06-25 06:00:00", "usofcl_national_econimpact_TECH": "JTWC", "usofcl_national_econimpact_CTRY_ID": 116, "usofcl_national_econimpact_NAME": "Japan", "usofcl_national_econimpact_COUNTRY": "JPN", "usofcl_national_econimpact_EXPOSURE": 7228994504915.8164, "usofcl_national_econimpact_POPULATION": 125210984.0, "usofcl_national_econimpact_ECONIMPACT": 67987811.528444588, "usofcl_national_econimpact_POP_TSWIND": 1552112.0, "usofcl_national_econimpact_POP_HUWIND": 0.0, "usofcl_national_econimpact_POP_SURGE": 0.0, "usofcl_fcst_wind_mph_ID": 184307, "usofcl_fcst_wind_mph_CAT": 1, "usofcl_fcst_wind_mph_LABEL": "30 - 35 mph", "usofcl_fcst_wind_mph_COLOR": "aae7d7bd", "usofcl_fcst_wind_mph_ADVNR": 12, "usofcl_fcst_wind_mph_ATCFID": "WP082026", "usofcl_fcst_wind_mph_NAME": "HIGOS", "usofcl_fcst_wind_mph_FTECH": "JTWC", "usofcl_fcst_wind_mph_FCST_DTG": "2026-06-25 06:00:00", "usofcl_fcst_wind_mph_RUN_DTG": "2026-06-25 08:32:41", "usofcl_fcst_wind_mph_MSGID": "WTPN52 PGTW 250900", "usofcl_seaport_impacts_FEATURE_ID": null, "usofcl_seaport_impacts_ATCFID": null, "usofcl_seaport_impacts_DTG": null, "usofcl_seaport_impacts_TECH": null, "usofcl_seaport_impacts_GEONAMEID": null, "usofcl_seaport_impacts_NAME": null, "usofcl_seaport_impacts_COUNTRY": null, "usofcl_seaport_impacts_AVE_ST_DAM": null, "usofcl_seaport_impacts_AVE_CO_DAM": null, "usofcl_seaport_impacts_EVAC_FLAG": null, "usofcl_seaport_impacts_TIME_ELE": null, "usofcl_seaport_impacts_TIME_START": null, "usofcl_seaport_impacts_WIND": null, "usofcl_swath_wave_ft_ID": null, "usofcl_swath_wave_ft_CAT": null, "usofcl_swath_wave_ft_LABEL": null, "usofcl_swath_wave_ft_COLOR": null, "usofcl_swath_wave_ft_ADVNR": null, "usofcl_swath_wave_ft_ATCFID": null, "usofcl_swath_wave_ft_NAME": null, "usofcl_swath_wave_ft_FTECH": null, "usofcl_swath_wave_ft_FCST_DTG": null, "usofcl_swath_wave_ft_RUN_DTG": null, "usofcl_swath_wave_ft_MSGID": null, "usofcl_track_ID": null, "usofcl_track_LAT": null, "usofcl_track_LON": null, "usofcl_track_VMAX": null, "usofcl_track_MSLP": null, "usofcl_track_RMAX": null, "usofcl_track_FSPD": null, "usofcl_track_FDIR": null, "usofcl_track_RENV": null, "usofcl_track_PENV": null, "usofcl_track_VALIDT": null, "usofcl_track_DTG": null, "usofcl_track_LATNOW": null, "usofcl_track_LONNOW": null, "usofcl_track_WINDNOW": null, "usofcl_track_DIRNOW": null, "usofcl_track_SPDNOW": null, "usofcl_track_TECH": null, "usofcl_track_ADVNR": null, "usofcl_track_ATCFID": null, "usofcl_track_NAME": null, "usofcl_track_FTECH": null, "usofcl_track_FCST_DTG": null, "usofcl_track_RUN_DTG": null, "usofcl_track_BASIN": null, "usofcl_track_STMNR": null, "usofcl_track_CAT_ID": null, "usofcl_track_CAT_DESC": null, "usofcl_track_MSGID": null, "usofcl_track_VALIDTIME": null, "usofcl_medicalfac_impacts_FEATURE_ID": null, "usofcl_medicalfac_impacts_ATCFID": null, "usofcl_medicalfac_impacts_DTG": null, "usofcl_medicalfac_impacts_TECH": null, "usofcl_medicalfac_impacts_GEONAMEID": null, "usofcl_medicalfac_impacts_NAME": null, "usofcl_medicalfac_impacts_COUNTRY": null, "usofcl_medicalfac_impacts_AVE_ST_DAM": null, "usofcl_medicalfac_impacts_AVE_CO_DAM": null, "usofcl_medicalfac_impacts_EVAC_FLAG": null, "usofcl_medicalfac_impacts_TIME_ELE": null, "usofcl_medicalfac_impacts_TIME_START": null, "usofcl_medicalfac_impacts_WIND": null, "usofcl_swath_rain_in_ID": 401178, "usofcl_swath_rain_in_CAT": 2, "usofcl_swath_rain_in_LABEL": "1-3in", "usofcl_swath_rain_in_COLOR": "aa6ad9a6", "usofcl_swath_rain_in_ADVNR": 27, "usofcl_swath_rain_in_ATCFID": "WP072026", "usofcl_swath_rain_in_NAME": "MEKKHALA", "usofcl_swath_rain_in_FTECH": "JTWC", "usofcl_swath_rain_in_FCST_DTG": "2026-06-25 06:00:00", "usofcl_swath_rain_in_RUN_DTG": "2026-06-25 08:19:36", "usofcl_swath_rain_in_MSGID": "WTPN51 PGTW 250900", "ofcl_atcf_ID": null, "ofcl_atcf_ATCFID": null, "ofcl_atcf_NAME": null, "ofcl_atcf_TECH": null, "ofcl_atcf_FCSTDTG": null, "ofcl_atcf_TRKTIME": null, "ofcl_atcf_MODEL_CAT": null, "usofcl_swath_wind_mph_ID": 348631, "usofcl_swath_wind_mph_CAT": 1, "usofcl_swath_wind_mph_LABEL": "30 - 35 mph", "usofcl_swath_wind_mph_COLOR": "aae7d7bd", "usofcl_swath_wind_mph_ADVNR": 12, "usofcl_swath_wind_mph_ATCFID": "WP082026", "usofcl_swath_wind_mph_NAME": "HIGOS", "usofcl_swath_wind_mph_FTECH": "JTWC", "usofcl_swath_wind_mph_FCST_DTG": "2026-06-25 06:00:00", "usofcl_swath_wind_mph_RUN_DTG": "2026-06-25 08:32:41", "usofcl_swath_wind_mph_MSGID": "WTPN52 PGTW 250900", "usofcl_swath_surge_ft_ID": null, "usofcl_swath_surge_ft_CAT": null, "usofcl_swath_surge_ft_LABEL": null, "usofcl_swath_surge_ft_COLOR": null, "usofcl_swath_surge_ft_ADVNR": null, "usofcl_swath_surge_ft_ATCFID": null, "usofcl_swath_surge_ft_NAME": null, "usofcl_swath_surge_ft_FTECH": null, "usofcl_swath_surge_ft_FCST_DTG": null, "usofcl_swath_surge_ft_RUN_DTG": null, "usofcl_swath_surge_ft_MSGID": null, "usofcl_fcst_impacts_ID": 139437, "usofcl_fcst_impacts_CAT": 2, "usofcl_fcst_impacts_LABEL": "Large Trees Sway", "usofcl_fcst_impacts_COLOR": "bf8EDDAD", "usofcl_fcst_impacts_ADVNR": 12, "usofcl_fcst_impacts_ATCFID": "WP082026", "usofcl_fcst_impacts_NAME": "HIGOS", "usofcl_fcst_impacts_FTECH": "JTWC", "usofcl_fcst_impacts_FCST_DTG": "2026-06-25 06:00:00", "usofcl_fcst_impacts_RUN_DTG": "2026-06-25 08:32:41", "usofcl_fcst_impacts_MSGID": "WTPN52 PGTW 250900", "usofcl_airport_impacts_FEATURE_ID": null, "usofcl_airport_impacts_ATCFID": null, "usofcl_airport_impacts_DTG": null, "usofcl_airport_impacts_TECH": null, "usofcl_airport_impacts_GEONAMEID": null, "usofcl_airport_impacts_NAME": null, "usofcl_airport_impacts_COUNTRY": null, "usofcl_airport_impacts_AVE_ST_DAM": null, "usofcl_airport_impacts_AVE_CO_DAM": null, "usofcl_airport_impacts_EVAC_FLAG": null, "usofcl_airport_impacts_TIME_ELE": null, "usofcl_airport_impacts_TIME_START": null, "usofcl_airport_impacts_WIND": null, "usofcl_fcst_rain_in_ID": 270019, "usofcl_fcst_rain_in_CAT": 2, "usofcl_fcst_rain_in_LABEL": "1-3in", "usofcl_fcst_rain_in_COLOR": "aa6ad9a6", "usofcl_fcst_rain_in_ADVNR": 27, "usofcl_fcst_rain_in_ATCFID": "WP072026", "usofcl_fcst_rain_in_NAME": "MEKKHALA", "usofcl_fcst_rain_in_FTECH": "JTWC", "usofcl_fcst_rain_in_FCST_DTG": "2026-06-25 06:00:00", "usofcl_fcst_rain_in_RUN_DTG": "2026-06-25 08:19:36", "usofcl_fcst_rain_in_MSGID": "WTPN51 PGTW 250900", "usofcl_swath_sscats_ID": null, "usofcl_swath_sscats_CAT": null, "usofcl_swath_sscats_LABEL": null, "usofcl_swath_sscats_COLOR": null, "usofcl_swath_sscats_ADVNR": null, "usofcl_swath_sscats_ATCFID": null, "usofcl_swath_sscats_NAME": null, "usofcl_swath_sscats_FTECH": null, "usofcl_swath_sscats_FCST_DTG": null, "usofcl_swath_sscats_RUN_DTG": null, "usofcl_swath_sscats_MSGID": null, "usofcl_swath_impacts_ID": 217309, "usofcl_swath_impacts_CAT": 2, "usofcl_swath_impacts_LABEL": "Large Trees Sway", "usofcl_swath_impacts_COLOR": "bf8EDDAD", "usofcl_swath_impacts_ADVNR": 12, "usofcl_swath_impacts_ATCFID": "WP082026", "usofcl_swath_impacts_NAME": "HIGOS", "usofcl_swath_impacts_FTECH": "JTWC", "usofcl_swath_impacts_FCST_DTG": "2026-06-25 06:00:00", "usofcl_swath_impacts_RUN_DTG": "2026-06-25 08:32:41", "usofcl_swath_impacts_MSGID": "WTPN52 PGTW 250900", "usofcl_past_wave_ft_ID": null, "usofcl_past_wave_ft_CAT": null, "usofcl_past_wave_ft_LABEL": null, "usofcl_past_wave_ft_COLOR": null, "usofcl_past_wave_ft_ADVNR": null, "usofcl_past_wave_ft_ATCFID": null, "usofcl_past_wave_ft_NAME": null, "usofcl_past_wave_ft_FTECH": null, "usofcl_past_wave_ft_FCST_DTG": null, "usofcl_past_wave_ft_RUN_DTG": null, "usofcl_past_wave_ft_MSGID": null, "usofcl_admin2_econimpact_FEATURE_ID": null, "usofcl_admin2_econimpact_ATCFID": null, "usofcl_admin2_econimpact_DTG": null, "usofcl_admin2_econimpact_TECH": null, "usofcl_admin2_econimpact_CTRY_ID": null, "usofcl_admin2_econimpact_NAME": null, "usofcl_admin2_econimpact_COUNTRY": null, "usofcl_admin2_econimpact_EXPOSURE": null, "usofcl_admin2_econimpact_POPULATION": null, "usofcl_admin2_econimpact_ECONIMPACT": null, "usofcl_admin2_econimpact_POP_TSWIND": null, "usofcl_admin2_econimpact_POP_HUWIND": null, "usofcl_admin2_econimpact_POP_SURGE": null, "usofcl_fcst_sscats_ID": null, "usofcl_fcst_sscats_CAT": null, "usofcl_fcst_sscats_LABEL": null, "usofcl_fcst_sscats_COLOR": null, "usofcl_fcst_sscats_ADVNR": null, "usofcl_fcst_sscats_ATCFID": null, "usofcl_fcst_sscats_NAME": null, "usofcl_fcst_sscats_FTECH": null, "usofcl_fcst_sscats_FCST_DTG": null, "usofcl_fcst_sscats_RUN_DTG": null, "usofcl_fcst_sscats_MSGID": null, "usofcl_past_wind_mph_ID": null, "usofcl_past_wind_mph_CAT": null, "usofcl_past_wind_mph_LABEL": null, "usofcl_past_wind_mph_COLOR": null, "usofcl_past_wind_mph_ADVNR": null, "usofcl_past_wind_mph_ATCFID": null, "usofcl_past_wind_mph_NAME": null, "usofcl_past_wind_mph_FTECH": null, "usofcl_past_wind_mph_FCST_DTG": null, "usofcl_past_wind_mph_RUN_DTG": null, "usofcl_past_wind_mph_MSGID": null, "usofcl_energy_impacts_FEATURE_ID": null, "usofcl_energy_impacts_ATCFID": null, "usofcl_energy_impacts_DTG": null, "usofcl_energy_impacts_TECH": null, "usofcl_energy_impacts_GEONAMEID": null, "usofcl_energy_impacts_NAME": null, "usofcl_energy_impacts_COUNTRY": null, "usofcl_energy_impacts_AVE_ST_DAM": null, "usofcl_energy_impacts_AVE_CO_DAM": null, "usofcl_energy_impacts_EVAC_FLAG": null, "usofcl_energy_impacts_TIME_ELE": null, "usofcl_energy_impacts_TIME_START": null, "usofcl_energy_impacts_WIND": null, "usofcl_past_surge_ft_ID": null, "usofcl_past_surge_ft_CAT": null, "usofcl_past_surge_ft_LABEL": null, "usofcl_past_surge_ft_COLOR": null, "usofcl_past_surge_ft_ADVNR": null, "usofcl_past_surge_ft_ATCFID": null, "usofcl_past_surge_ft_NAME": null, "usofcl_past_surge_ft_FTECH": null, "usofcl_past_surge_ft_FCST_DTG": null, "usofcl_past_surge_ft_RUN_DTG": null, "usofcl_past_surge_ft_MSGID": null, "usofcl_past_rain_in_ID": null, "usofcl_past_rain_in_CAT": null, "usofcl_past_rain_in_LABEL": null, "usofcl_past_rain_in_COLOR": null, "usofcl_past_rain_in_ADVNR": null, "usofcl_past_rain_in_ATCFID": null, "usofcl_past_rain_in_NAME": null, "usofcl_past_rain_in_FTECH": null, "usofcl_past_rain_in_FCST_DTG": null, "usofcl_past_rain_in_RUN_DTG": null, "usofcl_past_rain_in_MSGID": null, "usofcl_admin1_econimpact_FEATURE_ID": null, "usofcl_admin1_econimpact_ATCFID": null, "usofcl_admin1_econimpact_DTG": null, "usofcl_admin1_econimpact_TECH": null, "usofcl_admin1_econimpact_CTRY_ID": null, "usofcl_admin1_econimpact_NAME": null, "usofcl_admin1_econimpact_COUNTRY": null, "usofcl_admin1_econimpact_EXPOSURE": null, "usofcl_admin1_econimpact_POPULATION": null, "usofcl_admin1_econimpact_ECONIMPACT": null, "usofcl_admin1_econimpact_POP_TSWIND": null, "usofcl_admin1_econimpact_POP_HUWIND": null, "usofcl_admin1_econimpact_POP_SURGE": null, "usofcl_fcst_wave_ft_ID": null, "usofcl_fcst_wave_ft_CAT": null, "usofcl_fcst_wave_ft_LABEL": null, "usofcl_fcst_wave_ft_COLOR": null, "usofcl_fcst_wave_ft_ADVNR": null, "usofcl_fcst_wave_ft_ATCFID": null, "usofcl_fcst_wave_ft_NAME": null, "usofcl_fcst_wave_ft_FTECH": null, "usofcl_fcst_wave_ft_FCST_DTG": null, "usofcl_fcst_wave_ft_RUN_DTG": null, "usofcl_fcst_wave_ft_MSGID": null }, "geometry": { "type": "Point", "coordinates": [ 138.56665, 35.43335 ] } },
{ "type": "Feature", "properties": { "address": "Test Location #4 (Inside Storm)", "city": "Storm City", "state": "FL", "country": "USA", "zip": "33000", "location_id": "test-loc-3", "TIV_Exposed": "$20,000,000", "usofcl_past_impacts_ID": null, "usofcl_past_impacts_CAT": null, "usofcl_past_impacts_LABEL": null, "usofcl_past_impacts_COLOR": null, "usofcl_past_impacts_ADVNR": null, "usofcl_past_impacts_ATCFID": null, "usofcl_past_impacts_NAME": null, "usofcl_past_impacts_FTECH": null, "usofcl_past_impacts_FCST_DTG": null, "usofcl_past_impacts_RUN_DTG": null, "usofcl_past_impacts_MSGID": null, "usofcl_fcst_surge_ft_ID": null, "usofcl_fcst_surge_ft_CAT": null, "usofcl_fcst_surge_ft_LABEL": null, "usofcl_fcst_surge_ft_COLOR": null, "usofcl_fcst_surge_ft_ADVNR": null, "usofcl_fcst_surge_ft_ATCFID": null, "usofcl_fcst_surge_ft_NAME": null, "usofcl_fcst_surge_ft_FTECH": null, "usofcl_fcst_surge_ft_FCST_DTG": null, "usofcl_fcst_surge_ft_RUN_DTG": null, "usofcl_fcst_surge_ft_MSGID": null, "usofcl_tk_pts_ID": null, "usofcl_tk_pts_LAT": null, "usofcl_tk_pts_LON": null, "usofcl_tk_pts_VMAX": null, "usofcl_tk_pts_MSLP": null, "usofcl_tk_pts_RMAX": null, "usofcl_tk_pts_FSPD": null, "usofcl_tk_pts_FDIR": null, "usofcl_tk_pts_RENV": null, "usofcl_tk_pts_PENV": null, "usofcl_tk_pts_VALIDT": null, "usofcl_tk_pts_DTG": null, "usofcl_tk_pts_LATNOW": null, "usofcl_tk_pts_LONNOW": null, "usofcl_tk_pts_WINDNOW": null, "usofcl_tk_pts_DIRNOW": null, "usofcl_tk_pts_SPDNOW": null, "usofcl_tk_pts_TECH": null, "usofcl_tk_pts_ADVNR": null, "usofcl_tk_pts_ATCFID": null, "usofcl_tk_pts_NAME": null, "usofcl_tk_pts_FTECH": null, "usofcl_tk_pts_FCST_DTG": null, "usofcl_tk_pts_RUN_DTG": null, "usofcl_tk_pts_BASIN": null, "usofcl_tk_pts_STMNR": null, "usofcl_tk_pts_CAT_ID": null, "usofcl_tk_pts_CAT_DESC": null, "usofcl_tk_pts_MSGID": null, "usofcl_tk_pts_VALIDTIME": null, "usofcl_past_sscats_ID": null, "usofcl_past_sscats_CAT": null, "usofcl_past_sscats_LABEL": null, "usofcl_past_sscats_COLOR": null, "usofcl_past_sscats_ADVNR": null, "usofcl_past_sscats_ATCFID": null, "usofcl_past_sscats_NAME": null, "usofcl_past_sscats_FTECH": null, "usofcl_past_sscats_FCST_DTG": null, "usofcl_past_sscats_RUN_DTG": null, "usofcl_past_sscats_MSGID": null, "usofcl_national_econimpact_FEATURE_ID": 10728, "usofcl_national_econimpact_ATCFID": "WP072026", "usofcl_national_econimpact_DTG": "2026-06-25 06:00:00", "usofcl_national_econimpact_TECH": "JTWC", "usofcl_national_econimpact_CTRY_ID": 116, "usofcl_national_econimpact_NAME": "Japan", "usofcl_national_econimpact_COUNTRY": "JPN", "usofcl_national_econimpact_EXPOSURE": 7228994504915.8164, "usofcl_national_econimpact_POPULATION": 125210984.0, "usofcl_national_econimpact_ECONIMPACT": 67987811.528444588, "usofcl_national_econimpact_POP_TSWIND": 1552112.0, "usofcl_national_econimpact_POP_HUWIND": 0.0, "usofcl_national_econimpact_POP_SURGE": 0.0, "usofcl_fcst_wind_mph_ID": 184308, "usofcl_fcst_wind_mph_CAT": 1, "usofcl_fcst_wind_mph_LABEL": "30 - 35 mph", "usofcl_fcst_wind_mph_COLOR": "aae7d7bd", "usofcl_fcst_wind_mph_ADVNR": 12, "usofcl_fcst_wind_mph_ATCFID": "WP082026", "usofcl_fcst_wind_mph_NAME": "HIGOS", "usofcl_fcst_wind_mph_FTECH": "JTWC", "usofcl_fcst_wind_mph_FCST_DTG": "2026-06-25 06:00:00", "usofcl_fcst_wind_mph_RUN_DTG": "2026-06-25 08:32:41", "usofcl_fcst_wind_mph_MSGID": "WTPN52 PGTW 250900", "usofcl_seaport_impacts_FEATURE_ID": null, "usofcl_seaport_impacts_ATCFID": null, "usofcl_seaport_impacts_DTG": null, "usofcl_seaport_impacts_TECH": null, "usofcl_seaport_impacts_GEONAMEID": null, "usofcl_seaport_impacts_NAME": null, "usofcl_seaport_impacts_COUNTRY": null, "usofcl_seaport_impacts_AVE_ST_DAM": null, "usofcl_seaport_impacts_AVE_CO_DAM": null, "usofcl_seaport_impacts_EVAC_FLAG": null, "usofcl_seaport_impacts_TIME_ELE": null, "usofcl_seaport_impacts_TIME_START": null, "usofcl_seaport_impacts_WIND": null, "usofcl_swath_wave_ft_ID": null, "usofcl_swath_wave_ft_CAT": null, "usofcl_swath_wave_ft_LABEL": null, "usofcl_swath_wave_ft_COLOR": null, "usofcl_swath_wave_ft_ADVNR": null, "usofcl_swath_wave_ft_ATCFID": null, "usofcl_swath_wave_ft_NAME": null, "usofcl_swath_wave_ft_FTECH": null, "usofcl_swath_wave_ft_FCST_DTG": null, "usofcl_swath_wave_ft_RUN_DTG": null, "usofcl_swath_wave_ft_MSGID": null, "usofcl_track_ID": null, "usofcl_track_LAT": null, "usofcl_track_LON": null, "usofcl_track_VMAX": null, "usofcl_track_MSLP": null, "usofcl_track_RMAX": null, "usofcl_track_FSPD": null, "usofcl_track_FDIR": null, "usofcl_track_RENV": null, "usofcl_track_PENV": null, "usofcl_track_VALIDT": null, "usofcl_track_DTG": null, "usofcl_track_LATNOW": null, "usofcl_track_LONNOW": null, "usofcl_track_WINDNOW": null, "usofcl_track_DIRNOW": null, "usofcl_track_SPDNOW": null, "usofcl_track_TECH": null, "usofcl_track_ADVNR": null, "usofcl_track_ATCFID": null, "usofcl_track_NAME": null, "usofcl_track_FTECH": null, "usofcl_track_FCST_DTG": null, "usofcl_track_RUN_DTG": null, "usofcl_track_BASIN": null, "usofcl_track_STMNR": null, "usofcl_track_CAT_ID": null, "usofcl_track_CAT_DESC": null, "usofcl_track_MSGID": null, "usofcl_track_VALIDTIME": null, "usofcl_medicalfac_impacts_FEATURE_ID": null, "usofcl_medicalfac_impacts_ATCFID": null, "usofcl_medicalfac_impacts_DTG": null, "usofcl_medicalfac_impacts_TECH": null, "usofcl_medicalfac_impacts_GEONAMEID": null, "usofcl_medicalfac_impacts_NAME": null, "usofcl_medicalfac_impacts_COUNTRY": null, "usofcl_medicalfac_impacts_AVE_ST_DAM": null, "usofcl_medicalfac_impacts_AVE_CO_DAM": null, "usofcl_medicalfac_impacts_EVAC_FLAG": null, "usofcl_medicalfac_impacts_TIME_ELE": null, "usofcl_medicalfac_impacts_TIME_START": null, "usofcl_medicalfac_impacts_WIND": null, "usofcl_swath_rain_in_ID": 401178, "usofcl_swath_rain_in_CAT": 2, "usofcl_swath_rain_in_LABEL": "1-3in", "usofcl_swath_rain_in_COLOR": "aa6ad9a6", "usofcl_swath_rain_in_ADVNR": 27, "usofcl_swath_rain_in_ATCFID": "WP072026", "usofcl_swath_rain_in_NAME": "MEKKHALA", "usofcl_swath_rain_in_FTECH": "JTWC", "usofcl_swath_rain_in_FCST_DTG": "2026-06-25 06:00:00", "usofcl_swath_rain_in_RUN_DTG": "2026-06-25 08:19:36", "usofcl_swath_rain_in_MSGID": "WTPN51 PGTW 250900", "ofcl_atcf_ID": null, "ofcl_atcf_ATCFID": null, "ofcl_atcf_NAME": null, "ofcl_atcf_TECH": null, "ofcl_atcf_FCSTDTG": null, "ofcl_atcf_TRKTIME": null, "ofcl_atcf_MODEL_CAT": null, "usofcl_swath_wind_mph_ID": 348632, "usofcl_swath_wind_mph_CAT": 1, "usofcl_swath_wind_mph_LABEL": "30 - 35 mph", "usofcl_swath_wind_mph_COLOR": "aae7d7bd", "usofcl_swath_wind_mph_ADVNR": 12, "usofcl_swath_wind_mph_ATCFID": "WP082026", "usofcl_swath_wind_mph_NAME": "HIGOS", "usofcl_swath_wind_mph_FTECH": "JTWC", "usofcl_swath_wind_mph_FCST_DTG": "2026-06-25 06:00:00", "usofcl_swath_wind_mph_RUN_DTG": "2026-06-25 08:32:41", "usofcl_swath_wind_mph_MSGID": "WTPN52 PGTW 250900", "usofcl_swath_surge_ft_ID": null, "usofcl_swath_surge_ft_CAT": null, "usofcl_swath_surge_ft_LABEL": null, "usofcl_swath_surge_ft_COLOR": null, "usofcl_swath_surge_ft_ADVNR": null, "usofcl_swath_surge_ft_ATCFID": null, "usofcl_swath_surge_ft_NAME": null, "usofcl_swath_surge_ft_FTECH": null, "usofcl_swath_surge_ft_FCST_DTG": null, "usofcl_swath_surge_ft_RUN_DTG": null, "usofcl_swath_surge_ft_MSGID": null, "usofcl_fcst_impacts_ID": 139438, "usofcl_fcst_impacts_CAT": 2, "usofcl_fcst_impacts_LABEL": "Large Trees Sway", "usofcl_fcst_impacts_COLOR": "bf8EDDAD", "usofcl_fcst_impacts_ADVNR": 12, "usofcl_fcst_impacts_ATCFID": "WP082026", "usofcl_fcst_impacts_NAME": "HIGOS", "usofcl_fcst_impacts_FTECH": "JTWC", "usofcl_fcst_impacts_FCST_DTG": "2026-06-25 06:00:00", "usofcl_fcst_impacts_RUN_DTG": "2026-06-25 08:32:41", "usofcl_fcst_impacts_MSGID": "WTPN52 PGTW 250900", "usofcl_airport_impacts_FEATURE_ID": null, "usofcl_airport_impacts_ATCFID": null, "usofcl_airport_impacts_DTG": null, "usofcl_airport_impacts_TECH": null, "usofcl_airport_impacts_GEONAMEID": null, "usofcl_airport_impacts_NAME": null, "usofcl_airport_impacts_COUNTRY": null, "usofcl_airport_impacts_AVE_ST_DAM": null, "usofcl_airport_impacts_AVE_CO_DAM": null, "usofcl_airport_impacts_EVAC_FLAG": null, "usofcl_airport_impacts_TIME_ELE": null, "usofcl_airport_impacts_TIME_START": null, "usofcl_airport_impacts_WIND": null, "usofcl_fcst_rain_in_ID": 270019, "usofcl_fcst_rain_in_CAT": 2, "usofcl_fcst_rain_in_LABEL": "1-3in", "usofcl_fcst_rain_in_COLOR": "aa6ad9a6", "usofcl_fcst_rain_in_ADVNR": 27, "usofcl_fcst_rain_in_ATCFID": "WP072026", "usofcl_fcst_rain_in_NAME": "MEKKHALA", "usofcl_fcst_rain_in_FTECH": "JTWC", "usofcl_fcst_rain_in_FCST_DTG": "2026-06-25 06:00:00", "usofcl_fcst_rain_in_RUN_DTG": "2026-06-25 08:19:36", "usofcl_fcst_rain_in_MSGID": "WTPN51 PGTW 250900", "usofcl_swath_sscats_ID": null, "usofcl_swath_sscats_CAT": null, "usofcl_swath_sscats_LABEL": null, "usofcl_swath_sscats_COLOR": null, "usofcl_swath_sscats_ADVNR": null, "usofcl_swath_sscats_ATCFID": null, "usofcl_swath_sscats_NAME": null, "usofcl_swath_sscats_FTECH": null, "usofcl_swath_sscats_FCST_DTG": null, "usofcl_swath_sscats_RUN_DTG": null, "usofcl_swath_sscats_MSGID": null, "usofcl_swath_impacts_ID": 217310, "usofcl_swath_impacts_CAT": 2, "usofcl_swath_impacts_LABEL": "Large Trees Sway", "usofcl_swath_impacts_COLOR": "bf8EDDAD", "usofcl_swath_impacts_ADVNR": 12, "usofcl_swath_impacts_ATCFID": "WP082026", "usofcl_swath_impacts_NAME": "HIGOS", "usofcl_swath_impacts_FTECH": "JTWC", "usofcl_swath_impacts_FCST_DTG": "2026-06-25 06:00:00", "usofcl_swath_impacts_RUN_DTG": "2026-06-25 08:32:41", "usofcl_swath_impacts_MSGID": "WTPN52 PGTW 250900", "usofcl_past_wave_ft_ID": null, "usofcl_past_wave_ft_CAT": null, "usofcl_past_wave_ft_LABEL": null, "usofcl_past_wave_ft_COLOR": null, "usofcl_past_wave_ft_ADVNR": null, "usofcl_past_wave_ft_ATCFID": null, "usofcl_past_wave_ft_NAME": null, "usofcl_past_wave_ft_FTECH": null, "usofcl_past_wave_ft_FCST_DTG": null, "usofcl_past_wave_ft_RUN_DTG": null, "usofcl_past_wave_ft_MSGID": null, "usofcl_admin2_econimpact_FEATURE_ID": null, "usofcl_admin2_econimpact_ATCFID": null, "usofcl_admin2_econimpact_DTG": null, "usofcl_admin2_econimpact_TECH": null, "usofcl_admin2_econimpact_CTRY_ID": null, "usofcl_admin2_econimpact_NAME": null, "usofcl_admin2_econimpact_COUNTRY": null, "usofcl_admin2_econimpact_EXPOSURE": null, "usofcl_admin2_econimpact_POPULATION": null, "usofcl_admin2_econimpact_ECONIMPACT": null, "usofcl_admin2_econimpact_POP_TSWIND": null, "usofcl_admin2_econimpact_POP_HUWIND": null, "usofcl_admin2_econimpact_POP_SURGE": null, "usofcl_fcst_sscats_ID": null, "usofcl_fcst_sscats_CAT": null, "usofcl_fcst_sscats_LABEL": null, "usofcl_fcst_sscats_COLOR": null, "usofcl_fcst_sscats_ADVNR": null, "usofcl_fcst_sscats_ATCFID": null, "usofcl_fcst_sscats_NAME": null, "usofcl_fcst_sscats_FTECH": null, "usofcl_fcst_sscats_FCST_DTG": null, "usofcl_fcst_sscats_RUN_DTG": null, "usofcl_fcst_sscats_MSGID": null, "usofcl_past_wind_mph_ID": null, "usofcl_past_wind_mph_CAT": null, "usofcl_past_wind_mph_LABEL": null, "usofcl_past_wind_mph_COLOR": null, "usofcl_past_wind_mph_ADVNR": null, "usofcl_past_wind_mph_ATCFID": null, "usofcl_past_wind_mph_NAME": null, "usofcl_past_wind_mph_FTECH": null, "usofcl_past_wind_mph_FCST_DTG": null, "usofcl_past_wind_mph_RUN_DTG": null, "usofcl_past_wind_mph_MSGID": null, "usofcl_energy_impacts_FEATURE_ID": null, "usofcl_energy_impacts_ATCFID": null, "usofcl_energy_impacts_DTG": null, "usofcl_energy_impacts_TECH": null, "usofcl_energy_impacts_GEONAMEID": null, "usofcl_energy_impacts_NAME": null, "usofcl_energy_impacts_COUNTRY": null, "usofcl_energy_impacts_AVE_ST_DAM": null, "usofcl_energy_impacts_AVE_CO_DAM": null, "usofcl_energy_impacts_EVAC_FLAG": null, "usofcl_energy_impacts_TIME_ELE": null, "usofcl_energy_impacts_TIME_START": null, "usofcl_energy_impacts_WIND": null, "usofcl_past_surge_ft_ID": null, "usofcl_past_surge_ft_CAT": null, "usofcl_past_surge_ft_LABEL": null, "usofcl_past_surge_ft_COLOR": null, "usofcl_past_surge_ft_ADVNR": null, "usofcl_past_surge_ft_ATCFID": null, "usofcl_past_surge_ft_NAME": null, "usofcl_past_surge_ft_FTECH": null, "usofcl_past_surge_ft_FCST_DTG": null, "usofcl_past_surge_ft_RUN_DTG": null, "usofcl_past_surge_ft_MSGID": null, "usofcl_past_rain_in_ID": null, "usofcl_past_rain_in_CAT": null, "usofcl_past_rain_in_LABEL": null, "usofcl_past_rain_in_COLOR": null, "usofcl_past_rain_in_ADVNR": null, "usofcl_past_rain_in_ATCFID": null, "usofcl_past_rain_in_NAME": null, "usofcl_past_rain_in_FTECH": null, "usofcl_past_rain_in_FCST_DTG": null, "usofcl_past_rain_in_RUN_DTG": null, "usofcl_past_rain_in_MSGID": null, "usofcl_admin1_econimpact_FEATURE_ID": 11754.0, "usofcl_admin1_econimpact_ATCFID": "WP072026", "usofcl_admin1_econimpact_DTG": "2026-06-25 06:00:00", "usofcl_admin1_econimpact_TECH": "JTWC", "usofcl_admin1_econimpact_CTRY_ID": 1437.0, "usofcl_admin1_econimpact_NAME": "Shizuoka", "usofcl_admin1_econimpact_COUNTRY": "JPN", "usofcl_admin1_econimpact_EXPOSURE": 187321853147.96094, "usofcl_admin1_econimpact_POPULATION": 3621108.0, "usofcl_admin1_econimpact_ECONIMPACT": 78237.054013913119, "usofcl_admin1_econimpact_POP_TSWIND": 14945.0, "usofcl_admin1_econimpact_POP_HUWIND": 0.0, "usofcl_admin1_econimpact_POP_SURGE": 0.0, "usofcl_fcst_wave_ft_ID": null, "usofcl_fcst_wave_ft_CAT": null, "usofcl_fcst_wave_ft_LABEL": null, "usofcl_fcst_wave_ft_COLOR": null, "usofcl_fcst_wave_ft_ADVNR": null, "usofcl_fcst_wave_ft_ATCFID": null, "usofcl_fcst_wave_ft_NAME": null, "usofcl_fcst_wave_ft_FTECH": null, "usofcl_fcst_wave_ft_FCST_DTG": null, "usofcl_fcst_wave_ft_RUN_DTG": null, "usofcl_fcst_wave_ft_MSGID": null }, "geometry": { "type": "Point", "coordinates": [ 138.7833, 35.34165 ] } },
{ "type": "Feature", "properties": { "address": "Test Location #5 (Inside Storm)", "city": "Storm City", "state": "FL", "country": "USA", "zip": "33000", "location_id": "test-loc-4", "TIV_Exposed": "$25,000,000", "usofcl_past_impacts_ID": null, "usofcl_past_impacts_CAT": null, "usofcl_past_impacts_LABEL": null, "usofcl_past_impacts_COLOR": null, "usofcl_past_impacts_ADVNR": null, "usofcl_past_impacts_ATCFID": null, "usofcl_past_impacts_NAME": null, "usofcl_past_impacts_FTECH": null, "usofcl_past_impacts_FCST_DTG": null, "usofcl_past_impacts_RUN_DTG": null, "usofcl_past_impacts_MSGID": null, "usofcl_fcst_surge_ft_ID": null, "usofcl_fcst_surge_ft_CAT": null, "usofcl_fcst_surge_ft_LABEL": null, "usofcl_fcst_surge_ft_COLOR": null, "usofcl_fcst_surge_ft_ADVNR": null, "usofcl_fcst_surge_ft_ATCFID": null, "usofcl_fcst_surge_ft_NAME": null, "usofcl_fcst_surge_ft_FTECH": null, "usofcl_fcst_surge_ft_FCST_DTG": null, "usofcl_fcst_surge_ft_RUN_DTG": null, "usofcl_fcst_surge_ft_MSGID": null, "usofcl_tk_pts_ID": null, "usofcl_tk_pts_LAT": null, "usofcl_tk_pts_LON": null, "usofcl_tk_pts_VMAX": null, "usofcl_tk_pts_MSLP": null, "usofcl_tk_pts_RMAX": null, "usofcl_tk_pts_FSPD": null, "usofcl_tk_pts_FDIR": null, "usofcl_tk_pts_RENV": null, "usofcl_tk_pts_PENV": null, "usofcl_tk_pts_VALIDT": null, "usofcl_tk_pts_DTG": null, "usofcl_tk_pts_LATNOW": null, "usofcl_tk_pts_LONNOW": null, "usofcl_tk_pts_WINDNOW": null, "usofcl_tk_pts_DIRNOW": null, "usofcl_tk_pts_SPDNOW": null, "usofcl_tk_pts_TECH": null, "usofcl_tk_pts_ADVNR": null, "usofcl_tk_pts_ATCFID": null, "usofcl_tk_pts_NAME": null, "usofcl_tk_pts_FTECH": null, "usofcl_tk_pts_FCST_DTG": null, "usofcl_tk_pts_RUN_DTG": null, "usofcl_tk_pts_BASIN": null, "usofcl_tk_pts_STMNR": null, "usofcl_tk_pts_CAT_ID": null, "usofcl_tk_pts_CAT_DESC": null, "usofcl_tk_pts_MSGID": null, "usofcl_tk_pts_VALIDTIME": null, "usofcl_past_sscats_ID": null, "usofcl_past_sscats_CAT": null, "usofcl_past_sscats_LABEL": null, "usofcl_past_sscats_COLOR": null, "usofcl_past_sscats_ADVNR": null, "usofcl_past_sscats_ATCFID": null, "usofcl_past_sscats_NAME": null, "usofcl_past_sscats_FTECH": null, "usofcl_past_sscats_FCST_DTG": null, "usofcl_past_sscats_RUN_DTG": null, "usofcl_past_sscats_MSGID": null, "usofcl_national_econimpact_FEATURE_ID": 10728, "usofcl_national_econimpact_ATCFID": "WP072026", "usofcl_national_econimpact_DTG": "2026-06-25 06:00:00", "usofcl_national_econimpact_TECH": "JTWC", "usofcl_national_econimpact_CTRY_ID": 116, "usofcl_national_econimpact_NAME": "Japan", "usofcl_national_econimpact_COUNTRY": "JPN", "usofcl_national_econimpact_EXPOSURE": 7228994504915.8164, "usofcl_national_econimpact_POPULATION": 125210984.0, "usofcl_national_econimpact_ECONIMPACT": 67987811.528444588, "usofcl_national_econimpact_POP_TSWIND": 1552112.0, "usofcl_national_econimpact_POP_HUWIND": 0.0, "usofcl_national_econimpact_POP_SURGE": 0.0, "usofcl_fcst_wind_mph_ID": 184309, "usofcl_fcst_wind_mph_CAT": 1, "usofcl_fcst_wind_mph_LABEL": "30 - 35 mph", "usofcl_fcst_wind_mph_COLOR": "aae7d7bd", "usofcl_fcst_wind_mph_ADVNR": 12, "usofcl_fcst_wind_mph_ATCFID": "WP082026", "usofcl_fcst_wind_mph_NAME": "HIGOS", "usofcl_fcst_wind_mph_FTECH": "JTWC", "usofcl_fcst_wind_mph_FCST_DTG": "2026-06-25 06:00:00", "usofcl_fcst_wind_mph_RUN_DTG": "2026-06-25 08:32:41", "usofcl_fcst_wind_mph_MSGID": "WTPN52 PGTW 250900", "usofcl_seaport_impacts_FEATURE_ID": null, "usofcl_seaport_impacts_ATCFID": null, "usofcl_seaport_impacts_DTG": null, "usofcl_seaport_impacts_TECH": null, "usofcl_seaport_impacts_GEONAMEID": null, "usofcl_seaport_impacts_NAME": null, "usofcl_seaport_impacts_COUNTRY": null, "usofcl_seaport_impacts_AVE_ST_DAM": null, "usofcl_seaport_impacts_AVE_CO_DAM": null, "usofcl_seaport_impacts_EVAC_FLAG": null, "usofcl_seaport_impacts_TIME_ELE": null, "usofcl_seaport_impacts_TIME_START": null, "usofcl_seaport_impacts_WIND": null, "usofcl_swath_wave_ft_ID": null, "usofcl_swath_wave_ft_CAT": null, "usofcl_swath_wave_ft_LABEL": null, "usofcl_swath_wave_ft_COLOR": null, "usofcl_swath_wave_ft_ADVNR": null, "usofcl_swath_wave_ft_ATCFID": null, "usofcl_swath_wave_ft_NAME": null, "usofcl_swath_wave_ft_FTECH": null, "usofcl_swath_wave_ft_FCST_DTG": null, "usofcl_swath_wave_ft_RUN_DTG": null, "usofcl_swath_wave_ft_MSGID": null, "usofcl_track_ID": null, "usofcl_track_LAT": null, "usofcl_track_LON": null, "usofcl_track_VMAX": null, "usofcl_track_MSLP": null, "usofcl_track_RMAX": null, "usofcl_track_FSPD": null, "usofcl_track_FDIR": null, "usofcl_track_RENV": null, "usofcl_track_PENV": null, "usofcl_track_VALIDT": null, "usofcl_track_DTG": null, "usofcl_track_LATNOW": null, "usofcl_track_LONNOW": null, "usofcl_track_WINDNOW": null, "usofcl_track_DIRNOW": null, "usofcl_track_SPDNOW": null, "usofcl_track_TECH": null, "usofcl_track_ADVNR": null, "usofcl_track_ATCFID": null, "usofcl_track_NAME": null, "usofcl_track_FTECH": null, "usofcl_track_FCST_DTG": null, "usofcl_track_RUN_DTG": null, "usofcl_track_BASIN": null, "usofcl_track_STMNR": null, "usofcl_track_CAT_ID": null, "usofcl_track_CAT_DESC": null, "usofcl_track_MSGID": null, "usofcl_track_VALIDTIME": null, "usofcl_medicalfac_impacts_FEATURE_ID": null, "usofcl_medicalfac_impacts_ATCFID": null, "usofcl_medicalfac_impacts_DTG": null, "usofcl_medicalfac_impacts_TECH": null, "usofcl_medicalfac_impacts_GEONAMEID": null, "usofcl_medicalfac_impacts_NAME": null, "usofcl_medicalfac_impacts_COUNTRY": null, "usofcl_medicalfac_impacts_AVE_ST_DAM": null, "usofcl_medicalfac_impacts_AVE_CO_DAM": null, "usofcl_medicalfac_impacts_EVAC_FLAG": null, "usofcl_medicalfac_impacts_TIME_ELE": null, "usofcl_medicalfac_impacts_TIME_START": null, "usofcl_medicalfac_impacts_WIND": null, "usofcl_swath_rain_in_ID": 401355, "usofcl_swath_rain_in_CAT": 2, "usofcl_swath_rain_in_LABEL": "1-3in", "usofcl_swath_rain_in_COLOR": "aa6ad9a6", "usofcl_swath_rain_in_ADVNR": 27, "usofcl_swath_rain_in_ATCFID": "WP072026", "usofcl_swath_rain_in_NAME": "MEKKHALA", "usofcl_swath_rain_in_FTECH": "JTWC", "usofcl_swath_rain_in_FCST_DTG": "2026-06-25 06:00:00", "usofcl_swath_rain_in_RUN_DTG": "2026-06-25 08:19:36", "usofcl_swath_rain_in_MSGID": "WTPN51 PGTW 250900", "ofcl_atcf_ID": null, "ofcl_atcf_ATCFID": null, "ofcl_atcf_NAME": null, "ofcl_atcf_TECH": null, "ofcl_atcf_FCSTDTG": null, "ofcl_atcf_TRKTIME": null, "ofcl_atcf_MODEL_CAT": null, "usofcl_swath_wind_mph_ID": 348633, "usofcl_swath_wind_mph_CAT": 1, "usofcl_swath_wind_mph_LABEL": "30 - 35 mph", "usofcl_swath_wind_mph_COLOR": "aae7d7bd", "usofcl_swath_wind_mph_ADVNR": 12, "usofcl_swath_wind_mph_ATCFID": "WP082026", "usofcl_swath_wind_mph_NAME": "HIGOS", "usofcl_swath_wind_mph_FTECH": "JTWC", "usofcl_swath_wind_mph_FCST_DTG": "2026-06-25 06:00:00", "usofcl_swath_wind_mph_RUN_DTG": "2026-06-25 08:32:41", "usofcl_swath_wind_mph_MSGID": "WTPN52 PGTW 250900", "usofcl_swath_surge_ft_ID": null, "usofcl_swath_surge_ft_CAT": null, "usofcl_swath_surge_ft_LABEL": null, "usofcl_swath_surge_ft_COLOR": null, "usofcl_swath_surge_ft_ADVNR": null, "usofcl_swath_surge_ft_ATCFID": null, "usofcl_swath_surge_ft_NAME": null, "usofcl_swath_surge_ft_FTECH": null, "usofcl_swath_surge_ft_FCST_DTG": null, "usofcl_swath_surge_ft_RUN_DTG": null, "usofcl_swath_surge_ft_MSGID": null, "usofcl_fcst_impacts_ID": 139440, "usofcl_fcst_impacts_CAT": 2, "usofcl_fcst_impacts_LABEL": "Large Trees Sway", "usofcl_fcst_impacts_COLOR": "bf8EDDAD", "usofcl_fcst_impacts_ADVNR": 12, "usofcl_fcst_impacts_ATCFID": "WP082026", "usofcl_fcst_impacts_NAME": "HIGOS", "usofcl_fcst_impacts_FTECH": "JTWC", "usofcl_fcst_impacts_FCST_DTG": "2026-06-25 06:00:00", "usofcl_fcst_impacts_RUN_DTG": "2026-06-25 08:32:41", "usofcl_fcst_impacts_MSGID": "WTPN52 PGTW 250900", "usofcl_airport_impacts_FEATURE_ID": null, "usofcl_airport_impacts_ATCFID": null, "usofcl_airport_impacts_DTG": null, "usofcl_airport_impacts_TECH": null, "usofcl_airport_impacts_GEONAMEID": null, "usofcl_airport_impacts_NAME": null, "usofcl_airport_impacts_COUNTRY": null, "usofcl_airport_impacts_AVE_ST_DAM": null, "usofcl_airport_impacts_AVE_CO_DAM": null, "usofcl_airport_impacts_EVAC_FLAG": null, "usofcl_airport_impacts_TIME_ELE": null, "usofcl_airport_impacts_TIME_START": null, "usofcl_airport_impacts_WIND": null, "usofcl_fcst_rain_in_ID": 270196, "usofcl_fcst_rain_in_CAT": 2, "usofcl_fcst_rain_in_LABEL": "1-3in", "usofcl_fcst_rain_in_COLOR": "aa6ad9a6", "usofcl_fcst_rain_in_ADVNR": 27, "usofcl_fcst_rain_in_ATCFID": "WP072026", "usofcl_fcst_rain_in_NAME": "MEKKHALA", "usofcl_fcst_rain_in_FTECH": "JTWC", "usofcl_fcst_rain_in_FCST_DTG": "2026-06-25 06:00:00", "usofcl_fcst_rain_in_RUN_DTG": "2026-06-25 08:19:36", "usofcl_fcst_rain_in_MSGID": "WTPN51 PGTW 250900", "usofcl_swath_sscats_ID": null, "usofcl_swath_sscats_CAT": null, "usofcl_swath_sscats_LABEL": null, "usofcl_swath_sscats_COLOR": null, "usofcl_swath_sscats_ADVNR": null, "usofcl_swath_sscats_ATCFID": null, "usofcl_swath_sscats_NAME": null, "usofcl_swath_sscats_FTECH": null, "usofcl_swath_sscats_FCST_DTG": null, "usofcl_swath_sscats_RUN_DTG": null, "usofcl_swath_sscats_MSGID": null, "usofcl_swath_impacts_ID": 217312, "usofcl_swath_impacts_CAT": 2, "usofcl_swath_impacts_LABEL": "Large Trees Sway", "usofcl_swath_impacts_COLOR": "bf8EDDAD", "usofcl_swath_impacts_ADVNR": 12, "usofcl_swath_impacts_ATCFID": "WP082026", "usofcl_swath_impacts_NAME": "HIGOS", "usofcl_swath_impacts_FTECH": "JTWC", "usofcl_swath_impacts_FCST_DTG": "2026-06-25 06:00:00", "usofcl_swath_impacts_RUN_DTG": "2026-06-25 08:32:41", "usofcl_swath_impacts_MSGID": "WTPN52 PGTW 250900", "usofcl_past_wave_ft_ID": null, "usofcl_past_wave_ft_CAT": null, "usofcl_past_wave_ft_LABEL": null, "usofcl_past_wave_ft_COLOR": null, "usofcl_past_wave_ft_ADVNR": null, "usofcl_past_wave_ft_ATCFID": null, "usofcl_past_wave_ft_NAME": null, "usofcl_past_wave_ft_FTECH": null, "usofcl_past_wave_ft_FCST_DTG": null, "usofcl_past_wave_ft_RUN_DTG": null, "usofcl_past_wave_ft_MSGID": null, "usofcl_admin2_econimpact_FEATURE_ID": null, "usofcl_admin2_econimpact_ATCFID": null, "usofcl_admin2_econimpact_DTG": null, "usofcl_admin2_econimpact_TECH": null, "usofcl_admin2_econimpact_CTRY_ID": null, "usofcl_admin2_econimpact_NAME": null, "usofcl_admin2_econimpact_COUNTRY": null, "usofcl_admin2_econimpact_EXPOSURE": null, "usofcl_admin2_econimpact_POPULATION": null, "usofcl_admin2_econimpact_ECONIMPACT": null, "usofcl_admin2_econimpact_POP_TSWIND": null, "usofcl_admin2_econimpact_POP_HUWIND": null, "usofcl_admin2_econimpact_POP_SURGE": null, "usofcl_fcst_sscats_ID": null, "usofcl_fcst_sscats_CAT": null, "usofcl_fcst_sscats_LABEL": null, "usofcl_fcst_sscats_COLOR": null, "usofcl_fcst_sscats_ADVNR": null, "usofcl_fcst_sscats_ATCFID": null, "usofcl_fcst_sscats_NAME": null, "usofcl_fcst_sscats_FTECH": null, "usofcl_fcst_sscats_FCST_DTG": null, "usofcl_fcst_sscats_RUN_DTG": null, "usofcl_fcst_sscats_MSGID": null, "usofcl_past_wind_mph_ID": null, "usofcl_past_wind_mph_CAT": null, "usofcl_past_wind_mph_LABEL": null, "usofcl_past_wind_mph_COLOR": null, "usofcl_past_wind_mph_ADVNR": null, "usofcl_past_wind_mph_ATCFID": null, "usofcl_past_wind_mph_NAME": null, "usofcl_past_wind_mph_FTECH": null, "usofcl_past_wind_mph_FCST_DTG": null, "usofcl_past_wind_mph_RUN_DTG": null, "usofcl_past_wind_mph_MSGID": null, "usofcl_energy_impacts_FEATURE_ID": null, "usofcl_energy_impacts_ATCFID": null, "usofcl_energy_impacts_DTG": null, "usofcl_energy_impacts_TECH": null, "usofcl_energy_impacts_GEONAMEID": null, "usofcl_energy_impacts_NAME": null, "usofcl_energy_impacts_COUNTRY": null, "usofcl_energy_impacts_AVE_ST_DAM": null, "usofcl_energy_impacts_AVE_CO_DAM": null, "usofcl_energy_impacts_EVAC_FLAG": null, "usofcl_energy_impacts_TIME_ELE": null, "usofcl_energy_impacts_TIME_START": null, "usofcl_energy_impacts_WIND": null, "usofcl_past_surge_ft_ID": null, "usofcl_past_surge_ft_CAT": null, "usofcl_past_surge_ft_LABEL": null, "usofcl_past_surge_ft_COLOR": null, "usofcl_past_surge_ft_ADVNR": null, "usofcl_past_surge_ft_ATCFID": null, "usofcl_past_surge_ft_NAME": null, "usofcl_past_surge_ft_FTECH": null, "usofcl_past_surge_ft_FCST_DTG": null, "usofcl_past_surge_ft_RUN_DTG": null, "usofcl_past_surge_ft_MSGID": null, "usofcl_past_rain_in_ID": null, "usofcl_past_rain_in_CAT": null, "usofcl_past_rain_in_LABEL": null, "usofcl_past_rain_in_COLOR": null, "usofcl_past_rain_in_ADVNR": null, "usofcl_past_rain_in_ATCFID": null, "usofcl_past_rain_in_NAME": null, "usofcl_past_rain_in_FTECH": null, "usofcl_past_rain_in_FCST_DTG": null, "usofcl_past_rain_in_RUN_DTG": null, "usofcl_past_rain_in_MSGID": null, "usofcl_admin1_econimpact_FEATURE_ID": 11754.0, "usofcl_admin1_econimpact_ATCFID": "WP072026", "usofcl_admin1_econimpact_DTG": "2026-06-25 06:00:00", "usofcl_admin1_econimpact_TECH": "JTWC", "usofcl_admin1_econimpact_CTRY_ID": 1437.0, "usofcl_admin1_econimpact_NAME": "Shizuoka", "usofcl_admin1_econimpact_COUNTRY": "JPN", "usofcl_admin1_econimpact_EXPOSURE": 187321853147.96094, "usofcl_admin1_econimpact_POPULATION": 3621108.0, "usofcl_admin1_econimpact_ECONIMPACT": 78237.054013913119, "usofcl_admin1_econimpact_POP_TSWIND": 14945.0, "usofcl_admin1_econimpact_POP_HUWIND": 0.0, "usofcl_admin1_econimpact_POP_SURGE": 0.0, "usofcl_fcst_wave_ft_ID": null, "usofcl_fcst_wave_ft_CAT": null, "usofcl_fcst_wave_ft_LABEL": null, "usofcl_fcst_wave_ft_COLOR": null, "usofcl_fcst_wave_ft_ADVNR": null, "usofcl_fcst_wave_ft_ATCFID": null, "usofcl_fcst_wave_ft_NAME": null, "usofcl_fcst_wave_ft_FTECH": null, "usofcl_fcst_wave_ft_FCST_DTG": null, "usofcl_fcst_wave_ft_RUN_DTG": null, "usofcl_fcst_wave_ft_MSGID": null }, "geometry": { "type": "Point", "coordinates": [ 138.16665, 35.375 ] } }
]
}
